<?xml version="1.0" encoding="UTF-8"?>
<gpx xmlns:xsi="http://www.w3.org/2001/XMLSchema-instance"
     xsi:schemaLocation="http://www.topografix.com/GPX/1/1 http://www.topografix.com/GPX/1/1/gpx.xsd"
     version="1.1" creator="json3d_batch_to_gpx"
     xmlns="http://www.topografix.com/GPX/1/1">
  <metadata>
    <name>LungHaWanCountryTrail</name>
  </metadata>
  <trk>
    <name>LungHaWanCountryTrail</name>
    <type>hike</type>
    <trkseg>
      <trkpt lat="22.2916552473" lon="114.3019966534"><ele>110.000</ele></trkpt>
      <trkpt lat="22.2916686157" lon="114.3020066683"><ele>110.000</ele></trkpt>
      <trkpt lat="22.2917072376" lon="114.3020245862"><ele>110.000</ele></trkpt>
      <trkpt lat="22.2917357595" lon="114.3020367475"><ele>110.000</ele></trkpt>
      <trkpt lat="22.2917564355" lon="114.3020444768"><ele>110.000</ele></trkpt>
      <trkpt lat="22.2917791289" lon="114.3020509162"><ele>110.000</ele></trkpt>
      <trkpt lat="22.2918054052" lon="114.3020592841"><ele>112.000</ele></trkpt>
      <trkpt lat="22.2918322787" lon="114.3020682940"><ele>112.000</ele></trkpt>
      <trkpt lat="22.2918507930" lon="114.3020721621"><ele>112.000</ele></trkpt>
      <trkpt lat="22.2918669192" lon="114.3020753865"><ele>112.000</ele></trkpt>
      <trkpt lat="22.2918800600" lon="114.3020760397"><ele>112.000</ele></trkpt>
      <trkpt lat="22.2918932028" lon="114.3020741261"><ele>115.000</ele></trkpt>
      <trkpt lat="22.2919057497" lon="114.3020709272"><ele>115.000</ele></trkpt>
      <trkpt lat="22.2919153108" lon="114.3020658013"><ele>115.000</ele></trkpt>
      <trkpt lat="22.2919242784" lon="114.3020561809"><ele>115.000</ele></trkpt>
      <trkpt lat="22.2919332474" lon="114.3020446343"><ele>118.000</ele></trkpt>
      <trkpt lat="22.2919434114" lon="114.3020318058"><ele>118.000</ele></trkpt>
      <trkpt lat="22.2919505888" lon="114.3020202586"><ele>118.000</ele></trkpt>
      <trkpt lat="22.2919571674" lon="114.3020099946"><ele>118.000</ele></trkpt>
      <trkpt lat="22.2919661325" lon="114.3020035834"><ele>118.000</ele></trkpt>
      <trkpt lat="22.2919786784" lon="114.3020016693"><ele>122.000</ele></trkpt>
      <trkpt lat="22.2919965993" lon="114.3019997590"><ele>122.000</ele></trkpt>
      <trkpt lat="22.2920390136" lon="114.3019959462"><ele>124.000</ele></trkpt>
      <trkpt lat="22.2921035299" lon="114.3019915097"><ele>125.000</ele></trkpt>
      <trkpt lat="22.2921322036" lon="114.3019883261"><ele>126.000</ele></trkpt>
      <trkpt lat="22.2921752157" lon="114.3019845128"><ele>126.000</ele></trkpt>
      <trkpt lat="22.2922397321" lon="114.3019787934"><ele>126.000</ele></trkpt>
      <trkpt lat="22.2922994699" lon="114.3019737112"><ele>128.000</ele></trkpt>
      <trkpt lat="22.2923353120" lon="114.3019718179"><ele>128.000</ele></trkpt>
      <trkpt lat="22.2923609988" lon="114.3019705569"><ele>129.000</ele></trkpt>
      <trkpt lat="22.2923914626" lon="114.3019705840"><ele>130.000</ele></trkpt>
      <trkpt lat="22.2924255107" lon="114.3019706143"><ele>130.000</ele></trkpt>
      <trkpt lat="22.2924625451" lon="114.3019719311"><ele>130.000</ele></trkpt>
      <trkpt lat="22.2924882309" lon="114.3019719540"><ele>132.000</ele></trkpt>
      <trkpt lat="22.2925139147" lon="114.3019732607"><ele>132.000</ele></trkpt>
      <trkpt lat="22.2925306403" lon="114.3019732756"><ele>132.000</ele></trkpt>
      <trkpt lat="22.2925593115" lon="114.3019745850"><ele>132.000</ele></trkpt>
      <trkpt lat="22.2925861939" lon="114.3019720412"><ele>132.000</ele></trkpt>
      <trkpt lat="22.2926076955" lon="114.3019759119"><ele>132.000</ele></trkpt>
      <trkpt lat="22.2926429344" lon="114.3019810778"><ele>136.000</ele></trkpt>
      <trkpt lat="22.2926668261" lon="114.3019830253"><ele>140.000</ele></trkpt>
      <trkpt lat="22.2926811612" lon="114.3019843219"><ele>140.000</ele></trkpt>
      <trkpt lat="22.2926901238" lon="114.3019811198"><ele>140.000</ele></trkpt>
      <trkpt lat="22.2927032691" lon="114.3019759970"><ele>141.000</ele></trkpt>
      <trkpt lat="22.2927164119" lon="114.3019740825"><ele>141.000</ele></trkpt>
      <trkpt lat="22.2927277616" lon="114.3019740926"><ele>141.000</ele></trkpt>
      <trkpt lat="22.2927373152" lon="114.3019785941"><ele>141.000</ele></trkpt>
      <trkpt lat="22.2927522407" lon="114.3019895197"><ele>142.000</ele></trkpt>
      <trkpt lat="22.2927671658" lon="114.3019998038"><ele>142.000</ele></trkpt>
      <trkpt lat="22.2927844803" lon="114.3020113729"><ele>144.000</ele></trkpt>
      <trkpt lat="22.2927982186" lon="114.3020113852"><ele>147.000</ele></trkpt>
      <trkpt lat="22.2928095682" lon="114.3020113953"><ele>147.000</ele></trkpt>
      <trkpt lat="22.2928203200" lon="114.3020114048"><ele>147.000</ele></trkpt>
      <trkpt lat="22.2928292787" lon="114.3020133381"><ele>147.000</ele></trkpt>
      <trkpt lat="22.2928400276" lon="114.3020171993"><ele>149.000</ele></trkpt>
      <trkpt lat="22.2928483839" lon="114.3020261937"><ele>149.000</ele></trkpt>
      <trkpt lat="22.2928519597" lon="114.3020371082"><ele>149.000</ele></trkpt>
      <trkpt lat="22.2928561330" lon="114.3020473827"><ele>149.000</ele></trkpt>
      <trkpt lat="22.2928597079" lon="114.3020582982"><ele>150.000</ele></trkpt>
      <trkpt lat="22.2928662760" lon="114.3020627971"><ele>150.000</ele></trkpt>
      <trkpt lat="22.2928716514" lon="114.3020634433"><ele>150.000</ele></trkpt>
      <trkpt lat="22.2928776253" lon="114.3020621648"><ele>150.000</ele></trkpt>
      <trkpt lat="22.2928877881" lon="114.3020519039"><ele>152.000</ele></trkpt>
      <trkpt lat="22.2928979504" lon="114.3020422846"><ele>152.000</ele></trkpt>
      <trkpt lat="22.2929039262" lon="114.3020397222"><ele>152.000</ele></trkpt>
      <trkpt lat="22.2929099000" lon="114.3020384437"><ele>152.000</ele></trkpt>
      <trkpt lat="22.2929158713" lon="114.3020416591"><ele>152.000</ele></trkpt>
      <trkpt lat="22.2929278094" lon="114.3020525820"><ele>155.000</ele></trkpt>
      <trkpt lat="22.2929367641" lon="114.3020596497"><ele>156.000</ele></trkpt>
      <trkpt lat="22.2929469161" lon="114.3020635104"><ele>156.000</ele></trkpt>
      <trkpt lat="22.2929588607" lon="114.3020660887"><ele>156.000</ele></trkpt>
      <trkpt lat="22.2929708058" lon="114.3020680256"><ele>159.000</ele></trkpt>
      <trkpt lat="22.2929791680" lon="114.3020693160"><ele>159.000</ele></trkpt>
      <trkpt lat="22.2929863297" lon="114.3020770255"><ele>159.000</ele></trkpt>
      <trkpt lat="22.2929964732" lon="114.3020917984"><ele>159.000</ele></trkpt>
      <trkpt lat="22.2930072126" lon="114.3021078547"><ele>160.000</ele></trkpt>
      <trkpt lat="22.2930161629" lon="114.3021207003"><ele>162.000</ele></trkpt>
      <trkpt lat="22.2930227291" lon="114.3021264830"><ele>162.000</ele></trkpt>
      <trkpt lat="22.2930298966" lon="114.3021277732"><ele>162.000</ele></trkpt>
      <trkpt lat="22.2930376635" lon="114.3021258549"><ele>162.000</ele></trkpt>
      <trkpt lat="22.2930460298" lon="114.3021207269"><ele>162.000</ele></trkpt>
      <trkpt lat="22.2930579848" lon="114.3021098253"><ele>162.000</ele></trkpt>
      <trkpt lat="22.2930669499" lon="114.3021034149"><ele>165.000</ele></trkpt>
      <trkpt lat="22.2930741204" lon="114.3021008536"><ele>165.000</ele></trkpt>
      <trkpt lat="22.2930812905" lon="114.3020976508"><ele>165.000</ele></trkpt>
      <trkpt lat="22.2930902487" lon="114.3021002256"><ele>165.000</ele></trkpt>
      <trkpt lat="22.2930950237" lon="114.3021053653"><ele>165.000</ele></trkpt>
      <trkpt lat="22.2931021829" lon="114.3021162839"><ele>165.000</ele></trkpt>
      <trkpt lat="22.2931057621" lon="114.3021227064"><ele>168.000</ele></trkpt>
      <trkpt lat="22.2931141235" lon="114.3021239968"><ele>168.000</ele></trkpt>
      <trkpt lat="22.2931320478" lon="114.3021188783"><ele>168.000</ele></trkpt>
      <trkpt lat="22.2931487758" lon="114.3021156840"><ele>168.000</ele></trkpt>
      <trkpt lat="22.2931619196" lon="114.3021124856"><ele>171.000</ele></trkpt>
      <trkpt lat="22.2931714816" lon="114.3021073597"><ele>171.000</ele></trkpt>
      <trkpt lat="22.2931882132" lon="114.3020983876"><ele>170.000</ele></trkpt>
      <trkpt lat="22.2932019603" lon="114.3020881299"><ele>172.000</ele></trkpt>
      <trkpt lat="22.2932163008" lon="114.3020823659"><ele>172.000</ele></trkpt>
      <trkpt lat="22.2932282524" lon="114.3020759572"><ele>172.000</ele></trkpt>
      <trkpt lat="22.2932354214" lon="114.3020753222"><ele>172.000</ele></trkpt>
      <trkpt lat="22.2932407963" lon="114.3020766108"><ele>177.000</ele></trkpt>
      <trkpt lat="22.2932449685" lon="114.3020881683"><ele>177.000</ele></trkpt>
      <trkpt lat="22.2932515194" lon="114.3021138493"><ele>177.000</ele></trkpt>
      <trkpt lat="22.2932544924" lon="114.3021311836"><ele>177.000</ele></trkpt>
      <trkpt lat="22.2932580692" lon="114.3021408143"><ele>177.000</ele></trkpt>
      <trkpt lat="22.2932670274" lon="114.3021433900"><ele>177.000</ele></trkpt>
      <trkpt lat="22.2932718054" lon="114.3021446781"><ele>177.000</ele></trkpt>
      <trkpt lat="22.2932807606" lon="114.3021511054"><ele>177.000</ele></trkpt>
      <trkpt lat="22.2932873323" lon="114.3021498274"><ele>180.000</ele></trkpt>
      <trkpt lat="22.2932974971" lon="114.3021369979"><ele>180.000</ele></trkpt>
      <trkpt lat="22.2933100505" lon="114.3021241714"><ele>180.000</ele></trkpt>
      <trkpt lat="22.2933202124" lon="114.3021151944"><ele>180.000</ele></trkpt>
      <trkpt lat="22.2933363436" lon="114.3021107158"><ele>184.000</ele></trkpt>
      <trkpt lat="22.2933518774" lon="114.3021068781"><ele>184.000</ele></trkpt>
      <trkpt lat="22.2933674092" lon="114.3021056081"><ele>184.000</ele></trkpt>
      <trkpt lat="22.2933775641" lon="114.3021056171"><ele>186.000</ele></trkpt>
      <trkpt lat="22.2933841303" lon="114.3021113998"><ele>186.000</ele></trkpt>
      <trkpt lat="22.2933918938" lon="114.3021139745"><ele>186.000</ele></trkpt>
      <trkpt lat="22.2933978675" lon="114.3021139798"><ele>186.000</ele></trkpt>
      <trkpt lat="22.2934038414" lon="114.3021127013"><ele>186.000</ele></trkpt>
      <trkpt lat="22.2934122086" lon="114.3021075743"><ele>186.000</ele></trkpt>
      <trkpt lat="22.2934223684" lon="114.3021011640"><ele>185.000</ele></trkpt>
      <trkpt lat="22.2934331247" lon="114.3020953967"><ele>185.000</ele></trkpt>
      <trkpt lat="22.2934414900" lon="114.3020915526"><ele>185.000</ele></trkpt>
      <trkpt lat="22.2934504507" lon="114.3020909191"><ele>185.000</ele></trkpt>
      <trkpt lat="22.2934594079" lon="114.3020947777"><ele>185.000</ele></trkpt>
      <trkpt lat="22.2934611946" lon="114.3021011986"><ele>185.000</ele></trkpt>
      <trkpt lat="22.2934564081" lon="114.3021121067"><ele>187.000</ele></trkpt>
      <trkpt lat="22.2934528169" lon="114.3021210895"><ele>187.000</ele></trkpt>
      <trkpt lat="22.2934528100" lon="114.3021300766"><ele>187.000</ele></trkpt>
      <trkpt lat="22.2934581834" lon="114.3021332905"><ele>187.000</ele></trkpt>
      <trkpt lat="22.2934731158" lon="114.3021352291"><ele>188.000</ele></trkpt>
      <trkpt lat="22.2934856588" lon="114.3021358827"><ele>188.000</ele></trkpt>
      <trkpt lat="22.2934946165" lon="114.3021390999"><ele>188.000</ele></trkpt>
      <trkpt lat="22.2935011797" lon="114.3021487342"><ele>188.000</ele></trkpt>
      <trkpt lat="22.2935071416" lon="114.3021641449"><ele>190.000</ele></trkpt>
      <trkpt lat="22.2935131075" lon="114.3021731363"><ele>190.000</ele></trkpt>
      <trkpt lat="22.2935214638" lon="114.3021821307"><ele>190.000</ele></trkpt>
      <trkpt lat="22.2935310129" lon="114.3021924092"><ele>190.000</ele></trkpt>
      <trkpt lat="22.2935411579" lon="114.3022052559"><ele>192.000</ele></trkpt>
      <trkpt lat="22.2935483155" lon="114.3022193847"><ele>192.000</ele></trkpt>
      <trkpt lat="22.2935602512" lon="114.3022335169"><ele>192.000</ele></trkpt>
      <trkpt lat="22.2935769629" lon="114.3022515049"><ele>194.000</ele></trkpt>
      <trkpt lat="22.2935888976" lon="114.3022669209"><ele>194.000</ele></trkpt>
      <trkpt lat="22.2935966550" lon="114.3022771977"><ele>194.000</ele></trkpt>
      <trkpt lat="22.2936085962" lon="114.3022842692"><ele>194.000</ele></trkpt>
      <trkpt lat="22.2936205368" lon="114.3022919820"><ele>194.000</ele></trkpt>
      <trkpt lat="22.2936276993" lon="114.3022996916"><ele>196.000</ele></trkpt>
      <trkpt lat="22.2936324685" lon="114.3023112496"><ele>196.000</ele></trkpt>
      <trkpt lat="22.2936330529" lon="114.3023285818"><ele>196.000</ele></trkpt>
      <trkpt lat="22.2936342382" lon="114.3023407781"><ele>196.000</ele></trkpt>
      <trkpt lat="22.2936360234" lon="114.3023491243"><ele>198.000</ele></trkpt>
      <trkpt lat="22.2936413959" lon="114.3023536231"><ele>198.000</ele></trkpt>
      <trkpt lat="22.2936527441" lon="114.3023555585"><ele>198.000</ele></trkpt>
      <trkpt lat="22.2936658829" lon="114.3023587794"><ele>198.000</ele></trkpt>
      <trkpt lat="22.2936814078" lon="114.3023664965"><ele>198.000</ele></trkpt>
      <trkpt lat="22.2936963337" lon="114.3023767798"><ele>198.000</ele></trkpt>
      <trkpt lat="22.2937124545" lon="114.3023857812"><ele>198.000</ele></trkpt>
      <trkpt lat="22.2937267802" lon="114.3023992731"><ele>200.000</ele></trkpt>
      <trkpt lat="22.2937399101" lon="114.3024140488"><ele>200.000</ele></trkpt>
      <trkpt lat="22.2937584119" lon="114.3024339637"><ele>200.000</ele></trkpt>
      <trkpt lat="22.2937751231" lon="114.3024525932"><ele>200.000</ele></trkpt>
      <trkpt lat="22.2937876591" lon="114.3024635168"><ele>202.000</ele></trkpt>
      <trkpt lat="22.2937984084" lon="114.3024667365"><ele>202.000</ele></trkpt>
      <trkpt lat="22.2938109434" lon="114.3024789430"><ele>202.000</ele></trkpt>
      <trkpt lat="22.2938163168" lon="114.3024821579"><ele>202.000</ele></trkpt>
      <trkpt lat="22.2938270682" lon="114.3024828090"><ele>202.000</ele></trkpt>
      <trkpt lat="22.2938473805" lon="114.3024796180"><ele>202.000</ele></trkpt>
      <trkpt lat="22.2938659017" lon="114.3024744991"><ele>202.000</ele></trkpt>
      <trkpt lat="22.2938784476" lon="114.3024725850"><ele>204.000</ele></trkpt>
      <trkpt lat="22.2938891979" lon="114.3024745199"><ele>204.000</ele></trkpt>
      <trkpt lat="22.2939005461" lon="114.3024764554"><ele>204.000</ele></trkpt>
      <trkpt lat="22.2939136864" lon="114.3024777510"><ele>204.000</ele></trkpt>
      <trkpt lat="22.2939220473" lon="114.3024796847"><ele>206.000</ele></trkpt>
      <trkpt lat="22.2939292173" lon="114.3024777649"><ele>206.000</ele></trkpt>
      <trkpt lat="22.2939381834" lon="114.3024700707"><ele>206.000</ele></trkpt>
      <trkpt lat="22.2939483428" lon="114.3024643019"><ele>206.000</ele></trkpt>
      <trkpt lat="22.2939573045" lon="114.3024611007"><ele>206.000</ele></trkpt>
      <trkpt lat="22.2939644740" lon="114.3024598232"><ele>206.000</ele></trkpt>
      <trkpt lat="22.2939722394" lon="114.3024598302"><ele>206.000</ele></trkpt>
      <trkpt lat="22.2939853808" lon="114.3024598419"><ele>206.000</ele></trkpt>
      <trkpt lat="22.2939973258" lon="114.3024617789"><ele>206.000</ele></trkpt>
      <trkpt lat="22.2940104662" lon="114.3024630745"><ele>208.000</ele></trkpt>
      <trkpt lat="22.2940194268" lon="114.3024624401"><ele>208.000</ele></trkpt>
      <trkpt lat="22.2940283910" lon="114.3024573136"><ele>208.000</ele></trkpt>
      <trkpt lat="22.2940385523" lon="114.3024489781"><ele>208.000</ele></trkpt>
      <trkpt lat="22.2940463222" lon="114.3024432081"><ele>208.000</ele></trkpt>
      <trkpt lat="22.2940558813" lon="114.3024406489"><ele>210.000</ele></trkpt>
      <trkpt lat="22.2940660397" lon="114.3024361640"><ele>210.000</ele></trkpt>
      <trkpt lat="22.2940755988" lon="114.3024336057"><ele>210.000</ele></trkpt>
      <trkpt lat="22.2940875453" lon="114.3024349003"><ele>210.000</ele></trkpt>
      <trkpt lat="22.2941024768" lon="114.3024368390"><ele>212.000</ele></trkpt>
      <trkpt lat="22.2941126332" lon="114.3024349227"><ele>212.000</ele></trkpt>
      <trkpt lat="22.2941239853" lon="114.3024317227"><ele>212.000</ele></trkpt>
      <trkpt lat="22.2941323526" lon="114.3024253118"><ele>212.000</ele></trkpt>
      <trkpt lat="22.2941425145" lon="114.3024163338"><ele>212.000</ele></trkpt>
      <trkpt lat="22.2941526764" lon="114.3024073568"><ele>213.000</ele></trkpt>
      <trkpt lat="22.2941634356" lon="114.3023977379"><ele>213.000</ele></trkpt>
      <trkpt lat="22.2941747888" lon="114.3023932550"><ele>212.000</ele></trkpt>
      <trkpt lat="22.2941897262" lon="114.3023874905"><ele>214.000</ele></trkpt>
      <trkpt lat="22.2942052601" lon="114.3023836537"><ele>214.000</ele></trkpt>
      <trkpt lat="22.2942148195" lon="114.3023817360"><ele>214.000</ele></trkpt>
      <trkpt lat="22.2942255714" lon="114.3023817456"><ele>214.000</ele></trkpt>
      <trkpt lat="22.2942399060" lon="114.3023836847"><ele>216.000</ele></trkpt>
      <trkpt lat="22.2942530498" lon="114.3023804863"><ele>216.000</ele></trkpt>
      <trkpt lat="22.2942614141" lon="114.3023779270"><ele>216.000</ele></trkpt>
      <trkpt lat="22.2943104025" lon="114.3023696261"><ele>218.000</ele></trkpt>
      <trkpt lat="22.2943450534" lon="114.3023632377"><ele>218.000</ele></trkpt>
      <trkpt lat="22.2943767149" lon="114.3023594144"><ele>220.000</ele></trkpt>
      <trkpt lat="22.2944119652" lon="114.3023498173"><ele>220.000</ele></trkpt>
      <trkpt lat="22.2944364602" lon="114.3023447047"><ele>221.000</ele></trkpt>
      <trkpt lat="22.2944657376" lon="114.3023351023"><ele>222.000</ele></trkpt>
      <trkpt lat="22.2944985979" lon="114.3023261446"><ele>222.000</ele></trkpt>
      <trkpt lat="22.2945308637" lon="114.3023139781"><ele>224.000</ele></trkpt>
      <trkpt lat="22.2945529712" lon="114.3023062946"><ele>226.000</ele></trkpt>
      <trkpt lat="22.2945714904" lon="114.3023037434"><ele>226.000</ele></trkpt>
      <trkpt lat="22.2945882150" lon="114.3023050422"><ele>226.000</ele></trkpt>
      <trkpt lat="22.2946085179" lon="114.3023127635"><ele>227.000</ele></trkpt>
      <trkpt lat="22.2946533054" lon="114.3023301343"><ele>228.000</ele></trkpt>
      <trkpt lat="22.2946927179" lon="114.3023449336"><ele>230.000</ele></trkpt>
      <trkpt lat="22.2947321359" lon="114.3023539549"><ele>232.000</ele></trkpt>
      <trkpt lat="22.2947524517" lon="114.3023449869"><ele>231.000</ele></trkpt>
      <trkpt lat="22.2947721593" lon="114.3023507814"><ele>232.000</ele></trkpt>
      <trkpt lat="22.2947984443" lon="114.3023488786"><ele>234.000</ele></trkpt>
      <trkpt lat="22.2948283117" lon="114.3023482639"><ele>236.000</ele></trkpt>
      <trkpt lat="22.2948516124" lon="114.3023425077"><ele>234.000</ele></trkpt>
      <trkpt lat="22.2948737129" lon="114.3023438113"><ele>236.000</ele></trkpt>
      <trkpt lat="22.2949041758" lon="114.3023451224"><ele>236.000</ele></trkpt>
      <trkpt lat="22.2949250815" lon="114.3023464250"><ele>238.000</ele></trkpt>
      <trkpt lat="22.2949662807" lon="114.3023689281"><ele>238.000</ele></trkpt>
      <trkpt lat="22.2949836027" lon="114.3023695850"><ele>238.000</ele></trkpt>
      <trkpt lat="22.2950122773" lon="114.3023664014"><ele>240.000</ele></trkpt>
      <trkpt lat="22.2950469262" lon="114.3023625808"><ele>240.000</ele></trkpt>
      <trkpt lat="22.2950684284" lon="114.3023645263"><ele>240.000</ele></trkpt>
      <trkpt lat="22.2950869411" lon="114.3023716036"><ele>240.000</ele></trkpt>
      <trkpt lat="22.2951120181" lon="114.3023857477"><ele>238.000</ele></trkpt>
      <trkpt lat="22.2951323174" lon="114.3023992451"><ele>240.000</ele></trkpt>
      <trkpt lat="22.2951705353" lon="114.3024140433"><ele>240.000</ele></trkpt>
      <trkpt lat="22.2952069589" lon="114.3024320492"><ele>240.000</ele></trkpt>
      <trkpt lat="22.2952344239" lon="114.3024481207"><ele>240.000</ele></trkpt>
      <trkpt lat="22.2952523333" lon="114.3024622584"><ele>240.000</ele></trkpt>
      <trkpt lat="22.2952732256" lon="114.3024808928"><ele>240.000</ele></trkpt>
      <trkpt lat="22.2952947118" lon="114.3025046623"><ele>242.000</ele></trkpt>
      <trkpt lat="22.2953263460" lon="114.3025361431"><ele>241.000</ele></trkpt>
      <trkpt lat="22.2953347044" lon="114.3025412861"><ele>242.000</ele></trkpt>
      <trkpt lat="22.2953550107" lon="114.3025457974"><ele>242.000</ele></trkpt>
      <trkpt lat="22.2953980050" lon="114.3025638092"><ele>242.000</ele></trkpt>
      <trkpt lat="22.2954421926" lon="114.3025837474"><ele>242.000</ele></trkpt>
      <trkpt lat="22.2955001118" lon="114.3026133265"><ele>245.000</ele></trkpt>
      <trkpt lat="22.2955448943" lon="114.3026358330"><ele>246.000</ele></trkpt>
      <trkpt lat="22.2955640054" lon="114.3026409856"><ele>246.000</ele></trkpt>
      <trkpt lat="22.2955855081" lon="114.3026422887"><ele>246.000</ele></trkpt>
      <trkpt lat="22.2956010414" lon="114.3026390934"><ele>246.000</ele></trkpt>
      <trkpt lat="22.2956135883" lon="114.3026358945"><ele>246.000</ele></trkpt>
      <trkpt lat="22.2956237501" lon="114.3026269174"><ele>246.000</ele></trkpt>
      <trkpt lat="22.2956422803" lon="114.3026102445"><ele>247.000</ele></trkpt>
      <trkpt lat="22.2956608075" lon="114.3025974233"><ele>247.000</ele></trkpt>
      <trkpt lat="22.2956841137" lon="114.3025846063"><ele>248.000</ele></trkpt>
      <trkpt lat="22.2957211610" lon="114.3025692338"><ele>248.000</ele></trkpt>
      <trkpt lat="22.2957653769" lon="114.3025525839"><ele>248.000</ele></trkpt>
      <trkpt lat="22.2957809152" lon="114.3025429692"><ele>248.000</ele></trkpt>
      <trkpt lat="22.2958030287" lon="114.3025275833"><ele>250.000</ele></trkpt>
      <trkpt lat="22.2958233520" lon="114.3025089857"><ele>249.000</ele></trkpt>
      <trkpt lat="22.2958418776" lon="114.3024993746"><ele>249.000</ele></trkpt>
      <trkpt lat="22.2958711561" lon="114.3024872044"><ele>250.000</ele></trkpt>
      <trkpt lat="22.2959177595" lon="114.3024731243"><ele>250.000</ele></trkpt>
      <trkpt lat="22.2959679482" lon="114.3024577636"><ele>250.000</ele></trkpt>
      <trkpt lat="22.2959972257" lon="114.3024468772"><ele>252.000</ele></trkpt>
      <trkpt lat="22.2960163497" lon="114.3024353403"><ele>250.000</ele></trkpt>
      <trkpt lat="22.2960372664" lon="114.3024225202"><ele>250.000</ele></trkpt>
      <trkpt lat="22.2960773071" lon="114.3023981641"><ele>252.000</ele></trkpt>
      <trkpt lat="22.2961053958" lon="114.3023795744"><ele>252.000</ele></trkpt>
      <trkpt lat="22.2961316973" lon="114.3023552050"><ele>252.000</ele></trkpt>
      <trkpt lat="22.2961615870" lon="114.3023269882"><ele>252.000</ele></trkpt>
      <trkpt lat="22.2961783240" lon="114.3023109550"><ele>252.000</ele></trkpt>
      <trkpt lat="22.2962003718" lon="114.3022893622"><ele>252.000</ele></trkpt>
      <trkpt lat="22.2962308644" lon="114.3022521587"><ele>252.000</ele></trkpt>
      <trkpt lat="22.2962613405" lon="114.3022374217"><ele>252.000</ele></trkpt>
      <trkpt lat="22.2962936035" lon="114.3022278228"><ele>252.000</ele></trkpt>
      <trkpt lat="22.2963216807" lon="114.3022252800"><ele>252.000</ele></trkpt>
      <trkpt lat="22.2963599113" lon="114.3022246717"><ele>252.000</ele></trkpt>
      <trkpt lat="22.2963957615" lon="114.3022112244"><ele>252.000</ele></trkpt>
      <trkpt lat="22.2964507321" lon="114.3021920161"><ele>254.000</ele></trkpt>
      <trkpt lat="22.2964967237" lon="114.3021959088"><ele>254.000</ele></trkpt>
      <trkpt lat="22.2965074547" lon="114.3022228780"><ele>255.000</ele></trkpt>
      <trkpt lat="22.2965151988" lon="114.3022504871"><ele>255.000</ele></trkpt>
      <trkpt lat="22.2965193636" lon="114.3022716735"><ele>255.000</ele></trkpt>
      <trkpt lat="22.2965277129" lon="114.3022896544"><ele>255.000</ele></trkpt>
      <trkpt lat="22.2965384499" lon="114.3023089204"><ele>256.000</ele></trkpt>
      <trkpt lat="22.2965647261" lon="114.3023172887"><ele>256.000</ele></trkpt>
      <trkpt lat="22.2965892141" lon="114.3023211622"><ele>257.000</ele></trkpt>
      <trkpt lat="22.2966160936" lon="114.3023224701"><ele>257.000</ele></trkpt>
      <trkpt lat="22.2966417813" lon="114.3023199252"><ele>258.000</ele></trkpt>
      <trkpt lat="22.2966680689" lon="114.3023135302"><ele>258.000</ele></trkpt>
      <trkpt lat="22.2967277928" lon="114.3023264215"><ele>262.000</ele></trkpt>
      <trkpt lat="22.2967487070" lon="114.3023168115"><ele>262.000</ele></trkpt>
      <trkpt lat="22.2967755999" lon="114.3023007883"><ele>264.000</ele></trkpt>
      <trkpt lat="22.2967947140" lon="114.3023008054"><ele>264.000</ele></trkpt>
      <trkpt lat="22.2968204057" lon="114.3022931250"><ele>266.000</ele></trkpt>
      <trkpt lat="22.2968472852" lon="114.3022944329"><ele>266.000</ele></trkpt>
      <trkpt lat="22.2968705770" lon="114.3022989468"><ele>268.000</ele></trkpt>
      <trkpt lat="22.2968897001" lon="114.3022886937"><ele>268.000</ele></trkpt>
      <trkpt lat="22.2969130062" lon="114.3022758756"><ele>268.000</ele></trkpt>
      <trkpt lat="22.2969333150" lon="114.3022771786"><ele>268.000</ele></trkpt>
      <trkpt lat="22.2969512304" lon="114.3022836131"><ele>269.000</ele></trkpt>
      <trkpt lat="22.2969619778" lon="114.3022893997"><ele>269.000</ele></trkpt>
      <trkpt lat="22.2969703277" lon="114.3023054553"><ele>269.000</ele></trkpt>
      <trkpt lat="22.2969864414" lon="114.3023247272"><ele>269.000</ele></trkpt>
      <trkpt lat="22.2970067315" lon="114.3023491373"><ele>270.000</ele></trkpt>
      <trkpt lat="22.2970270214" lon="114.3023748313"><ele>270.000</ele></trkpt>
      <trkpt lat="22.2970353673" lon="114.3023973055"><ele>272.000</ele></trkpt>
      <trkpt lat="22.2970419226" lon="114.3024172102"><ele>272.000</ele></trkpt>
      <trkpt lat="22.2970562412" lon="114.3024396907"><ele>272.000</ele></trkpt>
      <trkpt lat="22.2970711613" lon="114.3024563936"><ele>272.000</ele></trkpt>
      <trkpt lat="22.2970878784" lon="114.3024673212"><ele>274.000</ele></trkpt>
      <trkpt lat="22.2971069890" lon="114.3024731153"><ele>274.000</ele></trkpt>
      <trkpt lat="22.2971314701" lon="114.3024859752"><ele>274.000</ele></trkpt>
      <trkpt lat="22.2971428138" lon="114.3024924048"><ele>274.000</ele></trkpt>
      <trkpt lat="22.2971487796" lon="114.3025026803"><ele>275.000</ele></trkpt>
      <trkpt lat="22.2971535522" lon="114.3025110294"><ele>275.000</ele></trkpt>
      <trkpt lat="22.2971666811" lon="114.3025270884"><ele>275.000</ele></trkpt>
      <trkpt lat="22.2971750394" lon="114.3025322314"><ele>276.000</ele></trkpt>
      <trkpt lat="22.2971899704" lon="114.3025348126"><ele>276.000</ele></trkpt>
      <trkpt lat="22.2971947454" lon="114.3025399524"><ele>276.000</ele></trkpt>
      <trkpt lat="22.2972013042" lon="114.3025553641"><ele>276.000</ele></trkpt>
      <trkpt lat="22.2972096500" lon="114.3025778382"><ele>276.000</ele></trkpt>
      <trkpt lat="22.2972150090" lon="114.3025996673"><ele>277.000</ele></trkpt>
      <trkpt lat="22.2972185813" lon="114.3026150762"><ele>277.000</ele></trkpt>
      <trkpt lat="22.2972263343" lon="114.3026311314"><ele>277.000</ele></trkpt>
      <trkpt lat="22.2972418502" lon="114.3026504027"><ele>278.000</ele></trkpt>
      <trkpt lat="22.2972609459" lon="114.3026741704"><ele>278.000</ele></trkpt>
      <trkpt lat="22.2972728824" lon="114.3026883030"><ele>280.000</ele></trkpt>
      <trkpt lat="22.2973003459" lon="114.3027063012"><ele>280.000</ele></trkpt>
      <trkpt lat="22.2973182479" lon="114.3027287839"><ele>280.000</ele></trkpt>
      <trkpt lat="22.2973409293" lon="114.3027519124"><ele>280.000</ele></trkpt>
      <trkpt lat="22.2973570396" lon="114.3027743936"><ele>280.000</ele></trkpt>
      <trkpt lat="22.2973773275" lon="114.3028026565"><ele>280.000</ele></trkpt>
      <trkpt lat="22.2973964236" lon="114.3028270657"><ele>280.000</ele></trkpt>
      <trkpt lat="22.2974244660" lon="114.3028681727"><ele>280.000</ele></trkpt>
      <trkpt lat="22.2974316170" lon="114.3028906458"><ele>280.000</ele></trkpt>
      <trkpt lat="22.2974411587" lon="114.3029105543"><ele>280.000</ele></trkpt>
      <trkpt lat="22.2974518970" lon="114.3029278951"><ele>280.000</ele></trkpt>
      <trkpt lat="22.2974656217" lon="114.3029465224"><ele>280.000</ele></trkpt>
      <trkpt lat="22.2974727783" lon="114.3029606517"><ele>280.000</ele></trkpt>
      <trkpt lat="22.2974769474" lon="114.3029773442"><ele>280.000</ele></trkpt>
      <trkpt lat="22.2974799164" lon="114.3029998146"><ele>282.000</ele></trkpt>
      <trkpt lat="22.2974828788" lon="114.3030306279"><ele>282.000</ele></trkpt>
      <trkpt lat="22.2974858472" lon="114.3030550236"><ele>284.000</ele></trkpt>
      <trkpt lat="22.2974906093" lon="114.3030755693"><ele>284.000</ele></trkpt>
      <trkpt lat="22.2974971635" lon="114.3030967580"><ele>286.000</ele></trkpt>
      <trkpt lat="22.2975061106" lon="114.3031134557"><ele>286.000</ele></trkpt>
      <trkpt lat="22.2975311840" lon="114.3031320933"><ele>288.000</ele></trkpt>
      <trkpt lat="22.2975562623" lon="114.3031455963"><ele>288.000</ele></trkpt>
      <trkpt lat="22.2975717797" lon="114.3031629414"><ele>288.000</ele></trkpt>
      <trkpt lat="22.2975854999" lon="114.3031860630"><ele>290.000</ele></trkpt>
      <trkpt lat="22.2975992121" lon="114.3032207386"><ele>290.000</ele></trkpt>
      <trkpt lat="22.2976153188" lon="114.3032477130"><ele>290.000</ele></trkpt>
      <trkpt lat="22.2976236691" lon="114.3032644102"><ele>290.000</ele></trkpt>
      <trkpt lat="22.2976332046" lon="114.3032920212"><ele>292.000</ele></trkpt>
      <trkpt lat="22.2976528906" lon="114.3033254183"><ele>292.000</ele></trkpt>
      <trkpt lat="22.2976707914" lon="114.3033504690"><ele>292.000</ele></trkpt>
      <trkpt lat="22.2976892876" lon="114.3033774456"><ele>292.000</ele></trkpt>
      <trkpt lat="22.2977012156" lon="114.3034024909"><ele>292.000</ele></trkpt>
      <trkpt lat="22.2977107651" lon="114.3034121283"><ele>290.000</ele></trkpt>
      <trkpt lat="22.2977328521" lon="114.3034307633"><ele>290.000</ele></trkpt>
      <trkpt lat="22.2977412054" lon="114.3034423249"><ele>290.000</ele></trkpt>
      <trkpt lat="22.2977495551" lon="114.3034596646"><ele>290.000</ele></trkpt>
      <trkpt lat="22.2977585013" lon="114.3034776463"><ele>288.000</ele></trkpt>
      <trkpt lat="22.2977632703" lon="114.3034892047"><ele>288.000</ele></trkpt>
      <trkpt lat="22.2977781987" lon="114.3034962791"><ele>288.000</ele></trkpt>
      <trkpt lat="22.2977907342" lon="114.3035065606"><ele>288.000</ele></trkpt>
      <trkpt lat="22.2977984876" lon="114.3035219735"><ele>287.000</ele></trkpt>
      <trkpt lat="22.2978086310" lon="114.3035367470"><ele>286.000</ele></trkpt>
      <trkpt lat="22.2978265342" lon="114.3035585885"><ele>286.000</ele></trkpt>
      <trkpt lat="22.2978527953" lon="114.3035862136"><ele>286.000</ele></trkpt>
      <trkpt lat="22.2978796592" lon="114.3036074207"><ele>286.000</ele></trkpt>
      <trkpt lat="22.2979035348" lon="114.3036299100"><ele>286.000</ele></trkpt>
      <trkpt lat="22.2979208447" lon="114.3036472569"><ele>286.000</ele></trkpt>
      <trkpt lat="22.2979357636" lon="114.3036652440"><ele>286.000</ele></trkpt>
      <trkpt lat="22.2979476952" lon="114.3036845123"><ele>286.000</ele></trkpt>
      <trkpt lat="22.2979554485" lon="114.3036999252"><ele>286.000</ele></trkpt>
      <trkpt lat="22.2979644017" lon="114.3037089196"><ele>286.000</ele></trkpt>
      <trkpt lat="22.2979751499" lon="114.3037147064"><ele>286.000</ele></trkpt>
      <trkpt lat="22.2979811132" lon="114.3037269083"><ele>286.000</ele></trkpt>
      <trkpt lat="22.2979852818" lon="114.3037429594"><ele>286.000</ele></trkpt>
      <trkpt lat="22.2979912410" lon="114.3037615809"><ele>286.000</ele></trkpt>
      <trkpt lat="22.2980019742" lon="114.3037853413"><ele>286.000</ele></trkpt>
      <trkpt lat="22.2980079324" lon="114.3038052457"><ele>286.000</ele></trkpt>
      <trkpt lat="22.2980204623" lon="114.3038225882"><ele>286.000</ele></trkpt>
      <trkpt lat="22.2980371718" lon="114.3038431448"><ele>285.000</ele></trkpt>
      <trkpt lat="22.2980556724" lon="114.3038656284"><ele>284.000</ele></trkpt>
      <trkpt lat="22.2980729793" lon="114.3038855431"><ele>284.000</ele></trkpt>
      <trkpt lat="22.2980956616" lon="114.3039061050"><ele>286.000</ele></trkpt>
      <trkpt lat="22.2981207303" lon="114.3039318048"><ele>285.000</ele></trkpt>
      <trkpt lat="22.2981290775" lon="114.3039510690"><ele>286.000</ele></trkpt>
      <trkpt lat="22.2981434071" lon="114.3039594268"><ele>286.000</ele></trkpt>
      <trkpt lat="22.2981583344" lon="114.3039677852"><ele>286.000</ele></trkpt>
      <trkpt lat="22.2981696766" lon="114.3039761403"><ele>284.000</ele></trkpt>
      <trkpt lat="22.2981762342" lon="114.3039928360"><ele>284.000</ele></trkpt>
      <trkpt lat="22.2981780107" lon="114.3040133791"><ele>286.000</ele></trkpt>
      <trkpt lat="22.2981750122" lon="114.3040287823"><ele>286.000</ele></trkpt>
      <trkpt lat="22.2981696243" lon="114.3040428994"><ele>286.000</ele></trkpt>
      <trkpt lat="22.2981660284" lon="114.3040589435"><ele>284.000</ele></trkpt>
      <trkpt lat="22.2981707979" lon="114.3040698605"><ele>284.000</ele></trkpt>
      <trkpt lat="22.2981815461" lon="114.3040756483"><ele>284.000</ele></trkpt>
      <trkpt lat="22.2982018500" lon="114.3040820852"><ele>284.000</ele></trkpt>
      <trkpt lat="22.2982203587" lon="114.3040930147"><ele>283.000</ele></trkpt>
      <trkpt lat="22.2982382639" lon="114.3041122885"><ele>281.000</ele></trkpt>
      <trkpt lat="22.2982525788" lon="114.3041392615"><ele>280.000</ele></trkpt>
      <trkpt lat="22.2982567438" lon="114.3041598067"><ele>278.000</ele></trkpt>
      <trkpt lat="22.2982501384" lon="114.3042040921"><ele>278.000</ele></trkpt>
      <trkpt lat="22.2982411459" lon="114.3042464508"><ele>278.000</ele></trkpt>
      <trkpt lat="22.2982291752" lon="114.3042759678"><ele>278.000</ele></trkpt>
      <trkpt lat="22.2982100288" lon="114.3043170324"><ele>276.000</ele></trkpt>
      <trkpt lat="22.2981896882" lon="114.3043561706"><ele>274.000</ele></trkpt>
      <trkpt lat="22.2981723415" lon="114.3043869666"><ele>272.000</ele></trkpt>
      <trkpt lat="22.2981591755" lon="114.3044184088"><ele>272.000</ele></trkpt>
      <trkpt lat="22.2981454303" lon="114.3044260988"><ele>272.000</ele></trkpt>
      <trkpt lat="22.2981370604" lon="114.3044357200"><ele>270.000</ele></trkpt>
      <trkpt lat="22.2981358580" lon="114.3044453477"><ele>270.000</ele></trkpt>
      <trkpt lat="22.2981507824" lon="114.3044562739"><ele>270.000</ele></trkpt>
      <trkpt lat="22.2981710923" lon="114.3044562924"><ele>270.000</ele></trkpt>
      <trkpt lat="22.2981967689" lon="114.3044678699"><ele>270.000</ele></trkpt>
      <trkpt lat="22.2982170682" lon="114.3044800849"><ele>269.000</ele></trkpt>
      <trkpt lat="22.2982260162" lon="114.3044954989"><ele>266.000</ele></trkpt>
      <trkpt lat="22.2982206247" lon="114.3045153931"><ele>266.000</ele></trkpt>
      <trkpt lat="22.2982116483" lon="114.3045359264"><ele>264.000</ele></trkpt>
      <trkpt lat="22.2981996871" lon="114.3045545307"><ele>265.000</ele></trkpt>
      <trkpt lat="22.2982008718" lon="114.3045673698"><ele>265.000</ele></trkpt>
      <trkpt lat="22.2982181816" lon="114.3045834339"><ele>262.000</ele></trkpt>
      <trkpt lat="22.2982551892" lon="114.3046187724"><ele>262.000</ele></trkpt>
      <trkpt lat="22.2982748804" lon="114.3046451089"><ele>260.000</ele></trkpt>
      <trkpt lat="22.2982927896" lon="114.3046592472"><ele>260.000</ele></trkpt>
      <trkpt lat="22.2983202584" lon="114.3046701849"><ele>260.000</ele></trkpt>
      <trkpt lat="22.2983668382" lon="114.3046862756"><ele>260.000</ele></trkpt>
      <trkpt lat="22.2984008788" lon="114.3046946515"><ele>258.000</ele></trkpt>
      <trkpt lat="22.2984408975" lon="114.3046998226"><ele>258.000</ele></trkpt>
      <trkpt lat="22.2984677735" lon="114.3047043412"><ele>258.000</ele></trkpt>
      <trkpt lat="22.2984940481" lon="114.3047146354"><ele>256.000</ele></trkpt>
      <trkpt lat="22.2985191308" lon="114.3047223607"><ele>256.000</ele></trkpt>
      <trkpt lat="22.2985424190" lon="114.3047313692"><ele>256.000</ele></trkpt>
      <trkpt lat="22.2985692843" lon="114.3047506513"><ele>255.000</ele></trkpt>
      <trkpt lat="22.2986063015" lon="114.3047737934"><ele>255.000</ele></trkpt>
      <trkpt lat="22.2986480921" lon="114.3048027179"><ele>254.000</ele></trkpt>
      <trkpt lat="22.2986683908" lon="114.3048168584"><ele>254.000</ele></trkpt>
      <trkpt lat="22.2986845262" lon="114.3048072443"><ele>254.000</ele></trkpt>
      <trkpt lat="22.2986976680" lon="114.3048066148"><ele>254.000</ele></trkpt>
      <trkpt lat="22.2987102083" lon="114.3048117609"><ele>252.000</ele></trkpt>
      <trkpt lat="22.2987263320" lon="114.3048169112"><ele>252.000</ele></trkpt>
      <trkpt lat="22.2987484330" lon="114.3048175728"><ele>250.000</ele></trkpt>
      <trkpt lat="22.2987717236" lon="114.3048246560"><ele>250.000</ele></trkpt>
      <trkpt lat="22.2987860536" lon="114.3048323715"><ele>250.000</ele></trkpt>
      <trkpt lat="22.2987955909" lon="114.3048586989"><ele>248.000</ele></trkpt>
      <trkpt lat="22.2988045410" lon="114.3048702613"><ele>248.000</ele></trkpt>
      <trkpt lat="22.2988212635" lon="114.3048741282"><ele>248.000</ele></trkpt>
      <trkpt lat="22.2988451657" lon="114.3048638797"><ele>247.000</ele></trkpt>
      <trkpt lat="22.2988642798" lon="114.3048638971"><ele>247.000</ele></trkpt>
      <trkpt lat="22.2988798132" lon="114.3048607010"><ele>247.000</ele></trkpt>
      <trkpt lat="22.2988917683" lon="114.3048510831"><ele>246.000</ele></trkpt>
      <trkpt lat="22.2989007371" lon="114.3048388956"><ele>246.000</ele></trkpt>
      <trkpt lat="22.2989144788" lon="114.3048356978"><ele>246.000</ele></trkpt>
      <trkpt lat="22.2989401615" lon="114.3048395729"><ele>244.000</ele></trkpt>
      <trkpt lat="22.2989730052" lon="114.3048517995"><ele>242.000</ele></trkpt>
      <trkpt lat="22.2990142222" lon="114.3048511947"><ele>242.000</ele></trkpt>
      <trkpt lat="22.2990452712" lon="114.3048672713"><ele>242.000</ele></trkpt>
      <trkpt lat="22.2990834903" lon="114.3048801443"><ele>240.000</ele></trkpt>
      <trkpt lat="22.2991019908" lon="114.3049013443"><ele>240.000</ele></trkpt>
      <trkpt lat="22.2991348197" lon="114.3049334701"><ele>240.000</ele></trkpt>
      <trkpt lat="22.2991425714" lon="114.3049508095"><ele>240.000</ele></trkpt>
      <trkpt lat="22.2991538973" lon="114.3049797054"><ele>236.000</ele></trkpt>
      <trkpt lat="22.2991676192" lon="114.3050015434"><ele>236.000</ele></trkpt>
      <trkpt lat="22.2991795435" lon="114.3050297985"><ele>236.000</ele></trkpt>
      <trkpt lat="22.2991914835" lon="114.3050381543"><ele>236.000</ele></trkpt>
      <trkpt lat="22.2992070107" lon="114.3050426617"><ele>234.000</ele></trkpt>
      <trkpt lat="22.2992237363" lon="114.3050426769"><ele>234.000</ele></trkpt>
      <trkpt lat="22.2992452444" lon="114.3050382034"><ele>234.000</ele></trkpt>
      <trkpt lat="22.2992625694" lon="114.3050350099"><ele>234.000</ele></trkpt>
      <trkpt lat="22.2992798990" lon="114.3050260383"><ele>234.000</ele></trkpt>
      <trkpt lat="22.2992966363" lon="114.3050112900"><ele>234.000</ele></trkpt>
      <trkpt lat="22.2993080011" lon="114.3049920426"><ele>234.000</ele></trkpt>
      <trkpt lat="22.2993199583" lon="114.3049785729"><ele>234.000</ele></trkpt>
      <trkpt lat="22.2993325103" lon="114.3049689555"><ele>234.000</ele></trkpt>
      <trkpt lat="22.2993444615" lon="114.3049631893"><ele>233.000</ele></trkpt>
      <trkpt lat="22.2993677592" lon="114.3049612851"><ele>233.000</ele></trkpt>
      <trkpt lat="22.2993868753" lon="114.3049600187"><ele>232.000</ele></trkpt>
      <trkpt lat="22.2994041963" lon="114.3049619598"><ele>232.000</ele></trkpt>
      <trkpt lat="22.2994233073" lon="114.3049671129"><ele>232.000</ele></trkpt>
      <trkpt lat="22.2994454027" lon="114.3049748366"><ele>230.000</ele></trkpt>
      <trkpt lat="22.2994657065" lon="114.3049812737"><ele>230.000</ele></trkpt>
      <trkpt lat="22.2994907953" lon="114.3049812966"><ele>229.000</ele></trkpt>
      <trkpt lat="22.2995051349" lon="114.3049768164"><ele>229.000</ele></trkpt>
      <trkpt lat="22.2995338238" lon="114.3049556595"><ele>226.000</ele></trkpt>
      <trkpt lat="22.2995637055" lon="114.3049357865"><ele>225.000</ele></trkpt>
      <trkpt lat="22.2995971677" lon="114.3049216949"><ele>225.000</ele></trkpt>
      <trkpt lat="22.2996491462" lon="114.3049089041"><ele>222.000</ele></trkpt>
      <trkpt lat="22.2996873764" lon="114.3049089389"><ele>220.000</ele></trkpt>
      <trkpt lat="22.2997232171" lon="114.3049076877"><ele>218.000</ele></trkpt>
      <trkpt lat="22.2997489028" lon="114.3049077111"><ele>218.000</ele></trkpt>
      <trkpt lat="22.2997733867" lon="114.3049167208"><ele>218.000</ele></trkpt>
      <trkpt lat="22.2997901122" lon="114.3049167361"><ele>216.000</ele></trkpt>
      <trkpt lat="22.2998104312" lon="114.3049052003"><ele>216.000</ele></trkpt>
      <trkpt lat="22.2998319358" lon="114.3049039360"><ele>215.000</ele></trkpt>
      <trkpt lat="22.2998558234" lon="114.3049110188"><ele>215.000</ele></trkpt>
      <trkpt lat="22.2999185460" lon="114.3049091497"><ele>214.000</ele></trkpt>
      <trkpt lat="22.2999424498" lon="114.3048956908"><ele>212.000</ele></trkpt>
      <trkpt lat="22.2999538096" lon="114.3048828629"><ele>212.000</ele></trkpt>
      <trkpt lat="22.2999735175" lon="114.3048880166"><ele>210.000</ele></trkpt>
      <trkpt lat="22.2999956251" lon="114.3048803342"><ele>210.000</ele></trkpt>
      <trkpt lat="22.3000284850" lon="114.3048720191"><ele>209.000</ele></trkpt>
      <trkpt lat="22.3000583544" lon="114.3048688360"><ele>208.000</ele></trkpt>
      <trkpt lat="22.3000780750" lon="114.3048579412"><ele>208.000</ele></trkpt>
      <trkpt lat="22.3001031774" lon="114.3048406326"><ele>206.000</ele></trkpt>
      <trkpt lat="22.3001270797" lon="114.3048291000"><ele>206.000</ele></trkpt>
      <trkpt lat="22.3001521701" lon="114.3048259136"><ele>206.000</ele></trkpt>
      <trkpt lat="22.3001832368" lon="114.3048195223"><ele>206.000</ele></trkpt>
      <trkpt lat="22.3002041466" lon="114.3048156895"><ele>206.000</ele></trkpt>
      <trkpt lat="22.3002340195" lon="114.3048080142"><ele>206.000</ele></trkpt>
      <trkpt lat="22.3002519353" lon="114.3048138077"><ele>206.000</ele></trkpt>
      <trkpt lat="22.3002776225" lon="114.3048119047"><ele>206.000</ele></trkpt>
      <trkpt lat="22.3003379623" lon="114.3048004053"><ele>206.000</ele></trkpt>
      <trkpt lat="22.3004102511" lon="114.3047869905"><ele>206.000</ele></trkpt>
      <trkpt lat="22.3004562543" lon="114.3047761205"><ele>206.000</ele></trkpt>
      <trkpt lat="22.3004693981" lon="114.3047742061"><ele>206.000</ele></trkpt>
      <trkpt lat="22.3004801474" lon="114.3047774261"><ele>206.000</ele></trkpt>
      <trkpt lat="22.3004920853" lon="114.3047883489"><ele>206.000</ele></trkpt>
      <trkpt lat="22.3005081959" lon="114.3048101893"><ele>206.000</ele></trkpt>
      <trkpt lat="22.3005195369" lon="114.3048211125"><ele>206.000</ele></trkpt>
      <trkpt lat="22.3005386469" lon="114.3048275486"><ele>205.000</ele></trkpt>
      <trkpt lat="22.3005517852" lon="114.3048314124"><ele>205.000</ele></trkpt>
      <trkpt lat="22.3005667207" lon="114.3048282166"><ele>205.000</ele></trkpt>
      <trkpt lat="22.3005828544" lon="114.3048218117"><ele>206.000</ele></trkpt>
      <trkpt lat="22.3005924226" lon="114.3048076982"><ele>206.000</ele></trkpt>
      <trkpt lat="22.3005995997" lon="114.3047967919"><ele>206.000</ele></trkpt>
      <trkpt lat="22.3006151346" lon="114.3047916703"><ele>206.000</ele></trkpt>
      <trkpt lat="22.3006360514" lon="114.3047788511"><ele>206.000</ele></trkpt>
      <trkpt lat="22.3006503905" lon="114.3047750133"><ele>206.000</ele></trkpt>
      <trkpt lat="22.3006718987" lon="114.3047692557"><ele>206.000</ele></trkpt>
      <trkpt lat="22.3006898236" lon="114.3047634939"><ele>206.000</ele></trkpt>
      <trkpt lat="22.3007041673" lon="114.3047538790"><ele>206.000</ele></trkpt>
      <trkpt lat="22.3007137318" lon="114.3047455426"><ele>206.000</ele></trkpt>
      <trkpt lat="22.3007256819" lon="114.3047410593"><ele>206.000</ele></trkpt>
      <trkpt lat="22.3007519666" lon="114.3047385154"><ele>207.000</ele></trkpt>
      <trkpt lat="22.3007854233" lon="114.3047314847"><ele>208.000</ele></trkpt>
      <trkpt lat="22.3008344124" lon="114.3047212589"><ele>209.000</ele></trkpt>
      <trkpt lat="22.3008672737" lon="114.3047123023"><ele>209.000</ele></trkpt>
      <trkpt lat="22.3008893706" lon="114.3047180996"><ele>210.000</ele></trkpt>
      <trkpt lat="22.3009090866" lon="114.3047129818"><ele>210.000</ele></trkpt>
      <trkpt lat="22.3009431322" lon="114.3047162221"><ele>212.000</ele></trkpt>
      <trkpt lat="22.3009837564" lon="114.3047091980"><ele>212.000</ele></trkpt>
      <trkpt lat="22.3010243755" lon="114.3047098774"><ele>214.000</ele></trkpt>
      <trkpt lat="22.3010375244" lon="114.3047002604"><ele>214.000</ele></trkpt>
      <trkpt lat="22.3010506693" lon="114.3046957791"><ele>214.000</ele></trkpt>
      <trkpt lat="22.3010697824" lon="114.3046970804"><ele>214.000</ele></trkpt>
      <trkpt lat="22.3010894963" lon="114.3046958144"><ele>214.000</ele></trkpt>
      <trkpt lat="22.3011050322" lon="114.3046894089"><ele>214.000</ele></trkpt>
      <trkpt lat="22.3011241549" lon="114.3046785134"><ele>214.000</ele></trkpt>
      <trkpt lat="22.3011337251" lon="114.3046631159"><ele>214.000</ele></trkpt>
      <trkpt lat="22.3011426999" lon="114.3046445085"><ele>214.000</ele></trkpt>
      <trkpt lat="22.3011522736" lon="114.3046233338"><ele>214.000</ele></trkpt>
      <trkpt lat="22.3011600471" lon="114.3046130695"><ele>214.000</ele></trkpt>
      <trkpt lat="22.3011714069" lon="114.3046002415"><ele>214.000</ele></trkpt>
      <trkpt lat="22.3011839565" lon="114.3045925503"><ele>214.000</ele></trkpt>
      <trkpt lat="22.3011976991" lon="114.3045880695"><ele>214.000</ele></trkpt>
      <trkpt lat="22.3012084550" lon="114.3045829435"><ele>212.000</ele></trkpt>
      <trkpt lat="22.3012174207" lon="114.3045758906"><ele>212.000</ele></trkpt>
      <trkpt lat="22.3012257927" lon="114.3045637013"><ele>212.000</ele></trkpt>
      <trkpt lat="22.3012407402" lon="114.3045463833"><ele>213.000</ele></trkpt>
      <trkpt lat="22.3012604658" lon="114.3045290686"><ele>212.000</ele></trkpt>
      <trkpt lat="22.3012891511" lon="114.3045124045"><ele>212.000</ele></trkpt>
      <trkpt lat="22.3013238096" lon="114.3044963883"><ele>212.000</ele></trkpt>
      <trkpt lat="22.3013650407" lon="114.3044778093"><ele>212.000</ele></trkpt>
      <trkpt lat="22.3014056726" lon="114.3044611570"><ele>212.000</ele></trkpt>
      <trkpt lat="22.3014355506" lon="114.3044470609"><ele>212.000</ele></trkpt>
      <trkpt lat="22.3014558650" lon="114.3044400182"><ele>212.000</ele></trkpt>
      <trkpt lat="22.3014678196" lon="114.3044310425"><ele>212.000</ele></trkpt>
      <trkpt lat="22.3014827647" lon="114.3044156498"><ele>212.000</ele></trkpt>
      <trkpt lat="22.3014965179" lon="114.3043976882"><ele>212.000</ele></trkpt>
      <trkpt lat="22.3015048949" lon="114.3043790802"><ele>212.000</ele></trkpt>
      <trkpt lat="22.3015138702" lon="114.3043598303"><ele>212.000</ele></trkpt>
      <trkpt lat="22.3015324036" lon="114.3043393052"><ele>210.000</ele></trkpt>
      <trkpt lat="22.3015539248" lon="114.3043181413"><ele>212.000</ele></trkpt>
      <trkpt lat="22.3015748507" lon="114.3042937674"><ele>212.000</ele></trkpt>
      <trkpt lat="22.3015951777" lon="114.3042706760"><ele>212.000</ele></trkpt>
      <trkpt lat="22.3016172992" lon="114.3042463033"><ele>212.000</ele></trkpt>
      <trkpt lat="22.3016328418" lon="114.3042302687"><ele>210.000</ele></trkpt>
      <trkpt lat="22.3016507716" lon="114.3042180880"><ele>212.000</ele></trkpt>
      <trkpt lat="22.3016698948" lon="114.3042078349"><ele>212.000</ele></trkpt>
      <trkpt lat="22.3016824457" lon="114.3041995011"><ele>212.000</ele></trkpt>
      <trkpt lat="22.3017057611" lon="114.3041751294"><ele>212.000</ele></trkpt>
      <trkpt lat="22.3017284816" lon="114.3041469044"><ele>212.000</ele></trkpt>
      <trkpt lat="22.3017571764" lon="114.3041180443"><ele>212.000</ele></trkpt>
      <trkpt lat="22.3017924479" lon="114.3040814855"><ele>212.000</ele></trkpt>
      <trkpt lat="22.3018211467" lon="114.3040474896"><ele>212.000</ele></trkpt>
      <trkpt lat="22.3018432668" lon="114.3040237583"><ele>212.000</ele></trkpt>
      <trkpt lat="22.3018629934" lon="114.3040051605"><ele>212.000</ele></trkpt>
      <trkpt lat="22.3018839131" lon="114.3039897732"><ele>212.000</ele></trkpt>
      <trkpt lat="22.3019066221" lon="114.3039763128"><ele>212.000</ele></trkpt>
      <trkpt lat="22.3019323168" lon="114.3039647816"><ele>212.000</ele></trkpt>
      <trkpt lat="22.3019580091" lon="114.3039564598"><ele>212.000</ele></trkpt>
      <trkpt lat="22.3019735485" lon="114.3039442769"><ele>212.000</ele></trkpt>
      <trkpt lat="22.3019837100" lon="114.3039359410"><ele>212.000</ele></trkpt>
      <trkpt lat="22.3019968578" lon="114.3039276078"><ele>212.000</ele></trkpt>
      <trkpt lat="22.3020195667" lon="114.3039154314"><ele>212.000</ele></trkpt>
      <trkpt lat="22.3020446666" lon="114.3039000478"><ele>211.000</ele></trkpt>
      <trkpt lat="22.3020649845" lon="114.3038897956"><ele>211.000</ele></trkpt>
      <trkpt lat="22.3020805203" lon="114.3038833900"><ele>211.000</ele></trkpt>
      <trkpt lat="22.3021020275" lon="114.3038789161"><ele>211.000</ele></trkpt>
      <trkpt lat="22.3021330896" lon="114.3038783027"><ele>211.000</ele></trkpt>
      <trkpt lat="22.3021641563" lon="114.3038719111"><ele>212.000</ele></trkpt>
      <trkpt lat="22.3021928349" lon="114.3038635919"><ele>212.000</ele></trkpt>
      <trkpt lat="22.3022388395" lon="114.3038520791"><ele>210.000</ele></trkpt>
      <trkpt lat="22.3022615384" lon="114.3038514571"><ele>210.000</ele></trkpt>
      <trkpt lat="22.3022830429" lon="114.3038514766"><ele>211.000</ele></trkpt>
      <trkpt lat="22.3023045471" lon="114.3038508545"><ele>211.000</ele></trkpt>
      <trkpt lat="22.3023176924" lon="114.3038457306"><ele>212.000</ele></trkpt>
      <trkpt lat="22.3023326379" lon="114.3038309803"><ele>212.000</ele></trkpt>
      <trkpt lat="22.3023487797" lon="114.3038130207"><ele>212.000</ele></trkpt>
      <trkpt lat="22.3023643240" lon="114.3037957020"><ele>214.000</ele></trkpt>
      <trkpt lat="22.3023786712" lon="114.3037815926"><ele>214.000</ele></trkpt>
      <trkpt lat="22.3023906258" lon="114.3037713328"><ele>214.000</ele></trkpt>
      <trkpt lat="22.3024025769" lon="114.3037655663"><ele>214.000</ele></trkpt>
      <trkpt lat="22.3024163155" lon="114.3037662202"><ele>214.000</ele></trkpt>
      <trkpt lat="22.3024258691" lon="114.3037707222"><ele>214.000</ele></trkpt>
      <trkpt lat="22.3024318358" lon="114.3037797152"><ele>214.000</ele></trkpt>
      <trkpt lat="22.3024449675" lon="114.3037919240"><ele>214.000</ele></trkpt>
      <trkpt lat="22.3024616850" lon="114.3038022097"><ele>214.000</ele></trkpt>
      <trkpt lat="22.3024778078" lon="114.3038086440"><ele>214.000</ele></trkpt>
      <trkpt lat="22.3024927401" lon="114.3038105829"><ele>214.000</ele></trkpt>
      <trkpt lat="22.3025094682" lon="114.3038073887"><ele>214.000</ele></trkpt>
      <trkpt lat="22.3025214148" lon="114.3038073995"><ele>214.000</ele></trkpt>
      <trkpt lat="22.3025393316" lon="114.3038119090"><ele>216.000</ele></trkpt>
      <trkpt lat="22.3025506723" lon="114.3038221898"><ele>216.000</ele></trkpt>
      <trkpt lat="22.3025608206" lon="114.3038305441"><ele>216.000</ele></trkpt>
      <trkpt lat="22.3025727682" lon="114.3038292710"><ele>216.000</ele></trkpt>
      <trkpt lat="22.3025912884" lon="114.3038267198"><ele>216.000</ele></trkpt>
      <trkpt lat="22.3026098091" lon="114.3038222433"><ele>216.000</ele></trkpt>
      <trkpt lat="22.3026402774" lon="114.3038164935"><ele>216.000</ele></trkpt>
      <trkpt lat="22.3026737331" lon="114.3038107465"><ele>216.000</ele></trkpt>
      <trkpt lat="22.3027071907" lon="114.3038024316"><ele>215.000</ele></trkpt>
      <trkpt lat="22.3027322831" lon="114.3037966770"><ele>214.000</ele></trkpt>
      <trkpt lat="22.3027573819" lon="114.3037838612"><ele>214.000</ele></trkpt>
      <trkpt lat="22.3027824839" lon="114.3037659096"><ele>215.000</ele></trkpt>
      <trkpt lat="22.3028237195" lon="114.3037415529"><ele>214.000</ele></trkpt>
      <trkpt lat="22.3028458340" lon="114.3037248825"><ele>214.000</ele></trkpt>
      <trkpt lat="22.3028649567" lon="114.3037139877"><ele>214.000</ele></trkpt>
      <trkpt lat="22.3028763114" lon="114.3037075782"><ele>214.000</ele></trkpt>
      <trkpt lat="22.3028870627" lon="114.3037082294"><ele>214.000</ele></trkpt>
      <trkpt lat="22.3029079629" lon="114.3037165935"><ele>212.000</ele></trkpt>
      <trkpt lat="22.3029384201" lon="114.3037262501"><ele>212.000</ele></trkpt>
      <trkpt lat="22.3029623057" lon="114.3037359008"><ele>210.000</ele></trkpt>
      <trkpt lat="22.3029802260" lon="114.3037359170"><ele>210.000</ele></trkpt>
      <trkpt lat="22.3030017365" lon="114.3037282337"><ele>208.000</ele></trkpt>
      <trkpt lat="22.3030190575" lon="114.3037301748"><ele>208.000</ele></trkpt>
      <trkpt lat="22.3030489199" lon="114.3037359791"><ele>206.000</ele></trkpt>
      <trkpt lat="22.3030752040" lon="114.3037340774"><ele>206.000</ele></trkpt>
      <trkpt lat="22.3031068630" lon="114.3037334635"><ele>206.000</ele></trkpt>
      <trkpt lat="22.3031265759" lon="114.3037334813"><ele>206.000</ele></trkpt>
      <trkpt lat="22.3031462839" lon="114.3037386349"><ele>206.000</ele></trkpt>
      <trkpt lat="22.3031719651" lon="114.3037444354"><ele>206.000</ele></trkpt>
      <trkpt lat="22.3031970494" lon="114.3037489514"><ele>204.000</ele></trkpt>
      <trkpt lat="22.3032251167" lon="114.3037579644"><ele>204.000</ele></trkpt>
      <trkpt lat="22.3032663257" lon="114.3037676308"><ele>204.000</ele></trkpt>
      <trkpt lat="22.3032938011" lon="114.3037702235"><ele>204.000</ele></trkpt>
      <trkpt lat="22.3033081346" lon="114.3037734459"><ele>202.000</ele></trkpt>
      <trkpt lat="22.3033344116" lon="114.3037818148"><ele>202.000</ele></trkpt>
      <trkpt lat="22.3033600929" lon="114.3037863313"><ele>202.000</ele></trkpt>
      <trkpt lat="22.3033798054" lon="114.3037857077"><ele>202.000</ele></trkpt>
      <trkpt lat="22.3034066873" lon="114.3037838056"><ele>202.000</ele></trkpt>
      <trkpt lat="22.3034389467" lon="114.3037799829"><ele>202.000</ele></trkpt>
      <trkpt lat="22.3034628399" lon="114.3037800044"><ele>200.000</ele></trkpt>
      <trkpt lat="22.3034873323" lon="114.3037781011"><ele>200.000</ele></trkpt>
      <trkpt lat="22.3035207819" lon="114.3037800568"><ele>200.000</ele></trkpt>
      <trkpt lat="22.3035649819" lon="114.3037839486"><ele>200.000</ele></trkpt>
      <trkpt lat="22.3036020138" lon="114.3037871915"><ele>199.000</ele></trkpt>
      <trkpt lat="22.3036288942" lon="114.3037872158"><ele>198.000</ele></trkpt>
      <trkpt lat="22.3036456208" lon="114.3037859479"><ele>198.000</ele></trkpt>
      <trkpt lat="22.3036611566" lon="114.3037795422"><ele>198.000</ele></trkpt>
      <trkpt lat="22.3036790865" lon="114.3037673613"><ele>197.000</ele></trkpt>
      <trkpt lat="22.3036952218" lon="114.3037577467"><ele>196.000</ele></trkpt>
      <trkpt lat="22.3037131466" lon="114.3037519856"><ele>196.000</ele></trkpt>
      <trkpt lat="22.3037251027" lon="114.3037397993"><ele>196.000</ele></trkpt>
      <trkpt lat="22.3037382611" lon="114.3037179859"><ele>196.000</ele></trkpt>
      <trkpt lat="22.3037544118" lon="114.3036897555"><ele>194.000</ele></trkpt>
      <trkpt lat="22.3037639809" lon="114.3036743576"><ele>194.000</ele></trkpt>
      <trkpt lat="22.3037813114" lon="114.3036641016"><ele>194.000</ele></trkpt>
      <trkpt lat="22.3038040187" lon="114.3036538515"><ele>194.000</ele></trkpt>
      <trkpt lat="22.3038309088" lon="114.3036403947"><ele>192.000</ele></trkpt>
      <trkpt lat="22.3038530218" lon="114.3036256506"><ele>192.000</ele></trkpt>
      <trkpt lat="22.3038751403" lon="114.3036051283"><ele>190.000</ele></trkpt>
      <trkpt lat="22.3038990555" lon="114.3035769048"><ele>190.000</ele></trkpt>
      <trkpt lat="22.3039253632" lon="114.3035448316"><ele>189.000</ele></trkpt>
      <trkpt lat="22.3039474837" lon="114.3035204573"><ele>188.000</ele></trkpt>
      <trkpt lat="22.3039618378" lon="114.3034973610"><ele>188.000</ele></trkpt>
      <trkpt lat="22.3039749901" lon="114.3034832503"><ele>188.000</ele></trkpt>
      <trkpt lat="22.3039863458" lon="114.3034755568"><ele>186.000</ele></trkpt>
      <trkpt lat="22.3040084483" lon="114.3034742928"><ele>186.000</ele></trkpt>
      <trkpt lat="22.3040275748" lon="114.3034595460"><ele>186.000</ele></trkpt>
      <trkpt lat="22.3040484886" lon="114.3034505771"><ele>184.000</ele></trkpt>
      <trkpt lat="22.3040735880" lon="114.3034358357"><ele>184.000</ele></trkpt>
      <trkpt lat="22.3040879325" lon="114.3034249355"><ele>183.000</ele></trkpt>
      <trkpt lat="22.3041034734" lon="114.3034121109"><ele>182.000</ele></trkpt>
      <trkpt lat="22.3041225944" lon="114.3034044243"><ele>180.000</ele></trkpt>
      <trkpt lat="22.3041339461" lon="114.3034018667"><ele>180.000</ele></trkpt>
      <trkpt lat="22.3041452898" lon="114.3034082967"><ele>180.000</ele></trkpt>
      <trkpt lat="22.3041584396" lon="114.3033973954"><ele>180.000</ele></trkpt>
      <trkpt lat="22.3041811474" lon="114.3033865027"><ele>178.000</ele></trkpt>
      <trkpt lat="22.3042086333" lon="114.3033756143"><ele>178.000</ele></trkpt>
      <trkpt lat="22.3042558337" lon="114.3033615342"><ele>176.000</ele></trkpt>
      <trkpt lat="22.3042946662" lon="114.3033545079"><ele>175.000</ele></trkpt>
      <trkpt lat="22.3043263352" lon="114.3033423393"><ele>174.000</ele></trkpt>
      <trkpt lat="22.3043592010" lon="114.3033263208"><ele>172.000</ele></trkpt>
      <trkpt lat="22.3043830931" lon="114.3033276263"><ele>172.000</ele></trkpt>
      <trkpt lat="22.3044141567" lon="114.3033250864"><ele>172.000</ele></trkpt>
      <trkpt lat="22.3044464226" lon="114.3033129183"><ele>169.000</ele></trkpt>
      <trkpt lat="22.3044727252" lon="114.3032872647"><ele>169.000</ele></trkpt>
      <trkpt lat="22.3045079845" lon="114.3032661125"><ele>168.000</ele></trkpt>
      <trkpt lat="22.3045295141" lon="114.3032340348"><ele>166.000</ele></trkpt>
      <trkpt lat="22.3045552228" lon="114.3032045288"><ele>166.000</ele></trkpt>
      <trkpt lat="22.3045749383" lon="114.3032000522"><ele>166.000</ele></trkpt>
      <trkpt lat="22.3045922642" lon="114.3031955744"><ele>166.000</ele></trkpt>
      <trkpt lat="22.3046167632" lon="114.3031853257"><ele>166.000</ele></trkpt>
      <trkpt lat="22.3046412637" lon="114.3031731505"><ele>164.000</ele></trkpt>
      <trkpt lat="22.3046717395" lon="114.3031577714"><ele>164.000</ele></trkpt>
      <trkpt lat="22.3046878796" lon="114.3031430218"><ele>164.000</ele></trkpt>
      <trkpt lat="22.3046998391" lon="114.3031263420"><ele>162.000</ele></trkpt>
      <trkpt lat="22.3047117992" lon="114.3031090197"><ele>162.000</ele></trkpt>
      <trkpt lat="22.3047255468" lon="114.3030981189"><ele>162.000</ele></trkpt>
      <trkpt lat="22.3047404888" lon="114.3030865776"><ele>162.000</ele></trkpt>
      <trkpt lat="22.3047877006" lon="114.3030577323"><ele>160.000</ele></trkpt>
      <trkpt lat="22.3048121991" lon="114.3030481260"><ele>160.000</ele></trkpt>
      <trkpt lat="22.3048372959" lon="114.3030378769"><ele>160.000</ele></trkpt>
      <trkpt lat="22.3048546298" lon="114.3030231283"><ele>158.000</ele></trkpt>
      <trkpt lat="22.3048618134" lon="114.3030025923"><ele>158.000</ele></trkpt>
      <trkpt lat="22.3048660034" lon="114.3029923253"><ele>158.000</ele></trkpt>
      <trkpt lat="22.3048749717" lon="114.3029807777"><ele>156.000</ele></trkpt>
      <trkpt lat="22.3048940982" lon="114.3029660307"><ele>156.000</ele></trkpt>
      <trkpt lat="22.3049275623" lon="114.3029493702"><ele>156.000</ele></trkpt>
      <trkpt lat="22.3049425037" lon="114.3029384704"><ele>156.000</ele></trkpt>
      <trkpt lat="22.3049610368" lon="114.3029192285"><ele>153.000</ele></trkpt>
      <trkpt lat="22.3049843570" lon="114.3028884362"><ele>150.000</ele></trkpt>
      <trkpt lat="22.3049975038" lon="114.3028813867"><ele>150.000</ele></trkpt>
      <trkpt lat="22.3050357484" lon="114.3028615210"><ele>150.000</ele></trkpt>
      <trkpt lat="22.3050668245" lon="114.3028429319"><ele>150.000</ele></trkpt>
      <trkpt lat="22.3050961064" lon="114.3028275515"><ele>148.000</ele></trkpt>
      <trkpt lat="22.3051110519" lon="114.3028115168"><ele>148.000</ele></trkpt>
      <trkpt lat="22.3051283928" lon="114.3027877804"><ele>146.000</ele></trkpt>
      <trkpt lat="22.3051439311" lon="114.3027781651"><ele>146.000</ele></trkpt>
      <trkpt lat="22.3051648418" lon="114.3027730479"><ele>146.000</ele></trkpt>
      <trkpt lat="22.3051857569" lon="114.3027634374"><ele>146.000</ele></trkpt>
      <trkpt lat="22.3052186191" lon="114.3027519121"><ele>144.000</ele></trkpt>
      <trkpt lat="22.3052437145" lon="114.3027423054"><ele>144.000</ele></trkpt>
      <trkpt lat="22.3052676155" lon="114.3027333400"><ele>142.000</ele></trkpt>
      <trkpt lat="22.3052807742" lon="114.3027108828"><ele>142.000</ele></trkpt>
      <trkpt lat="22.3053136300" lon="114.3027077028"><ele>140.000</ele></trkpt>
      <trkpt lat="22.3053387199" lon="114.3027051583"><ele>140.000</ele></trkpt>
      <trkpt lat="22.3053626139" lon="114.3027051798"><ele>139.000</ele></trkpt>
      <trkpt lat="22.3053829173" lon="114.3027122593"><ele>139.000</ele></trkpt>
      <trkpt lat="22.3054020259" lon="114.3027206217"><ele>136.000</ele></trkpt>
      <trkpt lat="22.3054187425" lon="114.3027321915"><ele>136.000</ele></trkpt>
      <trkpt lat="22.3054282976" lon="114.3027347680"><ele>136.000</ele></trkpt>
      <trkpt lat="22.3054366608" lon="114.3027347755"><ele>135.000</ele></trkpt>
      <trkpt lat="22.3054456264" lon="114.3027277222"><ele>135.000</ele></trkpt>
      <trkpt lat="22.3054534019" lon="114.3027136064"><ele>135.000</ele></trkpt>
      <trkpt lat="22.3054653608" lon="114.3026988520"><ele>135.000</ele></trkpt>
      <trkpt lat="22.3054808981" lon="114.3026905206"><ele>132.000</ele></trkpt>
      <trkpt lat="22.3055125651" lon="114.3026796357"><ele>132.000</ele></trkpt>
      <trkpt lat="22.3055454253" lon="114.3026706783"><ele>131.000</ele></trkpt>
      <trkpt lat="22.3056003939" lon="114.3026540369"><ele>130.000</ele></trkpt>
      <trkpt lat="22.3056165192" lon="114.3026572608"><ele>128.000</ele></trkpt>
      <trkpt lat="22.3056326524" lon="114.3026502139"><ele>128.000</ele></trkpt>
      <trkpt lat="22.3056523768" lon="114.3026341824"><ele>128.000</ele></trkpt>
      <trkpt lat="22.3056852454" lon="114.3026155957"><ele>126.000</ele></trkpt>
      <trkpt lat="22.3057133277" lon="114.3026053500"><ele>125.000</ele></trkpt>
      <trkpt lat="22.3057384229" lon="114.3025970272"><ele>124.000</ele></trkpt>
      <trkpt lat="22.3057694825" lon="114.3025996229"><ele>124.000</ele></trkpt>
      <trkpt lat="22.3057868020" lon="114.3026034904"><ele>124.000</ele></trkpt>
      <trkpt lat="22.3058082936" lon="114.3026201993"><ele>122.000</ele></trkpt>
      <trkpt lat="22.3058339705" lon="114.3026304941"><ele>122.000</ele></trkpt>
      <trkpt lat="22.3058483080" lon="114.3026285805"><ele>120.000</ele></trkpt>
      <trkpt lat="22.3058769911" lon="114.3026144834"><ele>120.000</ele></trkpt>
      <trkpt lat="22.3058865620" lon="114.3025978013"><ele>118.000</ele></trkpt>
      <trkpt lat="22.3058949497" lon="114.3025650699"><ele>118.000</ele></trkpt>
      <trkpt lat="22.3059069102" lon="114.3025471060"><ele>118.000</ele></trkpt>
      <trkpt lat="22.3059081194" lon="114.3025284909"><ele>118.000</ele></trkpt>
      <trkpt lat="22.3059146955" lon="114.3025214354"><ele>118.000</ele></trkpt>
      <trkpt lat="22.3059344099" lon="114.3025195266"><ele>116.000</ele></trkpt>
      <trkpt lat="22.3059565128" lon="114.3025176209"><ele>116.000</ele></trkpt>
      <trkpt lat="22.3059810039" lon="114.3025163588"><ele>114.000</ele></trkpt>
      <trkpt lat="22.3059941472" lon="114.3025138026"><ele>114.000</ele></trkpt>
      <trkpt lat="22.3060066990" lon="114.3025041845"><ele>114.000</ele></trkpt>
      <trkpt lat="22.3060222423" lon="114.3024881502"><ele>112.000</ele></trkpt>
      <trkpt lat="22.3060353950" lon="114.3024733967"><ele>112.000</ele></trkpt>
      <trkpt lat="22.3060521186" lon="114.3024759797"><ele>112.000</ele></trkpt>
      <trkpt lat="22.3060754113" lon="114.3024804939"><ele>109.000</ele></trkpt>
      <trkpt lat="22.3061106426" lon="114.3024952907"><ele>108.000</ele></trkpt>
      <trkpt lat="22.3061554389" lon="114.3025011082"><ele>105.000</ele></trkpt>
      <trkpt lat="22.3061775359" lon="114.3025069053"><ele>106.000</ele></trkpt>
      <trkpt lat="22.3062050073" lon="114.3025146338"><ele>102.000</ele></trkpt>
      <trkpt lat="22.3062277052" lon="114.3025152956"><ele>102.000</ele></trkpt>
      <trkpt lat="22.3062492157" lon="114.3025076120"><ele>100.000</ele></trkpt>
      <trkpt lat="22.3062743145" lon="114.3024935107"><ele>100.000</ele></trkpt>
      <trkpt lat="22.3062871367" lon="114.3024834328"><ele>100.000</ele></trkpt>
      <trkpt lat="22.3063121538" lon="114.3024733473"><ele>98.000</ele></trkpt>
      <trkpt lat="22.3063175752" lon="114.3024694702"><ele>98.000</ele></trkpt>
      <trkpt lat="22.3063239011" lon="114.3024636528"><ele>98.000</ele></trkpt>
      <trkpt lat="22.3063302255" lon="114.3024597764"><ele>98.000</ele></trkpt>
      <trkpt lat="22.3063383553" lon="114.3024568722"><ele>96.000</ele></trkpt>
      <trkpt lat="22.3063609318" lon="114.3024568924"><ele>96.000</ele></trkpt>
      <trkpt lat="22.3063699631" lon="114.3024559300"><ele>96.000</ele></trkpt>
      <trkpt lat="22.3063789952" lon="114.3024539970"><ele>96.000</ele></trkpt>
      <trkpt lat="22.3063871265" lon="114.3024491518"><ele>94.000</ele></trkpt>
      <trkpt lat="22.3063952586" lon="114.3024433360"><ele>94.000</ele></trkpt>
      <trkpt lat="22.3064015822" lon="114.3024404302"><ele>94.000</ele></trkpt>
      <trkpt lat="22.3064079051" lon="114.3024384948"><ele>94.000</ele></trkpt>
      <trkpt lat="22.3064178395" lon="114.3024375332"><ele>94.000</ele></trkpt>
      <trkpt lat="22.3064368015" lon="114.3024404617"><ele>92.000</ele></trkpt>
      <trkpt lat="22.3064449275" lon="114.3024424099"><ele>92.000</ele></trkpt>
      <trkpt lat="22.3064548612" lon="114.3024424188"><ele>92.000</ele></trkpt>
      <trkpt lat="22.3064656986" lon="114.3024414580"><ele>92.000</ele></trkpt>
      <trkpt lat="22.3064765383" lon="114.3024375857"><ele>90.000</ele></trkpt>
      <trkpt lat="22.3065072521" lon="114.3024249966"><ele>90.000</ele></trkpt>
      <trkpt lat="22.3065379636" lon="114.3024153190"><ele>90.000</ele></trkpt>
      <trkpt lat="22.3065515140" lon="114.3024095080"><ele>90.000</ele></trkpt>
      <trkpt lat="22.3065677758" lon="114.3024007880"><ele>88.000</ele></trkpt>
      <trkpt lat="22.3065795216" lon="114.3023930345"><ele>88.000</ele></trkpt>
      <trkpt lat="22.3065912696" lon="114.3023823694"><ele>88.000</ele></trkpt>
      <trkpt lat="22.3066030207" lon="114.3023678223"><ele>88.000</ele></trkpt>
      <trkpt lat="22.3066165823" lon="114.3023474538"><ele>86.000</ele></trkpt>
      <trkpt lat="22.3066247204" lon="114.3023338739"><ele>86.000</ele></trkpt>
      <trkpt lat="22.3066319516" lon="114.3023251458"><ele>86.000</ele></trkpt>
      <trkpt lat="22.3066446057" lon="114.3023105995"><ele>86.000</ele></trkpt>
      <trkpt lat="22.3066662971" lon="114.3022873267"><ele>84.000</ele></trkpt>
      <trkpt lat="22.3066762382" lon="114.3022776306"><ele>84.000</ele></trkpt>
      <trkpt lat="22.3066870817" lon="114.3022689057"><ele>84.000</ele></trkpt>
      <trkpt lat="22.3067015374" lon="114.3022601840"><ele>83.000</ele></trkpt>
      <trkpt lat="22.3067159916" lon="114.3022534034"><ele>82.000</ele></trkpt>
      <trkpt lat="22.3067403794" lon="114.3022466316"><ele>82.000</ele></trkpt>
      <trkpt lat="22.3067584481" lon="114.3022369427"><ele>82.000</ele></trkpt>
      <trkpt lat="22.3067774183" lon="114.3022291955"><ele>82.000</ele></trkpt>
      <trkpt lat="22.3067918703" lon="114.3022253264"><ele>81.000</ele></trkpt>
      <trkpt lat="22.3068045169" lon="114.3022204851"><ele>81.000</ele></trkpt>
      <trkpt lat="22.3068189710" lon="114.3022137045"><ele>81.000</ele></trkpt>
      <trkpt lat="22.3068198023" lon="114.3022131414"><ele>81.000</ele></trkpt>
      <trkpt lat="22.3068361382" lon="114.3022020737"><ele>80.000</ele></trkpt>
      <trkpt lat="22.3068433694" lon="114.3021933456"><ele>80.000</ele></trkpt>
      <trkpt lat="22.3068469899" lon="114.3021826732"><ele>80.000</ele></trkpt>
      <trkpt lat="22.3068488035" lon="114.3021729698"><ele>80.000</ele></trkpt>
      <trkpt lat="22.3068560385" lon="114.3021593891"><ele>79.000</ele></trkpt>
      <trkpt lat="22.3068623651" lon="114.3021526012"><ele>79.000</ele></trkpt>
      <trkpt lat="22.3068723040" lon="114.3021458165"><ele>79.000</ele></trkpt>
      <trkpt lat="22.3069192803" lon="114.3021235367"><ele>77.000</ele></trkpt>
      <trkpt lat="22.3069427666" lon="114.3021148231"><ele>76.000</ele></trkpt>
      <trkpt lat="22.3069527017" lon="114.3021128909"><ele>74.000</ele></trkpt>
      <trkpt lat="22.3069716645" lon="114.3021148488"><ele>74.000</ele></trkpt>
      <trkpt lat="22.3069960395" lon="114.3021245757"><ele>74.000</ele></trkpt>
      <trkpt lat="22.3070104862" lon="114.3021275001"><ele>74.000</ele></trkpt>
      <trkpt lat="22.3070457040" lon="114.3021294725"><ele>72.000</ele></trkpt>
      <trkpt lat="22.3070800165" lon="114.3021343557"><ele>72.000</ele></trkpt>
      <trkpt lat="22.3070935616" lon="114.3021353383"><ele>72.000</ele></trkpt>
      <trkpt lat="22.3071043983" lon="114.3021353480"><ele>72.000</ele></trkpt>
      <trkpt lat="22.3071170419" lon="114.3021343887"><ele>72.000</ele></trkpt>
      <trkpt lat="22.3071296870" lon="114.3021314885"><ele>72.000</ele></trkpt>
      <trkpt lat="22.3071439023" lon="114.3021264157"><ele>72.000</ele></trkpt>
      <trkpt lat="22.3071504618" lon="114.3021256840"><ele>70.000</ele></trkpt>
      <trkpt lat="22.3071667154" lon="114.3021276395"><ele>70.000</ele></trkpt>
      <trkpt lat="22.3071829704" lon="114.3021276540"><ele>70.000</ele></trkpt>
      <trkpt lat="22.3072100585" lon="114.3021325307"><ele>69.000</ele></trkpt>
      <trkpt lat="22.3072371502" lon="114.3021325549"><ele>69.000</ele></trkpt>
      <trkpt lat="22.3072506983" lon="114.3021296554"><ele>68.000</ele></trkpt>
      <trkpt lat="22.3072588266" lon="114.3021286922"><ele>68.000</ele></trkpt>
      <trkpt lat="22.3072660511" lon="114.3021286986"><ele>68.000</ele></trkpt>
      <trkpt lat="22.3072931369" lon="114.3021364869"><ele>66.000</ele></trkpt>
      <trkpt lat="22.3073157058" lon="114.3021462121"><ele>66.000</ele></trkpt>
      <trkpt lat="22.3073382740" lon="114.3021569079"><ele>66.000</ele></trkpt>
      <trkpt lat="22.3073716767" lon="114.3021705249"><ele>65.000</ele></trkpt>
      <trkpt lat="22.3073861227" lon="114.3021744198"><ele>64.000</ele></trkpt>
      <trkpt lat="22.3074023762" lon="114.3021763753"><ele>64.000</ele></trkpt>
      <trkpt lat="22.3074285612" lon="114.3021812513"><ele>64.000</ele></trkpt>
      <trkpt lat="22.3074439087" lon="114.3021870880"><ele>64.000</ele></trkpt>
      <trkpt lat="22.3074791159" lon="114.3022026477"><ele>64.000</ele></trkpt>
      <trkpt lat="22.3074935589" lon="114.3022104247"><ele>64.000</ele></trkpt>
      <trkpt lat="22.3075080033" lon="114.3022162606"><ele>64.000</ele></trkpt>
      <trkpt lat="22.3075233523" lon="114.3022201564"><ele>64.000</ele></trkpt>
      <trkpt lat="22.3075414112" lon="114.3022230841"><ele>64.000</ele></trkpt>
      <trkpt lat="22.3075784329" lon="114.3022279697"><ele>62.000</ele></trkpt>
      <trkpt lat="22.3075919780" lon="114.3022289523"><ele>62.000</ele></trkpt>
      <trkpt lat="22.3076073300" lon="114.3022289660"><ele>60.000</ele></trkpt>
      <trkpt lat="22.3076181675" lon="114.3022280052"><ele>60.000</ele></trkpt>
      <trkpt lat="22.3076271981" lon="114.3022280132"><ele>60.000</ele></trkpt>
      <trkpt lat="22.3076398394" lon="114.3022299655"><ele>60.000</ele></trkpt>
      <trkpt lat="22.3076642175" lon="114.3022358104"><ele>58.000</ele></trkpt>
      <trkpt lat="22.3076849848" lon="114.3022397110"><ele>58.000</ele></trkpt>
      <trkpt lat="22.3077048476" lon="114.3022455518"><ele>57.000</ele></trkpt>
      <trkpt lat="22.3077265172" lon="114.3022504237"><ele>57.000</ele></trkpt>
      <trkpt lat="22.3077445769" lon="114.3022523809"><ele>56.000</ele></trkpt>
      <trkpt lat="22.3077635404" lon="114.3022533683"><ele>56.000</ele></trkpt>
      <trkpt lat="22.3077843107" lon="114.3022533869"><ele>54.000</ele></trkpt>
      <trkpt lat="22.3078068880" lon="114.3022524365"><ele>54.000</ele></trkpt>
      <trkpt lat="22.3078222415" lon="114.3022505092"><ele>54.000</ele></trkpt>
      <trkpt lat="22.3078403049" lon="114.3022476138"><ele>52.000</ele></trkpt>
      <trkpt lat="22.3078773378" lon="114.3022379417"><ele>52.000</ele></trkpt>
      <trkpt lat="22.3078836600" lon="114.3022369769"><ele>52.000</ele></trkpt>
      <trkpt lat="22.3078881752" lon="114.3022369809"><ele>52.000</ele></trkpt>
      <trkpt lat="22.3078960711" lon="114.3022410806"><ele>52.000</ele></trkpt>
      <trkpt lat="22.3079283209" lon="114.3022741448"><ele>50.000</ele></trkpt>
      <trkpt lat="22.3079467410" lon="114.3023052139"><ele>50.000</ele></trkpt>
      <trkpt lat="22.3079642383" lon="114.3023359522"><ele>47.000</ele></trkpt>
      <trkpt lat="22.3080179362" lon="114.3024582299"><ele>40.000</ele></trkpt>
      <trkpt lat="22.3080665118" lon="114.3024477025"><ele>39.000</ele></trkpt>
      <trkpt lat="22.3082165443" lon="114.3024138103"><ele>32.000</ele></trkpt>
      <trkpt lat="22.3082666083" lon="114.3024660506"><ele>32.000</ele></trkpt>
      <trkpt lat="22.3083557681" lon="114.3024439967"><ele>32.000</ele></trkpt>
      <trkpt lat="22.3084037198" lon="114.3024450305"><ele>30.000</ele></trkpt>
      <trkpt lat="22.3084208146" lon="114.3024509708"><ele>27.000</ele></trkpt>
      <trkpt lat="22.3084208708" lon="114.3024529817"><ele>27.000</ele></trkpt>
      <trkpt lat="22.3084220363" lon="114.3024943153"><ele>25.000</ele></trkpt>
      <trkpt lat="22.3084222597" lon="114.3025205777"><ele>26.000</ele></trkpt>
      <trkpt lat="22.3084230840" lon="114.3025360495"><ele>26.000</ele></trkpt>
      <trkpt lat="22.3084235059" lon="114.3025439586"><ele>26.000</ele></trkpt>
      <trkpt lat="22.3084237480" lon="114.3025578082"><ele>28.000</ele></trkpt>
      <trkpt lat="22.3084171628" lon="114.3026068717"><ele>28.000</ele></trkpt>
      <trkpt lat="22.3084154490" lon="114.3026159543"><ele>28.000</ele></trkpt>
      <trkpt lat="22.3084166779" lon="114.3026452029"><ele>28.000</ele></trkpt>
      <trkpt lat="22.3084218285" lon="114.3026841855"><ele>27.000</ele></trkpt>
      <trkpt lat="22.3084220224" lon="114.3026857250"><ele>27.000</ele></trkpt>
      <trkpt lat="22.3084279247" lon="114.3027498292"><ele>26.000</ele></trkpt>
      <trkpt lat="22.3084062104" lon="114.3029425250"><ele>20.000</ele></trkpt>
      <trkpt lat="22.3084033437" lon="114.3029679643"><ele>20.000</ele></trkpt>
      <trkpt lat="22.3084156155" lon="114.3029597318"><ele>22.000</ele></trkpt>
      <trkpt lat="22.3084253923" lon="114.3029524131"><ele>22.000</ele></trkpt>
      <trkpt lat="22.3084415202" lon="114.3029417519"><ele>22.000</ele></trkpt>
      <trkpt lat="22.3084463100" lon="114.3029371365"><ele>24.000</ele></trkpt>
      <trkpt lat="22.3084518534" lon="114.3029273295"><ele>24.000</ele></trkpt>
      <trkpt lat="22.3084627114" lon="114.3028999221"><ele>24.000</ele></trkpt>
      <trkpt lat="22.3084735561" lon="114.3028779981"><ele>24.000</ele></trkpt>
      <trkpt lat="22.3084879356" lon="114.3028511664"><ele>24.000</ele></trkpt>
      <trkpt lat="22.3084990300" lon="114.3028332800"><ele>26.000</ele></trkpt>
      <trkpt lat="22.3085076045" lon="114.3028159736"><ele>26.000</ele></trkpt>
      <trkpt lat="22.3085104955" lon="114.3028085857"><ele>26.000</ele></trkpt>
      <trkpt lat="22.3085257739" lon="114.3027695311"><ele>28.000</ele></trkpt>
      <trkpt lat="22.3085341167" lon="114.3027366283"><ele>28.000</ele></trkpt>
      <trkpt lat="22.3085402807" lon="114.3027183686"><ele>28.000</ele></trkpt>
      <trkpt lat="22.3085455714" lon="114.3027082702"><ele>28.000</ele></trkpt>
      <trkpt lat="22.3085561647" lon="114.3026961579"><ele>28.000</ele></trkpt>
      <trkpt lat="22.3085773288" lon="114.3026774167"><ele>28.000</ele></trkpt>
      <trkpt lat="22.3085858275" lon="114.3026705220"><ele>28.000</ele></trkpt>
      <trkpt lat="22.3086073562" lon="114.3026556040"><ele>28.000</ele></trkpt>
      <trkpt lat="22.3086073851" lon="114.3026555953"><ele>28.000</ele></trkpt>
      <trkpt lat="22.3086143728" lon="114.3026534975"><ele>28.000</ele></trkpt>
      <trkpt lat="22.3086436103" lon="114.3026347635"><ele>28.000</ele></trkpt>
      <trkpt lat="22.3086674400" lon="114.3026211335"><ele>28.000</ele></trkpt>
      <trkpt lat="22.3086768667" lon="114.3026157420"><ele>28.000</ele></trkpt>
      <trkpt lat="22.3086892837" lon="114.3026088517"><ele>28.000</ele></trkpt>
      <trkpt lat="22.3087247518" lon="114.3025745474"><ele>26.000</ele></trkpt>
      <trkpt lat="22.3087652174" lon="114.3025494549"><ele>24.000</ele></trkpt>
      <trkpt lat="22.3088227520" lon="114.3025158865"><ele>24.000</ele></trkpt>
      <trkpt lat="22.3088385555" lon="114.3025101280"><ele>24.000</ele></trkpt>
      <trkpt lat="22.3088572027" lon="114.3025043720"><ele>24.000</ele></trkpt>
      <trkpt lat="22.3088789530" lon="114.3025006948"><ele>26.000</ele></trkpt>
      <trkpt lat="22.3088968480" lon="114.3024925661"><ele>26.000</ele></trkpt>
      <trkpt lat="22.3089669579" lon="114.3024623389"><ele>14.000</ele></trkpt>
      <trkpt lat="22.3090095441" lon="114.3024415980"><ele>14.000</ele></trkpt>
      <trkpt lat="22.3090390205" lon="114.3024292211"><ele>14.000</ele></trkpt>
      <trkpt lat="22.3090480122" lon="114.3024246890"><ele>14.000</ele></trkpt>
    </trkseg>
  </trk>
</gpx>
