<?xml version="1.0" encoding="UTF-8"?>
<gpx xmlns:xsi="http://www.w3.org/2001/XMLSchema-instance"
     xsi:schemaLocation="http://www.topografix.com/GPX/1/1 http://www.topografix.com/GPX/1/1/gpx.xsd"
     version="1.1" creator="json3d_batch_to_gpx"
     xmlns="http://www.topografix.com/GPX/1/1">
  <metadata>
    <name>HighIslandGeoTrail-PoPinChauSection</name>
  </metadata>
  <trk>
    <name>HighIslandGeoTrail-PoPinChauSection</name>
    <type>hike</type>
    <trkseg>
      <trkpt lat="22.3617477264" lon="114.3713559441"><ele>69.000</ele></trkpt>
      <trkpt lat="22.3617077840" lon="114.3713785819"><ele>73.000</ele></trkpt>
      <trkpt lat="22.3616755764" lon="114.3713968360"><ele>73.000</ele></trkpt>
      <trkpt lat="22.3616753831" lon="114.3713791539"><ele>73.000</ele></trkpt>
      <trkpt lat="22.3616312492" lon="114.3713689011"><ele>76.000</ele></trkpt>
      <trkpt lat="22.3616096520" lon="114.3713638838"><ele>79.000</ele></trkpt>
      <trkpt lat="22.3616073380" lon="114.3713419427"><ele>79.000</ele></trkpt>
      <trkpt lat="22.3616042557" lon="114.3713242538"><ele>79.000</ele></trkpt>
      <trkpt lat="22.3615972793" lon="114.3713187385"><ele>79.000</ele></trkpt>
      <trkpt lat="22.3615858018" lon="114.3713138844"><ele>79.000</ele></trkpt>
      <trkpt lat="22.3615691856" lon="114.3713081148"><ele>81.000</ele></trkpt>
      <trkpt lat="22.3615523587" lon="114.3713132582"><ele>81.000</ele></trkpt>
      <trkpt lat="22.3615275515" lon="114.3713360945"><ele>81.000</ele></trkpt>
      <trkpt lat="22.3615132703" lon="114.3713551641"><ele>82.000</ele></trkpt>
      <trkpt lat="22.3615102967" lon="114.3713670186"><ele>82.000</ele></trkpt>
      <trkpt lat="22.3615124378" lon="114.3713762770"><ele>82.000</ele></trkpt>
      <trkpt lat="22.3615040827" lon="114.3713889917"><ele>83.000</ele></trkpt>
      <trkpt lat="22.3614933155" lon="114.3713941829"><ele>83.000</ele></trkpt>
      <trkpt lat="22.3614758119" lon="114.3714083311"><ele>84.000</ele></trkpt>
      <trkpt lat="22.3614585737" lon="114.3714253719"><ele>84.000</ele></trkpt>
      <trkpt lat="22.3614378143" lon="114.3714623649"><ele>87.000</ele></trkpt>
      <trkpt lat="22.3614290285" lon="114.3714780357"><ele>87.000</ele></trkpt>
      <trkpt lat="22.3614237629" lon="114.3714925373"><ele>89.000</ele></trkpt>
      <trkpt lat="22.3614199635" lon="114.3715068334"><ele>89.000</ele></trkpt>
      <trkpt lat="22.3614150804" lon="114.3715429031"><ele>90.000</ele></trkpt>
      <trkpt lat="22.3614004808" lon="114.3715796635"><ele>90.000</ele></trkpt>
      <trkpt lat="22.3613880188" lon="114.3716021101"><ele>92.000</ele></trkpt>
      <trkpt lat="22.3613840562" lon="114.3716290583"><ele>92.000</ele></trkpt>
      <trkpt lat="22.3613813330" lon="114.3716592034"><ele>93.000</ele></trkpt>
      <trkpt lat="22.3613636907" lon="114.3716764019"><ele>93.000</ele></trkpt>
      <trkpt lat="22.3613428554" lon="114.3716786038"><ele>96.000</ele></trkpt>
      <trkpt lat="22.3613129234" lon="114.3717149488"><ele>96.000</ele></trkpt>
      <trkpt lat="22.3612974197" lon="114.3717337741"><ele>100.000</ele></trkpt>
      <trkpt lat="22.3612746146" lon="114.3717639678"><ele>100.000</ele></trkpt>
      <trkpt lat="22.3612622023" lon="114.3717924538"><ele>102.000</ele></trkpt>
      <trkpt lat="22.3612329665" lon="114.3718122817"><ele>103.000</ele></trkpt>
      <trkpt lat="22.3612228051" lon="114.3718287825"><ele>104.000</ele></trkpt>
      <trkpt lat="22.3612179100" lon="114.3718469117"><ele>104.000</ele></trkpt>
      <trkpt lat="22.3611995212" lon="114.3718638131"><ele>105.000</ele></trkpt>
      <trkpt lat="22.3611816117" lon="114.3718645512"><ele>105.000</ele></trkpt>
      <trkpt lat="22.3611661640" lon="114.3718589303"><ele>107.000</ele></trkpt>
      <trkpt lat="22.3611534921" lon="114.3718643669"><ele>107.000</ele></trkpt>
      <trkpt lat="22.3611271679" lon="114.3718673396"><ele>107.000</ele></trkpt>
      <trkpt lat="22.3611039930" lon="114.3718856033"><ele>108.000</ele></trkpt>
      <trkpt lat="22.3610859074" lon="114.3718882393"><ele>108.000</ele></trkpt>
      <trkpt lat="22.3610631914" lon="114.3719020709"><ele>109.000</ele></trkpt>
      <trkpt lat="22.3610453049" lon="114.3719070848"><ele>109.000</ele></trkpt>
      <trkpt lat="22.3610324738" lon="114.3719135622"><ele>110.000</ele></trkpt>
      <trkpt lat="22.3610161431" lon="114.3719207870"><ele>111.000</ele></trkpt>
      <trkpt lat="22.3610026305" lon="114.3719352770"><ele>111.000</ele></trkpt>
      <trkpt lat="22.3609972485" lon="114.3719487755"><ele>111.000</ele></trkpt>
      <trkpt lat="22.3609849549" lon="114.3719659596"><ele>112.000</ele></trkpt>
      <trkpt lat="22.3609598473" lon="114.3719755196"><ele>114.000</ele></trkpt>
      <trkpt lat="22.3609500828" lon="114.3719904179"><ele>114.000</ele></trkpt>
      <trkpt lat="22.3609403081" lon="114.3720137796"><ele>114.000</ele></trkpt>
      <trkpt lat="22.3609320490" lon="114.3720238436"><ele>116.000</ele></trkpt>
      <trkpt lat="22.3609130776" lon="114.3720365521"><ele>116.000</ele></trkpt>
      <trkpt lat="22.3609030419" lon="114.3720538877"><ele>116.000</ele></trkpt>
      <trkpt lat="22.3608885092" lon="114.3720697275"><ele>117.000</ele></trkpt>
      <trkpt lat="22.3608671365" lon="114.3720741310"><ele>117.000</ele></trkpt>
      <trkpt lat="22.3608532631" lon="114.3720769327"><ele>116.000</ele></trkpt>
      <trkpt lat="22.3608464991" lon="114.3720906261"><ele>116.000</ele></trkpt>
      <trkpt lat="22.3608457342" lon="114.3721031187"><ele>116.000</ele></trkpt>
      <trkpt lat="22.3608517058" lon="114.3721248903"><ele>117.000</ele></trkpt>
      <trkpt lat="22.3608482961" lon="114.3721547091"><ele>117.000</ele></trkpt>
      <trkpt lat="22.3608517293" lon="114.3721633690"><ele>118.000</ele></trkpt>
      <trkpt lat="22.3608572715" lon="114.3721724547"><ele>118.000</ele></trkpt>
      <trkpt lat="22.3608572613" lon="114.3721809181"><ele>118.000</ele></trkpt>
      <trkpt lat="22.3608546250" lon="114.3721909899"><ele>118.000</ele></trkpt>
      <trkpt lat="22.3608504894" lon="114.3722010598"><ele>118.000</ele></trkpt>
      <trkpt lat="22.3608531022" lon="114.3722103329"><ele>118.000</ele></trkpt>
      <trkpt lat="22.3608512128" lon="114.3722228240"><ele>119.000</ele></trkpt>
      <trkpt lat="22.3608459549" lon="114.3722308771"><ele>119.000</ele></trkpt>
      <trkpt lat="22.3608358215" lon="114.3722409385"><ele>119.000</ele></trkpt>
      <trkpt lat="22.3608290690" lon="114.3722449593"><ele>119.000</ele></trkpt>
      <trkpt lat="22.3608260584" lon="114.3722546277"><ele>119.000</ele></trkpt>
      <trkpt lat="22.3608222947" lon="114.3722671161"><ele>118.000</ele></trkpt>
      <trkpt lat="22.3608121568" lon="114.3722808046"><ele>118.000</ele></trkpt>
      <trkpt lat="22.3608020218" lon="114.3722920751"><ele>119.000</ele></trkpt>
      <trkpt lat="22.3607881333" lon="114.3723073706"><ele>119.000</ele></trkpt>
      <trkpt lat="22.3607738763" lon="114.3723174263"><ele>119.000</ele></trkpt>
      <trkpt lat="22.3607618801" lon="114.3723178126"><ele>120.000</ele></trkpt>
      <trkpt lat="22.3607510056" lon="114.3723206186"><ele>120.000</ele></trkpt>
      <trkpt lat="22.3607431246" lon="114.3723278619"><ele>120.000</ele></trkpt>
      <trkpt lat="22.3607299874" lon="114.3723419493"><ele>120.000</ele></trkpt>
      <trkpt lat="22.3607172293" lon="114.3723524101"><ele>120.000</ele></trkpt>
      <trkpt lat="22.3607052385" lon="114.3723483632"><ele>120.000</ele></trkpt>
      <trkpt lat="22.3606924989" lon="114.3723435092"><ele>120.000</ele></trkpt>
      <trkpt lat="22.3606838799" lon="114.3723410790"><ele>120.000</ele></trkpt>
      <trkpt lat="22.3606677553" lon="114.3723454897"><ele>121.000</ele></trkpt>
      <trkpt lat="22.3606534954" lon="114.3723579634"><ele>120.000</ele></trkpt>
      <trkpt lat="22.3606429802" lon="114.3723736666"><ele>120.000</ele></trkpt>
      <trkpt lat="22.3606362185" lon="114.3723853448"><ele>120.000</ele></trkpt>
      <trkpt lat="22.3606167031" lon="114.3724038566"><ele>120.000</ele></trkpt>
      <trkpt lat="22.3605990757" lon="114.3724110864"><ele>119.000</ele></trkpt>
      <trkpt lat="22.3605874592" lon="114.3724074429"><ele>119.000</ele></trkpt>
      <trkpt lat="22.3605694700" lon="114.3724037906"><ele>120.000</ele></trkpt>
      <trkpt lat="22.3605582328" lon="114.3723965205"><ele>120.000</ele></trkpt>
      <trkpt lat="22.3605481155" lon="114.3723932822"><ele>120.000</ele></trkpt>
      <trkpt lat="22.3605387501" lon="114.3723880299"><ele>120.000</ele></trkpt>
      <trkpt lat="22.3605263923" lon="114.3723775341"><ele>118.000</ele></trkpt>
      <trkpt lat="22.3605211597" lon="114.3723646301"><ele>118.000</ele></trkpt>
      <trkpt lat="22.3605181773" lon="114.3723509232"><ele>117.000</ele></trkpt>
      <trkpt lat="22.3605151983" lon="114.3723343952"><ele>117.000</ele></trkpt>
      <trkpt lat="22.3605144641" lon="114.3723214975"><ele>117.000</ele></trkpt>
      <trkpt lat="22.3605137373" lon="114.3723025545"><ele>117.000</ele></trkpt>
      <trkpt lat="22.3605050936" lon="114.3722870664"><ele>117.000</ele></trkpt>
      <trkpt lat="22.3604967650" lon="114.3722798837"><ele>117.000</ele></trkpt>
      <trkpt lat="22.3604890346" lon="114.3722706813"><ele>115.000</ele></trkpt>
      <trkpt lat="22.3604796674" lon="114.3722670411"><ele>115.000</ele></trkpt>
      <trkpt lat="22.3604680392" lon="114.3722664919"><ele>115.000</ele></trkpt>
      <trkpt lat="22.3604575621" lon="114.3722573377"><ele>116.000</ele></trkpt>
      <trkpt lat="22.3604463249" lon="114.3722500677"><ele>115.000</ele></trkpt>
      <trkpt lat="22.3604362147" lon="114.3722407840"><ele>115.000</ele></trkpt>
      <trkpt lat="22.3604264696" lon="114.3722395614"><ele>115.000</ele></trkpt>
      <trkpt lat="22.3604099790" lon="114.3722367172"><ele>115.000</ele></trkpt>
      <trkpt lat="22.3603957365" lon="114.3722346823"><ele>114.000</ele></trkpt>
      <trkpt lat="22.3603846515" lon="114.3722359619"><ele>114.000</ele></trkpt>
      <trkpt lat="22.3603404345" lon="114.3722457926"><ele>113.000</ele></trkpt>
      <trkpt lat="22.3603187140" lon="114.3722506217"><ele>113.000</ele></trkpt>
      <trkpt lat="22.3602822897" lon="114.3722523914"><ele>112.000</ele></trkpt>
      <trkpt lat="22.3602661271" lon="114.3722685297"><ele>109.000</ele></trkpt>
      <trkpt lat="22.3602460575" lon="114.3722679880"><ele>109.000</ele></trkpt>
      <trkpt lat="22.3602088076" lon="114.3722484133"><ele>107.000</ele></trkpt>
      <trkpt lat="22.3601657686" lon="114.3722337352"><ele>106.000</ele></trkpt>
      <trkpt lat="22.3601543533" lon="114.3722298422"><ele>106.000</ele></trkpt>
      <trkpt lat="22.3601194754" lon="114.3722246560"><ele>106.000</ele></trkpt>
      <trkpt lat="22.3601070671" lon="114.3722112810"><ele>106.000</ele></trkpt>
      <trkpt lat="22.3600917525" lon="114.3722056200"><ele>106.000</ele></trkpt>
      <trkpt lat="22.3600702721" lon="114.3722107159"><ele>106.000</ele></trkpt>
      <trkpt lat="22.3600453840" lon="114.3722430478"><ele>106.000</ele></trkpt>
      <trkpt lat="22.3600204442" lon="114.3722735815"><ele>105.000</ele></trkpt>
      <trkpt lat="22.3600106577" lon="114.3722937511"><ele>105.000</ele></trkpt>
      <trkpt lat="22.3600070668" lon="114.3723159475"><ele>104.000</ele></trkpt>
      <trkpt lat="22.3599993893" lon="114.3723421384"><ele>104.000</ele></trkpt>
      <trkpt lat="22.3599859687" lon="114.3723755137"><ele>102.000</ele></trkpt>
      <trkpt lat="22.3599892859" lon="114.3723986373"><ele>102.000</ele></trkpt>
      <trkpt lat="22.3600052482" lon="114.3724204940"><ele>100.000</ele></trkpt>
      <trkpt lat="22.3600255008" lon="114.3724390907"><ele>100.000</ele></trkpt>
      <trkpt lat="22.3600189650" lon="114.3724587838"><ele>98.000</ele></trkpt>
      <trkpt lat="22.3600041214" lon="114.3724826541"><ele>98.000</ele></trkpt>
      <trkpt lat="22.3599959319" lon="114.3725168866"><ele>96.000</ele></trkpt>
      <trkpt lat="22.3599899569" lon="114.3725574932"><ele>95.000</ele></trkpt>
      <trkpt lat="22.3599732136" lon="114.3725914278"><ele>95.000</ele></trkpt>
      <trkpt lat="22.3599654231" lon="114.3726315213"><ele>93.000</ele></trkpt>
      <trkpt lat="22.3599468767" lon="114.3726545902"><ele>91.000</ele></trkpt>
      <trkpt lat="22.3599235235" lon="114.3726939596"><ele>91.000</ele></trkpt>
      <trkpt lat="22.3599158503" lon="114.3727165540"><ele>91.000</ele></trkpt>
      <trkpt lat="22.3599091317" lon="114.3727401774"><ele>91.000</ele></trkpt>
      <trkpt lat="22.3599014622" lon="114.3727596893"><ele>88.000</ele></trkpt>
      <trkpt lat="22.3598861271" lon="114.3727956307"><ele>88.000</ele></trkpt>
      <trkpt lat="22.3598669676" lon="114.3728325942"><ele>88.000</ele></trkpt>
      <trkpt lat="22.3598621580" lon="114.3728582752"><ele>87.000</ele></trkpt>
      <trkpt lat="22.3598621256" lon="114.3728849905"><ele>87.000</ele></trkpt>
      <trkpt lat="22.3598470447" lon="114.3728936342"><ele>84.000</ele></trkpt>
      <trkpt lat="22.3598229319" lon="114.3728921281"><ele>84.000</ele></trkpt>
      <trkpt lat="22.3598157992" lon="114.3729282629"><ele>84.000</ele></trkpt>
      <trkpt lat="22.3598101083" lon="114.3729570935"><ele>80.000</ele></trkpt>
      <trkpt lat="22.3597972436" lon="114.3729978503"><ele>80.000</ele></trkpt>
      <trkpt lat="22.3597528579" lon="114.3730067591"><ele>77.000</ele></trkpt>
      <trkpt lat="22.3597482196" lon="114.3730076901"><ele>77.000</ele></trkpt>
      <trkpt lat="22.3597199105" lon="114.3730133721"><ele>75.000</ele></trkpt>
      <trkpt lat="22.3596955020" lon="114.3730441632"><ele>74.000</ele></trkpt>
      <trkpt lat="22.3596833043" lon="114.3730541642"><ele>74.000</ele></trkpt>
      <trkpt lat="22.3596510251" lon="114.3730733848"><ele>72.000</ele></trkpt>
      <trkpt lat="22.3596216000" lon="114.3731033981"><ele>68.000</ele></trkpt>
      <trkpt lat="22.3595993634" lon="114.3731164677"><ele>68.000</ele></trkpt>
      <trkpt lat="22.3595979046" lon="114.3731372727"><ele>68.000</ele></trkpt>
      <trkpt lat="22.3595942776" lon="114.3731727167"><ele>68.000</ele></trkpt>
      <trkpt lat="22.3595849266" lon="114.3731996756"><ele>64.000</ele></trkpt>
      <trkpt lat="22.3595798715" lon="114.3732304937"><ele>63.000</ele></trkpt>
      <trkpt lat="22.3595755278" lon="114.3732659366"><ele>63.000</ele></trkpt>
      <trkpt lat="22.3595732745" lon="114.3733144196"><ele>62.000</ele></trkpt>
      <trkpt lat="22.3595726600" lon="114.3733276413"><ele>60.000</ele></trkpt>
      <trkpt lat="22.3595704026" lon="114.3733545519"><ele>60.000</ele></trkpt>
      <trkpt lat="22.3595478142" lon="114.3733830435"><ele>59.000</ele></trkpt>
      <trkpt lat="22.3595174431" lon="114.3734136294"><ele>56.000</ele></trkpt>
      <trkpt lat="22.3595054145" lon="114.3734249151"><ele>56.000</ele></trkpt>
      <trkpt lat="22.3594941339" lon="114.3734386238"><ele>53.000</ele></trkpt>
      <trkpt lat="22.3594790596" lon="114.3734486271"><ele>53.000</ele></trkpt>
      <trkpt lat="22.3594790656" lon="114.3734490860"><ele>53.000</ele></trkpt>
      <trkpt lat="22.3594797033" lon="114.3734976247"><ele>51.000</ele></trkpt>
      <trkpt lat="22.3594803411" lon="114.3735461633"><ele>50.000</ele></trkpt>
      <trkpt lat="22.3594804713" lon="114.3735560746"><ele>50.000</ele></trkpt>
      <trkpt lat="22.3594380652" lon="114.3735550927"><ele>47.000</ele></trkpt>
      <trkpt lat="22.3594022159" lon="114.3735846057"><ele>43.000</ele></trkpt>
      <trkpt lat="22.3594006505" lon="114.3735858944"><ele>43.000</ele></trkpt>
      <trkpt lat="22.3594058400" lon="114.3736032026"><ele>43.000</ele></trkpt>
      <trkpt lat="22.3593963017" lon="114.3736272183"><ele>41.000</ele></trkpt>
      <trkpt lat="22.3593844201" lon="114.3736548811"><ele>41.000</ele></trkpt>
      <trkpt lat="22.3593927008" lon="114.3736922032"><ele>40.000</ele></trkpt>
      <trkpt lat="22.3593974097" lon="114.3737404820"><ele>38.000</ele></trkpt>
      <trkpt lat="22.3594016023" lon="114.3737834678"><ele>36.000</ele></trkpt>
      <trkpt lat="22.3593959478" lon="114.3738217218"><ele>34.000</ele></trkpt>
      <trkpt lat="22.3593950457" lon="114.3738654388"><ele>32.000</ele></trkpt>
      <trkpt lat="22.3593855843" lon="114.3738707944"><ele>32.000</ele></trkpt>
      <trkpt lat="22.3593756795" lon="114.3738768581"><ele>32.000</ele></trkpt>
      <trkpt lat="22.3593808954" lon="114.3739021469"><ele>32.000</ele></trkpt>
      <trkpt lat="22.3594131903" lon="114.3739360728"><ele>31.000</ele></trkpt>
      <trkpt lat="22.3594174223" lon="114.3739405185"><ele>31.000</ele></trkpt>
      <trkpt lat="22.3594201910" lon="114.3739434270"><ele>31.000</ele></trkpt>
      <trkpt lat="22.3593755848" lon="114.3739509558"><ele>30.000</ele></trkpt>
      <trkpt lat="22.3593417630" lon="114.3739566644"><ele>26.000</ele></trkpt>
      <trkpt lat="22.3592966125" lon="114.3739562080"><ele>27.000</ele></trkpt>
      <trkpt lat="22.3592514620" lon="114.3739557517"><ele>25.000</ele></trkpt>
      <trkpt lat="22.3592513778" lon="114.3739557508"><ele>25.000</ele></trkpt>
      <trkpt lat="22.3592287696" lon="114.3739374278"><ele>25.000</ele></trkpt>
      <trkpt lat="22.3591908080" lon="114.3739426754"><ele>23.000</ele></trkpt>
      <trkpt lat="22.3591461166" lon="114.3739357554"><ele>21.000</ele></trkpt>
      <trkpt lat="22.3591375289" lon="114.3739344257"><ele>21.000</ele></trkpt>
      <trkpt lat="22.3591044233" lon="114.3739194278"><ele>20.000</ele></trkpt>
      <trkpt lat="22.3590625728" lon="114.3739376502"><ele>19.000</ele></trkpt>
      <trkpt lat="22.3590401913" lon="114.3739473955"><ele>19.000</ele></trkpt>
      <trkpt lat="22.3590197711" lon="114.3739715025"><ele>18.000</ele></trkpt>
      <trkpt lat="22.3589808588" lon="114.3739853486"><ele>19.000</ele></trkpt>
      <trkpt lat="22.3589460465" lon="114.3739811819"><ele>19.000</ele></trkpt>
      <trkpt lat="22.3589257704" lon="114.3739819606"><ele>19.000</ele></trkpt>
      <trkpt lat="22.3589084813" lon="114.3739964681"><ele>20.000</ele></trkpt>
      <trkpt lat="22.3588829271" lon="114.3740150005"><ele>19.000</ele></trkpt>
      <trkpt lat="22.3588646025" lon="114.3740508660"><ele>20.000</ele></trkpt>
      <trkpt lat="22.3588588202" lon="114.3740827799"><ele>20.000</ele></trkpt>
      <trkpt lat="22.3588536445" lon="114.3740985784"><ele>20.000</ele></trkpt>
      <trkpt lat="22.3588542532" lon="114.3741287924"><ele>21.000</ele></trkpt>
      <trkpt lat="22.3588357090" lon="114.3741730527"><ele>22.000</ele></trkpt>
      <trkpt lat="22.3588356068" lon="114.3741732967"><ele>22.000</ele></trkpt>
      <trkpt lat="22.3588107405" lon="114.3741989445"><ele>25.000</ele></trkpt>
      <trkpt lat="22.3587873123" lon="114.3742175034"><ele>25.000</ele></trkpt>
      <trkpt lat="22.3587454102" lon="114.3742275122"><ele>27.000</ele></trkpt>
      <trkpt lat="22.3587234172" lon="114.3742453451"><ele>28.000</ele></trkpt>
      <trkpt lat="22.3587138372" lon="114.3742886613"><ele>29.000</ele></trkpt>
      <trkpt lat="22.3586977253" lon="114.3743046676"><ele>30.000</ele></trkpt>
      <trkpt lat="22.3586767933" lon="114.3743188710"><ele>31.000</ele></trkpt>
      <trkpt lat="22.3586716193" lon="114.3743259316"><ele>31.000</ele></trkpt>
      <trkpt lat="22.3586750347" lon="114.3743465478"><ele>32.000</ele></trkpt>
      <trkpt lat="22.3586739618" lon="114.3743599928"><ele>32.000</ele></trkpt>
      <trkpt lat="22.3586616592" lon="114.3743698297"><ele>32.000</ele></trkpt>
      <trkpt lat="22.3586480827" lon="114.3743950045"><ele>33.000</ele></trkpt>
      <trkpt lat="22.3586266857" lon="114.3744054500"><ele>34.000</ele></trkpt>
      <trkpt lat="22.3586029683" lon="114.3744113442"><ele>34.000</ele></trkpt>
      <trkpt lat="22.3585875157" lon="114.3744328414"><ele>34.000</ele></trkpt>
      <trkpt lat="22.3585491521" lon="114.3744575058"><ele>35.000</ele></trkpt>
      <trkpt lat="22.3585176160" lon="114.3744861691"><ele>35.000</ele></trkpt>
      <trkpt lat="22.3584944464" lon="114.3745064374"><ele>36.000</ele></trkpt>
      <trkpt lat="22.3584498353" lon="114.3745139330"><ele>37.000</ele></trkpt>
      <trkpt lat="22.3584409410" lon="114.3745154274"><ele>37.000</ele></trkpt>
      <trkpt lat="22.3584359801" lon="114.3745259713"><ele>37.000</ele></trkpt>
      <trkpt lat="22.3584311403" lon="114.3745295420"><ele>37.000</ele></trkpt>
      <trkpt lat="22.3584152626" lon="114.3745446710"><ele>37.000</ele></trkpt>
      <trkpt lat="22.3584062551" lon="114.3745516362"><ele>37.000</ele></trkpt>
      <trkpt lat="22.3583978515" lon="114.3745488934"><ele>37.000</ele></trkpt>
      <trkpt lat="22.3583982139" lon="114.3745670886"><ele>37.000</ele></trkpt>
      <trkpt lat="22.3583981886" lon="114.3745877644"><ele>38.000</ele></trkpt>
      <trkpt lat="22.3583977757" lon="114.3746109207"><ele>38.000</ele></trkpt>
      <trkpt lat="22.3583939505" lon="114.3746280610"><ele>38.000</ele></trkpt>
      <trkpt lat="22.3583834557" lon="114.3746439586"><ele>38.000</ele></trkpt>
      <trkpt lat="22.3583670444" lon="114.3746610517"><ele>38.000</ele></trkpt>
      <trkpt lat="22.3583565906" lon="114.3746803377"><ele>38.000</ele></trkpt>
      <trkpt lat="22.3583361065" lon="114.3747014461"><ele>39.000</ele></trkpt>
      <trkpt lat="22.3583291757" lon="114.3747153116"><ele>39.000</ele></trkpt>
      <trkpt lat="22.3583208601" lon="114.3747306617"><ele>38.000</ele></trkpt>
      <trkpt lat="22.3583194482" lon="114.3747544459"><ele>39.000</ele></trkpt>
      <trkpt lat="22.3583106693" lon="114.3747717776"><ele>39.000</ele></trkpt>
      <trkpt lat="22.3583065039" lon="114.3747856470"><ele>40.000</ele></trkpt>
      <trkpt lat="22.3583026444" lon="114.3748042018"><ele>40.000</ele></trkpt>
      <trkpt lat="22.3582942826" lon="114.3748333741"><ele>41.000</ele></trkpt>
      <trkpt lat="22.3582885582" lon="114.3748469306"><ele>41.000</ele></trkpt>
      <trkpt lat="22.3582828946" lon="114.3748688652"><ele>41.000</ele></trkpt>
      <trkpt lat="22.3582782616" lon="114.3748881848"><ele>41.000</ele></trkpt>
      <trkpt lat="22.3582658185" lon="114.3749071679"><ele>41.000</ele></trkpt>
      <trkpt lat="22.3582528538" lon="114.3749536668"><ele>42.000</ele></trkpt>
      <trkpt lat="22.3582484035" lon="114.3749696279"><ele>42.000</ele></trkpt>
      <trkpt lat="22.3582287987" lon="114.3750050635"><ele>43.000</ele></trkpt>
      <trkpt lat="22.3582190791" lon="114.3750377558"><ele>44.000</ele></trkpt>
      <trkpt lat="22.3582079034" lon="114.3750641131"><ele>44.000</ele></trkpt>
      <trkpt lat="22.3582067010" lon="114.3750873053"><ele>46.000</ele></trkpt>
      <trkpt lat="22.3582150905" lon="114.3751093460"><ele>46.000</ele></trkpt>
      <trkpt lat="22.3582270302" lon="114.3751561612"><ele>47.000</ele></trkpt>
      <trkpt lat="22.3582301084" lon="114.3751682306"><ele>47.000</ele></trkpt>
      <trkpt lat="22.3582308600" lon="114.3752037800"><ele>49.000</ele></trkpt>
      <trkpt lat="22.3582356794" lon="114.3752278785"><ele>51.000</ele></trkpt>
      <trkpt lat="22.3582391090" lon="114.3752515724"><ele>51.000</ele></trkpt>
      <trkpt lat="22.3582433247" lon="114.3752970924"><ele>53.000</ele></trkpt>
      <trkpt lat="22.3582407766" lon="114.3753204186"><ele>54.000</ele></trkpt>
      <trkpt lat="22.3582281073" lon="114.3753273132"><ele>54.000</ele></trkpt>
      <trkpt lat="22.3582290210" lon="114.3753481297"><ele>54.000</ele></trkpt>
      <trkpt lat="22.3582484342" lon="114.3753795064"><ele>55.000</ele></trkpt>
      <trkpt lat="22.3582475851" lon="114.3754091553"><ele>55.000</ele></trkpt>
      <trkpt lat="22.3582580026" lon="114.3754269368"><ele>57.000</ele></trkpt>
      <trkpt lat="22.3582687301" lon="114.3754433775"><ele>57.000</ele></trkpt>
      <trkpt lat="22.3582717514" lon="114.3754630260"><ele>57.000</ele></trkpt>
      <trkpt lat="22.3582622439" lon="114.3754899325"><ele>57.000</ele></trkpt>
      <trkpt lat="22.3582561112" lon="114.3755241194"><ele>58.000</ele></trkpt>
      <trkpt lat="22.3582564868" lon="114.3755509914"><ele>58.000</ele></trkpt>
      <trkpt lat="22.3582514817" lon="114.3755748384"><ele>58.000</ele></trkpt>
      <trkpt lat="22.3582317634" lon="114.3755947663"><ele>58.000</ele></trkpt>
      <trkpt lat="22.3582145632" lon="114.3756057274"><ele>59.000</ele></trkpt>
      <trkpt lat="22.3581866126" lon="114.3756213671"><ele>59.000</ele></trkpt>
      <trkpt lat="22.3581671842" lon="114.3756343182"><ele>60.000</ele></trkpt>
      <trkpt lat="22.3581591306" lon="114.3756672693"><ele>61.000</ele></trkpt>
      <trkpt lat="22.3581427739" lon="114.3756765760"><ele>61.000</ele></trkpt>
      <trkpt lat="22.3581363050" lon="114.3757011199"><ele>61.000</ele></trkpt>
      <trkpt lat="22.3581440249" lon="114.3757259611"><ele>61.000</ele></trkpt>
      <trkpt lat="22.3581467625" lon="114.3757487600"><ele>61.000</ele></trkpt>
      <trkpt lat="22.3581458005" lon="114.3757814646"><ele>61.000</ele></trkpt>
      <trkpt lat="22.3581491218" lon="114.3758047798"><ele>61.000</ele></trkpt>
      <trkpt lat="22.3581533577" lon="114.3758345152"><ele>61.000</ele></trkpt>
      <trkpt lat="22.3581426394" lon="114.3758631014"><ele>61.000</ele></trkpt>
      <trkpt lat="22.3581355364" lon="114.3758820455"><ele>62.000</ele></trkpt>
      <trkpt lat="22.3581419528" lon="114.3759117874"><ele>62.000</ele></trkpt>
      <trkpt lat="22.3581418811" lon="114.3759365591"><ele>62.000</ele></trkpt>
      <trkpt lat="22.3581417023" lon="114.3759680658"><ele>64.000</ele></trkpt>
      <trkpt lat="22.3581532099" lon="114.3759883959"><ele>64.000</ele></trkpt>
      <trkpt lat="22.3581532633" lon="114.3760028235"><ele>66.000</ele></trkpt>
      <trkpt lat="22.3581536035" lon="114.3760202762"><ele>66.000</ele></trkpt>
      <trkpt lat="22.3581531459" lon="114.3760403915"><ele>66.000</ele></trkpt>
      <trkpt lat="22.3581563887" lon="114.3760539302"><ele>67.000</ele></trkpt>
      <trkpt lat="22.3581601684" lon="114.3760852109"><ele>67.000</ele></trkpt>
      <trkpt lat="22.3581590319" lon="114.3761148070"><ele>69.000</ele></trkpt>
      <trkpt lat="22.3581543034" lon="114.3761340330"><ele>69.000</ele></trkpt>
      <trkpt lat="22.3581644559" lon="114.3761688625"><ele>71.000</ele></trkpt>
      <trkpt lat="22.3581545251" lon="114.3761976491"><ele>72.000</ele></trkpt>
      <trkpt lat="22.3581556621" lon="114.3762323145"><ele>72.000</ele></trkpt>
      <trkpt lat="22.3581610952" lon="114.3762580216"><ele>73.000</ele></trkpt>
      <trkpt lat="22.3581517907" lon="114.3762971632"><ele>73.000</ele></trkpt>
      <trkpt lat="22.3581354738" lon="114.3763417729"><ele>74.000</ele></trkpt>
      <trkpt lat="22.3581239664" lon="114.3763887129"><ele>75.000</ele></trkpt>
      <trkpt lat="22.3581217033" lon="114.3763979442"><ele>75.000</ele></trkpt>
      <trkpt lat="22.3581152526" lon="114.3764235394"><ele>75.000</ele></trkpt>
      <trkpt lat="22.3581038732" lon="114.3764588239"><ele>75.000</ele></trkpt>
      <trkpt lat="22.3580955867" lon="114.3764824850"><ele>76.000</ele></trkpt>
      <trkpt lat="22.3580829751" lon="114.3765061399"><ele>77.000</ele></trkpt>
      <trkpt lat="22.3580651791" lon="114.3765242698"><ele>77.000</ele></trkpt>
      <trkpt lat="22.3580430659" lon="114.3765368400"><ele>77.000</ele></trkpt>
      <trkpt lat="22.3580274490" lon="114.3765629614"><ele>77.000</ele></trkpt>
      <trkpt lat="22.3580410815" lon="114.3765967533"><ele>78.000</ele></trkpt>
      <trkpt lat="22.3580624956" lon="114.3766138688"><ele>79.000</ele></trkpt>
      <trkpt lat="22.3580827936" lon="114.3766369424"><ele>79.000</ele></trkpt>
      <trkpt lat="22.3581007097" lon="114.3766596584"><ele>79.000</ele></trkpt>
      <trkpt lat="22.3581057778" lon="114.3767078946"><ele>79.000</ele></trkpt>
      <trkpt lat="22.3581064314" lon="114.3767141145"><ele>79.000</ele></trkpt>
      <trkpt lat="22.3581449098" lon="114.3766887151"><ele>78.000</ele></trkpt>
      <trkpt lat="22.3581491353" lon="114.3766859259"><ele>78.000</ele></trkpt>
      <trkpt lat="22.3581877806" lon="114.3766608210"><ele>76.000</ele></trkpt>
      <trkpt lat="22.3581885908" lon="114.3766602947"><ele>76.000</ele></trkpt>
      <trkpt lat="22.3582279988" lon="114.3766731946"><ele>76.000</ele></trkpt>
      <trkpt lat="22.3582160606" lon="114.3767200102"><ele>76.000</ele></trkpt>
      <trkpt lat="22.3582099917" lon="114.3767438094"><ele>76.000</ele></trkpt>
      <trkpt lat="22.3581865378" lon="114.3767852898"><ele>76.000</ele></trkpt>
      <trkpt lat="22.3581860461" lon="114.3767861595"><ele>76.000</ele></trkpt>
      <trkpt lat="22.3581726380" lon="114.3768325128"><ele>76.000</ele></trkpt>
      <trkpt lat="22.3581704489" lon="114.3768400808"><ele>76.000</ele></trkpt>
      <trkpt lat="22.3581703918" lon="114.3768863180"><ele>77.000</ele></trkpt>
      <trkpt lat="22.3581619815" lon="114.3769248372"><ele>77.000</ele></trkpt>
      <trkpt lat="22.3581637664" lon="114.3769475115"><ele>77.000</ele></trkpt>
      <trkpt lat="22.3581825621" lon="114.3769916488"><ele>77.000</ele></trkpt>
      <trkpt lat="22.3581838552" lon="114.3769946853"><ele>77.000</ele></trkpt>
      <trkpt lat="22.3581903295" lon="114.3770427267"><ele>76.000</ele></trkpt>
      <trkpt lat="22.3581905397" lon="114.3770442864"><ele>76.000</ele></trkpt>
      <trkpt lat="22.3581852490" lon="114.3770652397"><ele>75.000</ele></trkpt>
      <trkpt lat="22.3581996077" lon="114.3770796775"><ele>75.000</ele></trkpt>
      <trkpt lat="22.3581997271" lon="114.3770999687"><ele>75.000</ele></trkpt>
      <trkpt lat="22.3581998327" lon="114.3771021630"><ele>75.000</ele></trkpt>
      <trkpt lat="22.3581881550" lon="114.3771178063"><ele>74.000</ele></trkpt>
      <trkpt lat="22.3581790116" lon="114.3771579481"><ele>74.000</ele></trkpt>
      <trkpt lat="22.3581925361" lon="114.3771897728"><ele>74.000</ele></trkpt>
      <trkpt lat="22.3581909342" lon="114.3772382853"><ele>73.000</ele></trkpt>
      <trkpt lat="22.3581908567" lon="114.3772406338"><ele>73.000</ele></trkpt>
    </trkseg>
  </trk>
</gpx>
