<?xml version="1.0"?>
<gpx version="1.1" creator="GDAL 3.6.3" xmlns:xsi="http://www.w3.org/2001/XMLSchema-instance" xmlns:ogr="http://osgeo.org/gdal" xmlns="http://www.topografix.com/GPX/1/1" xsi:schemaLocation="http://www.topografix.com/GPX/1/1 http://www.topografix.com/GPX/1/1/gpx.xsd">
<metadata><bounds minlat="22.356753096075074" minlon="114.288897033997912" maxlat="22.366475505069864" maxlon="114.296526004868696"/></metadata>                
<trk>
  <extensions>
    <ogr:Id>0</ogr:Id>
  </extensions>
  <trkseg>
    <trkpt lat="22.365788767704871" lon="114.289067571087898">
    </trkpt>
    <trkpt lat="22.365825137002133" lon="114.289082602846065">
    </trkpt>
    <trkpt lat="22.36581665461053" lon="114.289097598656369">
    </trkpt>
    <trkpt lat="22.365782244243118" lon="114.289132398097777">
    </trkpt>
    <trkpt lat="22.365797689498343" lon="114.289137768488075">
    </trkpt>
    <trkpt lat="22.365860020954841" lon="114.28908370245729">
    </trkpt>
    <trkpt lat="22.365894421282704" lon="114.289063369405099">
    </trkpt>
    <trkpt lat="22.36603278250665" lon="114.289018500063889">
    </trkpt>
    <trkpt lat="22.366227794721965" lon="114.288957002636195">
    </trkpt>
    <trkpt lat="22.366407036062139" lon="114.288897033997912">
    </trkpt>
    <trkpt lat="22.366444308714094" lon="114.288898605162942">
    </trkpt>
    <trkpt lat="22.36644142338027" lon="114.288924805593282">
    </trkpt>
    <trkpt lat="22.366389780608909" lon="114.288972545704226">
    </trkpt>
    <trkpt lat="22.366287924570152" lon="114.289074192552704">
    </trkpt>
    <trkpt lat="22.366226248946855" lon="114.289118841841045">
    </trkpt>
    <trkpt lat="22.366084246552465" lon="114.289228162913645">
    </trkpt>
    <trkpt lat="22.366016837572321" lon="114.28927126637592">
    </trkpt>
    <trkpt lat="22.365969019553813" lon="114.289329437917601">
    </trkpt>
    <trkpt lat="22.365942705638268" lon="114.289374372460685">
    </trkpt>
    <trkpt lat="22.365953433494049" lon="114.289409061056944">
    </trkpt>
    <trkpt lat="22.366393775417308" lon="114.289413372277352">
    </trkpt>
    <trkpt lat="22.366475505069864" lon="114.289405627404349">
    </trkpt>
    <trkpt lat="22.366426295334239" lon="114.289487902788579">
    </trkpt>
    <trkpt lat="22.366421035780164" lon="114.289506316932091">
    </trkpt>
    <trkpt lat="22.366417463793965" lon="114.289527664614141">
    </trkpt>
    <trkpt lat="22.366414441358284" lon="114.289549595290069">
    </trkpt>
    <trkpt lat="22.366413021538929" lon="114.289566769741796">
    </trkpt>
    <trkpt lat="22.366413158609419" lon="114.289577420856787">
    </trkpt>
    <trkpt lat="22.366423461329564" lon="114.289606246092461">
    </trkpt>
    <trkpt lat="22.366428073884894" lon="114.289622143787369">
    </trkpt>
    <trkpt lat="22.366430448898186" lon="114.28963512691719">
    </trkpt>
    <trkpt lat="22.366431998044682" lon="114.289668226870333">
    </trkpt>
    <trkpt lat="22.366432616571643" lon="114.289714949070145">
    </trkpt>
    <trkpt lat="22.366431987259311" lon="114.289751037705514">
    </trkpt>
    <trkpt lat="22.366425203508221" lon="114.289820948270759">
    </trkpt>
    <trkpt lat="22.366419014608493" lon="114.289852392384276">
    </trkpt>
    <trkpt lat="22.366414245142764" lon="114.289867253337277">
    </trkpt>
    <trkpt lat="22.366408323063776" lon="114.289877394682392">
    </trkpt>
    <trkpt lat="22.366402375126004" lon="114.28988576990038">
    </trkpt>
    <trkpt lat="22.366390377158282" lon="114.289894828616013">
    </trkpt>
    <trkpt lat="22.366376157584845" lon="114.289902730140469">
    </trkpt>
    <trkpt lat="22.366340531290518" lon="114.289916878757509">
    </trkpt>
    <trkpt lat="22.366325192744824" lon="114.289923614268687">
    </trkpt>
    <trkpt lat="22.366279211564457" lon="114.289946201517495">
    </trkpt>
    <trkpt lat="22.366249747809157" lon="114.289967946715379">
    </trkpt>
    <trkpt lat="22.366235597653553" lon="114.28998117863074">
    </trkpt>
    <trkpt lat="22.36622585395774" lon="114.28999374514045">
    </trkpt>
    <trkpt lat="22.366215042575689" lon="114.290009290538194">
    </trkpt>
    <trkpt lat="22.366209180877341" lon="114.290024762260771">
    </trkpt>
    <trkpt lat="22.366203378595547" lon="114.290044370147797">
    </trkpt>
    <trkpt lat="22.366200968595887" lon="114.290069836392405">
    </trkpt>
    <trkpt lat="22.366194743859861" lon="114.290099512370901">
    </trkpt>
    <trkpt lat="22.366187616056575" lon="114.290143393139871">
    </trkpt>
    <trkpt lat="22.366182959480557" lon="114.290165943832221">
    </trkpt>
    <trkpt lat="22.366178207224486" lon="114.290181979575934">
    </trkpt>
    <trkpt lat="22.366172311869306" lon="114.290193907403975">
    </trkpt>
    <trkpt lat="22.366165296232396" lon="114.290205252743348">
    </trkpt>
    <trkpt lat="22.366155009851859" lon="114.290219012051537">
    </trkpt>
    <trkpt lat="22.366144672184429" lon="114.290228635200236">
    </trkpt>
    <trkpt lat="22.366131037925076" lon="114.290238897455424">
    </trkpt>
    <trkpt lat="22.366066981929681" lon="114.290269450881041">
    </trkpt>
    <trkpt lat="22.366052236900131" lon="114.2902797306742">
    </trkpt>
    <trkpt lat="22.366038025922307" lon="114.29028822537876">
    </trkpt>
    <trkpt lat="22.366023298537456" lon="114.290299097442343">
    </trkpt>
    <trkpt lat="22.365995505474508" lon="114.290321999272891">
    </trkpt>
    <trkpt lat="22.365991067776061" lon="114.290327288151516">
    </trkpt>
    <trkpt lat="22.365979398216894" lon="114.290343182332336">
    </trkpt>
    <trkpt lat="22.365979019702497" lon="114.290343053136155">
    </trkpt>
    <trkpt lat="22.365965783524452" lon="114.290365451194845">
    </trkpt>
    <trkpt lat="22.365958263154152" lon="114.290375387297715">
    </trkpt>
    <trkpt lat="22.365947725307358" lon="114.290387146278391">
    </trkpt>
    <trkpt lat="22.36593941227925" lon="114.29039418840091">
    </trkpt>
    <trkpt lat="22.365931796194481" lon="114.290398960111162">
    </trkpt>
    <trkpt lat="22.365921869438409" lon="114.290404674649906">
    </trkpt>
    <trkpt lat="22.365915290749076" lon="114.29040846171894">
    </trkpt>
    <trkpt lat="22.365898217625965" lon="114.290416187055897">
    </trkpt>
    <trkpt lat="22.365888763009682" lon="114.290417298127124">
    </trkpt>
    <trkpt lat="22.365859015572504" lon="114.29041853716285">
    </trkpt>
    <trkpt lat="22.365835742417175" lon="114.29041388652621">
    </trkpt>
    <trkpt lat="22.36581172930757" lon="114.290407487397843">
    </trkpt>
    <trkpt lat="22.365786284976327" lon="114.290399633163162">
    </trkpt>
    <trkpt lat="22.365757296253129" lon="114.290385854922633">
    </trkpt>
    <trkpt lat="22.365708290354547" lon="114.290335839701385">
    </trkpt>
    <trkpt lat="22.365685269264681" lon="114.290326192711163">
    </trkpt>
    <trkpt lat="22.365654581519838" lon="114.290317775972753">
    </trkpt>
    <trkpt lat="22.36563008915877" lon="114.290320325167912">
    </trkpt>
    <trkpt lat="22.365605097516024" lon="114.290326586252988">
    </trkpt>
    <trkpt lat="22.365593219593553" lon="114.290340525040406">
    </trkpt>
    <trkpt lat="22.36558745956421" lon="114.290360028731655">
    </trkpt>
    <trkpt lat="22.365575027050397" lon="114.290388291706265">
    </trkpt>
    <trkpt lat="22.365552640301917" lon="114.290409298235375">
    </trkpt>
    <trkpt lat="22.365532953199661" lon="114.29041908414122">
    </trkpt>
    <trkpt lat="22.36550666692635" lon="114.290424200659373">
    </trkpt>
    <trkpt lat="22.3654889804261" lon="114.290431892948902">
    </trkpt>
    <trkpt lat="22.365471279727412" lon="114.290460136330864">
    </trkpt>
    <trkpt lat="22.365461226882971" lon="114.29048530301624">
    </trkpt>
    <trkpt lat="22.36545053257937" lon="114.290514094086276">
    </trkpt>
    <trkpt lat="22.365443953660787" lon="114.290533633252167">
    </trkpt>
    <trkpt lat="22.36543300471148" lon="114.290580384566283">
    </trkpt>
    <trkpt lat="22.365423677591394" lon="114.290604067297807">
    </trkpt>
    <trkpt lat="22.365412698367646" lon="114.290628341912253">
    </trkpt>
    <trkpt lat="22.365403919610952" lon="114.290655568919249">
    </trkpt>
    <trkpt lat="22.36540377823626" lon="114.290655956684517">
    </trkpt>
    <trkpt lat="22.365403919069085" lon="114.290656339581872">
    </trkpt>
    <trkpt lat="22.36536552208641" lon="114.290761703011682">
    </trkpt>
    <trkpt lat="22.365355714492836" lon="114.290782852214676">
    </trkpt>
    <trkpt lat="22.365353990657038" lon="114.290786569411694">
    </trkpt>
    <trkpt lat="22.365343561434692" lon="114.29081202799108">
    </trkpt>
    <trkpt lat="22.365334233453424" lon="114.290836885496688">
    </trkpt>
    <trkpt lat="22.365317213876679" lon="114.290872408046397">
    </trkpt>
    <trkpt lat="22.365290312922525" lon="114.290936350879846">
    </trkpt>
    <trkpt lat="22.365281543211843" lon="114.290964763335992">
    </trkpt>
    <trkpt lat="22.36527388258774" lon="114.290995535040821">
    </trkpt>
    <trkpt lat="22.365255293476281" lon="114.291093757840997">
    </trkpt>
    <trkpt lat="22.365249245776909" lon="114.291102646469938">
    </trkpt>
    <trkpt lat="22.365238801106415" lon="114.291111542190137">
    </trkpt>
    <trkpt lat="22.36522008883173" lon="114.291125770211579">
    </trkpt>
    <trkpt lat="22.365192051855292" lon="114.291160138996773">
    </trkpt>
    <trkpt lat="22.365176108255991" lon="114.291180874381254">
    </trkpt>
    <trkpt lat="22.365161265481323" lon="114.291201601921784">
    </trkpt>
    <trkpt lat="22.365149580983143" lon="114.291223818504363">
    </trkpt>
    <trkpt lat="22.365140415853471" lon="114.291266045701192">
    </trkpt>
    <trkpt lat="22.365144922372078" lon="114.291352482665005">
    </trkpt>
    <trkpt lat="22.365157668294266" lon="114.291414371760368">
    </trkpt>
    <trkpt lat="22.365148481327228" lon="114.291487046981686">
    </trkpt>
    <trkpt lat="22.365157593873636" lon="114.291519466895039">
    </trkpt>
    <trkpt lat="22.365169447178165" lon="114.2915518890577">
    </trkpt>
    <trkpt lat="22.365165418611767" lon="114.291591770354401">
    </trkpt>
    <trkpt lat="22.365149672006954" lon="114.291613838181448">
    </trkpt>
    <trkpt lat="22.365131305610518" lon="114.291633085297889">
    </trkpt>
    <trkpt lat="22.365124305955376" lon="114.291644354762639">
    </trkpt>
    <trkpt lat="22.365109626114847" lon="114.291666047951779">
    </trkpt>
    <trkpt lat="22.365077513855169" lon="114.291695525203295">
    </trkpt>
    <trkpt lat="22.365060449786633" lon="114.291726988407376">
    </trkpt>
    <trkpt lat="22.36504077903966" lon="114.291736838187177">
    </trkpt>
    <trkpt lat="22.365027222353365" lon="114.291751860900021">
    </trkpt>
    <trkpt lat="22.365013661329524" lon="114.291772990881626">
    </trkpt>
    <trkpt lat="22.365005751501659" lon="114.291791411315472">
    </trkpt>
    <trkpt lat="22.364961878750876" lon="114.291822805633089">
    </trkpt>
    <trkpt lat="22.364886054862197" lon="114.291821761056909">
    </trkpt>
    <trkpt lat="22.364815729018314" lon="114.291797148515357">
    </trkpt>
    <trkpt lat="22.364767317697915" lon="114.291787286810077">
    </trkpt>
    <trkpt lat="22.364692403285833" lon="114.291792136177293">
    </trkpt>
    <trkpt lat="22.364667731726119" lon="114.291799973491834">
    </trkpt>
    <trkpt lat="22.364620228488565" lon="114.291797970105222">
    </trkpt>
    <trkpt lat="22.364569038956873" lon="114.291841144668069">
    </trkpt>
    <trkpt lat="22.364523313490235" lon="114.291908878678669">
    </trkpt>
    <trkpt lat="22.364491340501534" lon="114.291906887775326">
    </trkpt>
    <trkpt lat="22.364456609517568" lon="114.291929449828345">
    </trkpt>
    <trkpt lat="22.364406347583881" lon="114.291952981176593">
    </trkpt>
    <trkpt lat="22.364381349383308" lon="114.29198487652512">
    </trkpt>
    <trkpt lat="22.364362206712041" lon="114.292016576914008">
    </trkpt>
    <trkpt lat="22.364325890844238" lon="114.292043276832899">
    </trkpt>
    <trkpt lat="22.364299886244527" lon="114.29207760877938">
    </trkpt>
    <trkpt lat="22.364263806517098" lon="114.292112231944628">
    </trkpt>
    <trkpt lat="22.364228090693761" lon="114.292113914253349">
    </trkpt>
    <trkpt lat="22.364187860074384" lon="114.292129202029116">
    </trkpt>
    <trkpt lat="22.364149494556241" lon="114.292157066012578">
    </trkpt>
    <trkpt lat="22.364123350409322" lon="114.292195518058676">
    </trkpt>
    <trkpt lat="22.364099840110644" lon="114.292223690861988">
    </trkpt>
    <trkpt lat="22.364095445272902" lon="114.292242558235785">
    </trkpt>
    <trkpt lat="22.364079914016752" lon="114.292249342256937">
    </trkpt>
    <trkpt lat="22.364047108984014" lon="114.292252254150952">
    </trkpt>
    <trkpt lat="22.364004139997153" lon="114.292297399288287">
    </trkpt>
    <trkpt lat="22.364025116516011" lon="114.292346526387789">
    </trkpt>
    <trkpt lat="22.364026603220719" lon="114.292366699611435">
    </trkpt>
    <trkpt lat="22.3640150486859" lon="114.29238690042628">
    </trkpt>
    <trkpt lat="22.36400129899603" lon="114.29243785039364">
    </trkpt>
    <trkpt lat="22.363979474325514" lon="114.292478495302063">
    </trkpt>
    <trkpt lat="22.36394120473328" lon="114.292519577113453">
    </trkpt>
    <trkpt lat="22.363931757073583" lon="114.292594943487572">
    </trkpt>
    <trkpt lat="22.363921686128236" lon="114.292625382948415">
    </trkpt>
    <trkpt lat="22.36388210499447" lon="114.292659901523919">
    </trkpt>
    <trkpt lat="22.363838510967327" lon="114.292684245578371">
    </trkpt>
    <trkpt lat="22.363783685273255" lon="114.292701879639324">
    </trkpt>
    <trkpt lat="22.363759924519055" lon="114.292713646254512">
    </trkpt>
    <trkpt lat="22.363725194124303" lon="114.292735225437298">
    </trkpt>
    <trkpt lat="22.363684989454899" lon="114.292746978432447">
    </trkpt>
    <trkpt lat="22.363660320182351" lon="114.292751869080249">
    </trkpt>
    <trkpt lat="22.363626491261208" lon="114.29279014630967">
    </trkpt>
    <trkpt lat="22.363606138738117" lon="114.292785362817796">
    </trkpt>
    <trkpt lat="22.363578986624187" lon="114.292790106978941">
    </trkpt>
    <trkpt lat="22.363555222345084" lon="114.292806784620282">
    </trkpt>
    <trkpt lat="22.363523201028194" lon="114.292872564561435">
    </trkpt>
    <trkpt lat="22.363497856733737" lon="114.292947964595754">
    </trkpt>
    <trkpt lat="22.363469422664988" lon="114.292985530411016">
    </trkpt>
    <trkpt lat="22.363429516009919" lon="114.293023673845454">
    </trkpt>
    <trkpt lat="22.363393218641754" lon="114.293045439226944">
    </trkpt>
    <trkpt lat="22.363370324748985" lon="114.293122030789476">
    </trkpt>
    <trkpt lat="22.36337002157634" lon="114.293127021206161">
    </trkpt>
    <trkpt lat="22.363360705401156" lon="114.293161345460959">
    </trkpt>
    <trkpt lat="22.363351365794106" lon="114.293176745883613">
    </trkpt>
    <trkpt lat="22.363340372747725" lon="114.293193329428206">
    </trkpt>
    <trkpt lat="22.363328829739807" lon="114.293209913484134">
    </trkpt>
    <trkpt lat="22.363318932364379" lon="114.293222352192799">
    </trkpt>
    <trkpt lat="22.363306274612654" lon="114.293230663253638">
    </trkpt>
    <trkpt lat="22.363290312539821" lon="114.293237786098516">
    </trkpt>
    <trkpt lat="22.363275847801244" lon="114.293247320201061">
    </trkpt>
    <trkpt lat="22.363265464959976" lon="114.293252010237723">
    </trkpt>
    <trkpt lat="22.363245788788316" lon="114.293265502486733">
    </trkpt>
    <trkpt lat="22.363217674247206" lon="114.293284661891988">
    </trkpt>
    <trkpt lat="22.363192230466943" lon="114.293295999280673">
    </trkpt>
    <trkpt lat="22.363165372915759" lon="114.293304882028991">
    </trkpt>
    <trkpt lat="22.363146612621637" lon="114.293322508379859">
    </trkpt>
    <trkpt lat="22.363133477784736" lon="114.293342799181374">
    </trkpt>
    <trkpt lat="22.363127435161722" lon="114.293357009076004">
    </trkpt>
    <trkpt lat="22.363124248025635" lon="114.293371799515242">
    </trkpt>
    <trkpt lat="22.363044124319917" lon="114.293381626536984">
    </trkpt>
    <trkpt lat="22.363005338597503" lon="114.293380419718929">
    </trkpt>
    <trkpt lat="22.362964904531974" lon="114.29339213247161">
    </trkpt>
    <trkpt lat="22.362953979144937" lon="114.293391536229436">
    </trkpt>
    <trkpt lat="22.362941481214595" lon="114.293387318203941">
    </trkpt>
    <trkpt lat="22.362903937478972" lon="114.29336438375077">
    </trkpt>
    <trkpt lat="22.362866550760547" lon="114.29335571919097">
    </trkpt>
    <trkpt lat="22.36282510046988" lon="114.293327997175709">
    </trkpt>
    <trkpt lat="22.362807362620071" lon="114.293332809231998">
    </trkpt>
    <trkpt lat="22.362785333291054" lon="114.293338170642585">
    </trkpt>
    <trkpt lat="22.36274314305976" lon="114.293347310996907">
    </trkpt>
    <trkpt lat="22.362700577248276" lon="114.293383298229841">
    </trkpt>
    <trkpt lat="22.362682883133928" lon="114.293391016928737">
    </trkpt>
    <trkpt lat="22.362652957397948" lon="114.293413457320625">
    </trkpt>
    <trkpt lat="22.362662781857935" lon="114.293425799505656">
    </trkpt>
    <trkpt lat="22.362656629787242" lon="114.293434604285537">
    </trkpt>
    <trkpt lat="22.362642283097539" lon="114.293443842785678">
    </trkpt>
    <trkpt lat="22.362618515455328" lon="114.293449109033929">
    </trkpt>
    <trkpt lat="22.362589426275438" lon="114.293448203727536">
    </trkpt>
    <trkpt lat="22.362551391818538" lon="114.293448665760124">
    </trkpt>
    <trkpt lat="22.362534886196695" lon="114.293458157071271">
    </trkpt>
    <trkpt lat="22.362512299942676" lon="114.293459391688728">
    </trkpt>
    <trkpt lat="22.362476740627994" lon="114.293466610772271">
    </trkpt>
    <trkpt lat="22.362427564438473" lon="114.29348066573813">
    </trkpt>
    <trkpt lat="22.362380037853899" lon="114.293479745314514">
    </trkpt>
    <trkpt lat="22.362339559564624" lon="114.293462579715296">
    </trkpt>
    <trkpt lat="22.362316475190074" lon="114.293452337722144">
    </trkpt>
    <trkpt lat="22.362287947678457" lon="114.293455234899724">
    </trkpt>
    <trkpt lat="22.362243637776249" lon="114.293429855537227">
    </trkpt>
    <trkpt lat="22.362202681902719" lon="114.293407796519674">
    </trkpt>
    <trkpt lat="22.362170731681864" lon="114.293397087935645">
    </trkpt>
    <trkpt lat="22.362152294990807" lon="114.293396081554974">
    </trkpt>
    <trkpt lat="22.362075884224826" lon="114.293434060143611">
    </trkpt>
    <trkpt lat="22.362057621047498" lon="114.293436638432198">
    </trkpt>
    <trkpt lat="22.362002304287486" lon="114.293443530364883">
    </trkpt>
    <trkpt lat="22.361946675991927" lon="114.293456038146431">
    </trkpt>
    <trkpt lat="22.361918381192542" lon="114.293489712475719">
    </trkpt>
    <trkpt lat="22.361891918049722" lon="114.293540237136838">
    </trkpt>
    <trkpt lat="22.361881711842095" lon="114.293580489725784">
    </trkpt>
    <trkpt lat="22.361876194311542" lon="114.293612245109188">
    </trkpt>
    <trkpt lat="22.361852180406618" lon="114.293675325860121">
    </trkpt>
    <trkpt lat="22.361825914067481" lon="114.293726481461647">
    </trkpt>
    <trkpt lat="22.361805503079523" lon="114.29377611739406">
    </trkpt>
    <trkpt lat="22.361808193538756" lon="114.293812629439216">
    </trkpt>
    <trkpt lat="22.361821748314345" lon="114.293852070996692">
    </trkpt>
    <trkpt lat="22.361819007424767" lon="114.293885657588405">
    </trkpt>
    <trkpt lat="22.36178624033133" lon="114.29392503154854">
    </trkpt>
    <trkpt lat="22.361749935582164" lon="114.293986780545197">
    </trkpt>
    <trkpt lat="22.361723809073272" lon="114.294043299355735">
    </trkpt>
    <trkpt lat="22.361719862442619" lon="114.294080176222735">
    </trkpt>
    <trkpt lat="22.36171113737241" lon="114.29409731238141">
    </trkpt>
    <trkpt lat="22.361697297350066" lon="114.294113902014004">
    </trkpt>
    <trkpt lat="22.361663587137144" lon="114.294148671873387">
    </trkpt>
    <trkpt lat="22.361647025078476" lon="114.294156229957025">
    </trkpt>
    <trkpt lat="22.361636881419297" lon="114.294160433657737">
    </trkpt>
    <trkpt lat="22.361619068491116" lon="114.294166315666587">
    </trkpt>
    <trkpt lat="22.361605528516321" lon="114.294173539622165">
    </trkpt>
    <trkpt lat="22.361588238244696" lon="114.294180958495446">
    </trkpt>
    <trkpt lat="22.361579245982352" lon="114.294186402009743">
    </trkpt>
    <trkpt lat="22.361553378976136" lon="114.294193175578172">
    </trkpt>
    <trkpt lat="22.361536930623753" lon="114.294198347305169">
    </trkpt>
    <trkpt lat="22.361527037971456" lon="114.294204164338893">
    </trkpt>
    <trkpt lat="22.361516826425699" lon="114.294215122922438">
    </trkpt>
    <trkpt lat="22.361504371044806" lon="114.294229468262088">
    </trkpt>
    <trkpt lat="22.361488196543274" lon="114.294244289614397">
    </trkpt>
    <trkpt lat="22.361470130219573" lon="114.294252157585547">
    </trkpt>
    <trkpt lat="22.361460458630852" lon="114.294255424764174">
    </trkpt>
    <trkpt lat="22.361450434486837" lon="114.29426448589804">
    </trkpt>
    <trkpt lat="22.36143249897825" lon="114.294277508167724">
    </trkpt>
    <trkpt lat="22.361420889660735" lon="114.294291669248821">
    </trkpt>
    <trkpt lat="22.361407698830099" lon="114.294305262489075">
    </trkpt>
    <trkpt lat="22.361391876696977" lon="114.294312051248326">
    </trkpt>
    <trkpt lat="22.361372368350853" lon="114.294313168638695">
    </trkpt>
    <trkpt lat="22.361353388170141" lon="114.294312585722309">
    </trkpt>
    <trkpt lat="22.361336519125853" lon="114.29430917056105">
    </trkpt>
    <trkpt lat="22.361315957658871" lon="114.294308019807403">
    </trkpt>
    <trkpt lat="22.361292235491025" lon="114.294303465148687">
    </trkpt>
    <trkpt lat="22.361281160505904" lon="114.294307423626734">
    </trkpt>
    <trkpt lat="22.361272192770006" lon="114.294314218128605">
    </trkpt>
    <trkpt lat="22.361260059542417" lon="114.294323277477076">
    </trkpt>
    <trkpt lat="22.361248984371073" lon="114.294327802949468">
    </trkpt>
    <trkpt lat="22.361240548090773" lon="114.294328362627184">
    </trkpt>
    <trkpt lat="22.361226841844029" lon="114.294326083870786">
    </trkpt>
    <trkpt lat="22.361211551391886" lon="114.294326637799216">
    </trkpt>
    <trkpt lat="22.361197837926209" lon="114.294333995312257">
    </trkpt>
    <trkpt lat="22.361190451249247" lon="114.294341357888769">
    </trkpt>
    <trkpt lat="22.36118823228507" lon="114.294353711506986">
    </trkpt>
    <trkpt lat="22.361174993061141" lon="114.294370206167187">
    </trkpt>
    <trkpt lat="22.36116748515995" lon="114.294375063999212">
    </trkpt>
    <trkpt lat="22.361138318693829" lon="114.294396962094723">
    </trkpt>
    <trkpt lat="22.36111223369064" lon="114.294416965174605">
    </trkpt>
    <trkpt lat="22.361097500839055" lon="114.294421607711229">
    </trkpt>
    <trkpt lat="22.361078014801336" lon="114.294431484661217">
    </trkpt>
    <trkpt lat="22.361059554209216" lon="114.294446915925292">
    </trkpt>
    <trkpt lat="22.361040382073014" lon="114.294459773745828">
    </trkpt>
    <trkpt lat="22.361030874351808" lon="114.294470231887871">
    </trkpt>
    <trkpt lat="22.361011418259963" lon="114.294488604082673">
    </trkpt>
    <trkpt lat="22.361003398274025" lon="114.294502228550556">
    </trkpt>
    <trkpt lat="22.360991799108422" lon="114.294507675171459">
    </trkpt>
    <trkpt lat="22.360973096260626" lon="114.294508513836675">
    </trkpt>
    <trkpt lat="22.360957400198131" lon="114.294509879304599">
    </trkpt>
    <trkpt lat="22.360939208272733" lon="114.294515970875906">
    </trkpt>
    <trkpt lat="22.360923428881737" lon="114.294520161542025">
    </trkpt>
    <trkpt lat="22.360917060855126" lon="114.29452222417234">
    </trkpt>
    <trkpt lat="22.3608932252716" lon="114.294527728468665">
    </trkpt>
    <trkpt lat="22.360875939954212" lon="114.29453545115129">
    </trkpt>
    <trkpt lat="22.360864658007856" lon="114.294532791890106">
    </trkpt>
    <trkpt lat="22.360849586035201" lon="114.294532804711338">
    </trkpt>
    <trkpt lat="22.360836940820601" lon="114.294536195815027">
    </trkpt>
    <trkpt lat="22.360825851387389" lon="114.294545113273713">
    </trkpt>
    <trkpt lat="22.360810023904978" lon="114.294559554466616">
    </trkpt>
    <trkpt lat="22.36079349755957" lon="114.294569819790624">
    </trkpt>
    <trkpt lat="22.360786621047865" lon="114.294575697555601">
    </trkpt>
    <trkpt lat="22.360779645927362" lon="114.294580575228736">
    </trkpt>
    <trkpt lat="22.360768410550207" lon="114.294584350767224">
    </trkpt>
    <trkpt lat="22.360752272334576" lon="114.294585863912516">
    </trkpt>
    <trkpt lat="22.360734481528112" lon="114.294581172462813">
    </trkpt>
    <trkpt lat="22.360719062339843" lon="114.294577758503408">
    </trkpt>
    <trkpt lat="22.360703643460706" lon="114.294573919298955">
    </trkpt>
    <trkpt lat="22.36068984553329" lon="114.294569188975146">
    </trkpt>
    <trkpt lat="22.360671001485976" lon="114.294565503205519">
    </trkpt>
    <trkpt lat="22.360655457217604" lon="114.294556820172659">
    </trkpt>
    <trkpt lat="22.360645597351898" lon="114.294542365176639">
    </trkpt>
    <trkpt lat="22.360634865057538" lon="114.294538576033091">
    </trkpt>
    <trkpt lat="22.360616285338363" lon="114.294530907938082">
    </trkpt>
    <trkpt lat="22.360600075300113" lon="114.294527493322647">
    </trkpt>
    <trkpt lat="22.360580700012751" lon="114.294526627037314">
    </trkpt>
    <trkpt lat="22.360558740291165" lon="114.294524994983334">
    </trkpt>
    <trkpt lat="22.360539973974618" lon="114.294522766579789">
    </trkpt>
    <trkpt lat="22.360516641044558" lon="114.29452657321454">
    </trkpt>
    <trkpt lat="22.360500599199373" lon="114.294535271442427">
    </trkpt>
    <trkpt lat="22.360477119648817" lon="114.294544183807957">
    </trkpt>
    <trkpt lat="22.360462382232708" lon="114.294542366558218">
    </trkpt>
    <trkpt lat="22.360437759625974" lon="114.29453732642007">
    </trkpt>
    <trkpt lat="22.360417703537578" lon="114.294536320241221">
    </trkpt>
    <trkpt lat="22.360404075740494" lon="114.29453730879591">
    </trkpt>
    <trkpt lat="22.360389174693228" lon="114.294540705517349">
    </trkpt>
    <trkpt lat="22.360375677194178" lon="114.294546617751777">
    </trkpt>
    <trkpt lat="22.360366976524762" lon="114.294553723828571">
    </trkpt>
    <trkpt lat="22.360349966256653" lon="114.294575629553137">
    </trkpt>
    <trkpt lat="22.360341380218092" lon="114.294583433056943">
    </trkpt>
    <trkpt lat="22.360332506137535" lon="114.294587777319052">
    </trkpt>
    <trkpt lat="22.360321693683115" lon="114.294590527224472">
    </trkpt>
    <trkpt lat="22.360281615509368" lon="114.294593291119014">
    </trkpt>
    <trkpt lat="22.360266692597083" lon="114.294596018392539">
    </trkpt>
    <trkpt lat="22.360238593997234" lon="114.294608553807933">
    </trkpt>
    <trkpt lat="22.360178394366454" lon="114.294647096555863">
    </trkpt>
    <trkpt lat="22.360163621814621" lon="114.294653852847816">
    </trkpt>
    <trkpt lat="22.360149617393667" lon="114.294658011716038">
    </trkpt>
    <trkpt lat="22.360130910131904" lon="114.294661189439481">
    </trkpt>
    <trkpt lat="22.360112060098963" lon="114.294659215081509">
    </trkpt>
    <trkpt lat="22.360100154421211" lon="114.294654623012136">
    </trkpt>
    <trkpt lat="22.3600719140981" lon="114.29463697978268">
    </trkpt>
    <trkpt lat="22.360064250784557" lon="114.294634808525061">
    </trkpt>
    <trkpt lat="22.360057462073989" lon="114.294635436070521">
    </trkpt>
    <trkpt lat="22.360035456736043" lon="114.294650265183506">
    </trkpt>
    <trkpt lat="22.360024889470683" lon="114.294652378874915">
    </trkpt>
    <trkpt lat="22.360008857513495" lon="114.294652442575412">
    </trkpt>
    <trkpt lat="22.359984412997612" lon="114.294646834864423">
    </trkpt>
    <trkpt lat="22.359975757233148" lon="114.294647138993142">
    </trkpt>
    <trkpt lat="22.359966692875727" lon="114.294653905173647">
    </trkpt>
    <trkpt lat="22.359947457089081" lon="114.294680986148606">
    </trkpt>
    <trkpt lat="22.359936244503078" lon="114.294688804161453">
    </trkpt>
    <trkpt lat="22.359922224248837" lon="114.294694553058378">
    </trkpt>
    <trkpt lat="22.359857299108693" lon="114.294706164472359">
    </trkpt>
    <trkpt lat="22.359843276173631" lon="114.294710633020102">
    </trkpt>
    <trkpt lat="22.359831833050659" lon="114.29471663310936">
    </trkpt>
    <trkpt lat="22.359821942907544" lon="114.294724557323121">
    </trkpt>
    <trkpt lat="22.359811993567444" lon="114.294735335859158">
    </trkpt>
    <trkpt lat="22.359773753326298" lon="114.294787387717619">
    </trkpt>
    <trkpt lat="22.359763947491462" lon="114.29479703117083">
    </trkpt>
    <trkpt lat="22.359754021915649" lon="114.294804003645197">
    </trkpt>
    <trkpt lat="22.359738192361547" lon="114.294809170659065">
    </trkpt>
    <trkpt lat="22.359693590193267" lon="114.294814606642788">
    </trkpt>
    <trkpt lat="22.359684025182602" lon="114.294819070676837">
    </trkpt>
    <trkpt lat="22.359678304527232" lon="114.294825936250561">
    </trkpt>
    <trkpt lat="22.359676879471177" lon="114.294834042093328">
    </trkpt>
    <trkpt lat="22.359678186929543" lon="114.294858116751172">
    </trkpt>
    <trkpt lat="22.359676890216246" lon="114.294863283379797">
    </trkpt>
    <trkpt lat="22.359674182908105" lon="114.294866626003284">
    </trkpt>
    <trkpt lat="22.359662926756407" lon="114.29487101579258">
    </trkpt>
    <trkpt lat="22.359660459960317" lon="114.294874256676479">
    </trkpt>
    <trkpt lat="22.359659604769089" lon="114.294879210569476">
    </trkpt>
    <trkpt lat="22.359663428836512" lon="114.294903861860732">
    </trkpt>
    <trkpt lat="22.359662384703533" lon="114.294912808557214">
    </trkpt>
    <trkpt lat="22.35965465017474" lon="114.294921613448537">
    </trkpt>
    <trkpt lat="22.359633173216057" lon="114.294933802142339">
    </trkpt>
    <trkpt lat="22.359625537416505" lon="114.294939723132885">
    </trkpt>
    <trkpt lat="22.359612731901588" lon="114.294954252871207">
    </trkpt>
    <trkpt lat="22.359604034226521" lon="114.29496775039155">
    </trkpt>
    <trkpt lat="22.359597291496858" lon="114.294984258053987">
    </trkpt>
    <trkpt lat="22.359593267355013" lon="114.295002385726448">
    </trkpt>
    <trkpt lat="22.3595808765354" lon="114.295016023815421">
    </trkpt>
    <trkpt lat="22.359554369143176" lon="114.295035897318883">
    </trkpt>
    <trkpt lat="22.359507281207524" lon="114.295077650761002">
    </trkpt>
    <trkpt lat="22.359465955555766" lon="114.295120764379149">
    </trkpt>
    <trkpt lat="22.359455251171301" lon="114.295129468680557">
    </trkpt>
    <trkpt lat="22.359444324498529" lon="114.29513588808679">
    </trkpt>
    <trkpt lat="22.359411578777848" lon="114.295149608229281">
    </trkpt>
    <trkpt lat="22.359403963256383" lon="114.295156809553816">
    </trkpt>
    <trkpt lat="22.359389253096129" lon="114.295176398554943">
    </trkpt>
    <trkpt lat="22.359381887789336" lon="114.295182577517068">
    </trkpt>
    <trkpt lat="22.359374555362763" lon="114.295185469861266">
    </trkpt>
    <trkpt lat="22.359365587806597" lon="114.29518671543812">
    </trkpt>
    <trkpt lat="22.359323575188146" lon="114.295185277761277">
    </trkpt>
    <trkpt lat="22.359299868059018" lon="114.295191061360285">
    </trkpt>
    <trkpt lat="22.359237111153114" lon="114.295214350023443">
    </trkpt>
    <trkpt lat="22.359194645384704" lon="114.295230261420656">
    </trkpt>
    <trkpt lat="22.359175199878894" lon="114.295235887929678">
    </trkpt>
    <trkpt lat="22.359165948741314" lon="114.295244881538594">
    </trkpt>
    <trkpt lat="22.35915363753556" lon="114.295270021779316">
    </trkpt>
    <trkpt lat="22.359139432325975" lon="114.295287543691728">
    </trkpt>
    <trkpt lat="22.35909687868449" lon="114.29532696266314">
    </trkpt>
    <trkpt lat="22.359071658057022" lon="114.295358929800386">
    </trkpt>
    <trkpt lat="22.359048681246172" lon="114.295393109495933">
    </trkpt>
    <trkpt lat="22.359045060232955" lon="114.295397725587605">
    </trkpt>
    <trkpt lat="22.359028538471154" lon="114.29540443002314">
    </trkpt>
    <trkpt lat="22.35901073271582" lon="114.295401065451827">
    </trkpt>
    <trkpt lat="22.359000040251672" lon="114.295389153540725">
    </trkpt>
    <trkpt lat="22.358987655444988" lon="114.295382201342491">
    </trkpt>
    <trkpt lat="22.358966912392201" lon="114.295382076993079">
    </trkpt>
    <trkpt lat="22.358955731833536" lon="114.295383106361669">
    </trkpt>
    <trkpt lat="22.35893980831937" lon="114.295386762771798">
    </trkpt>
    <trkpt lat="22.358923031610459" lon="114.295383991305869">
    </trkpt>
    <trkpt lat="22.358909476331331" lon="114.295372261446204">
    </trkpt>
    <trkpt lat="22.358897171469472" lon="114.295367124846464">
    </trkpt>
    <trkpt lat="22.358894053706972" lon="114.295357830993439">
    </trkpt>
    <trkpt lat="22.358888864434558" lon="114.295353341188999">
    </trkpt>
    <trkpt lat="22.358877918058617" lon="114.29535520570461">
    </trkpt>
    <trkpt lat="22.358865499672092" lon="114.295344777777288">
    </trkpt>
    <trkpt lat="22.358862510331601" lon="114.295345095635028">
    </trkpt>
    <trkpt lat="22.358842176450718" lon="114.29535348615417">
    </trkpt>
    <trkpt lat="22.358822687958519" lon="114.29536632396325">
    </trkpt>
    <trkpt lat="22.358805005617977" lon="114.295379716692082">
    </trkpt>
    <trkpt lat="22.35879747958116" lon="114.295384632625073">
    </trkpt>
    <trkpt lat="22.358776469803509" lon="114.295403449685324">
    </trkpt>
    <trkpt lat="22.358763957398029" lon="114.295410429344187">
    </trkpt>
    <trkpt lat="22.358755534308624" lon="114.295419480411994">
    </trkpt>
    <trkpt lat="22.358738754350892" lon="114.295432241856744">
    </trkpt>
    <trkpt lat="22.358711128329983" lon="114.295439367209426">
    </trkpt>
    <trkpt lat="22.358689003143446" lon="114.295443262286554">
    </trkpt>
    <trkpt lat="22.358670229230817" lon="114.295443710465747">
    </trkpt>
    <trkpt lat="22.358638374910953" lon="114.29544032283907">
    </trkpt>
    <trkpt lat="22.358587809755239" lon="114.295444658637095">
    </trkpt>
    <trkpt lat="22.358562897440461" lon="114.295440647282803">
    </trkpt>
    <trkpt lat="22.358532919018366" lon="114.295436602514897">
    </trkpt>
    <trkpt lat="22.358511451395589" lon="114.295439380434658">
    </trkpt>
    <trkpt lat="22.358497558675211" lon="114.295444504554283">
    </trkpt>
    <trkpt lat="22.358475676217907" lon="114.295434175430529">
    </trkpt>
    <trkpt lat="22.358452607112369" lon="114.295428825847011">
    </trkpt>
    <trkpt lat="22.358429787078556" lon="114.295428641481337">
    </trkpt>
    <trkpt lat="22.358397817088971" lon="114.295431216336198">
    </trkpt>
    <trkpt lat="22.358382190293554" lon="114.295424300254609">
    </trkpt>
    <trkpt lat="22.358382316614339" lon="114.29542444599133">
    </trkpt>
    <trkpt lat="22.358373465882163" lon="114.29542554528534">
    </trkpt>
    <trkpt lat="22.358358738449372" lon="114.295423668756996">
    </trkpt>
    <trkpt lat="22.358349296814445" lon="114.295417787030729">
    </trkpt>
    <trkpt lat="22.358343258124464" lon="114.295401714102738">
    </trkpt>
    <trkpt lat="22.358330815045008" lon="114.295388012919275">
    </trkpt>
    <trkpt lat="22.358305211237692" lon="114.295383969929816">
    </trkpt>
    <trkpt lat="22.35828708673915" lon="114.295381480100957">
    </trkpt>
    <trkpt lat="22.358271556727029" lon="114.295372496656285">
    </trkpt>
    <trkpt lat="22.358252001362509" lon="114.295359797950496">
    </trkpt>
    <trkpt lat="22.358240504601209" lon="114.295347129366306">
    </trkpt>
    <trkpt lat="22.358227490273187" lon="114.295336289579595">
    </trkpt>
    <trkpt lat="22.358213208372813" lon="114.295327486081177">
    </trkpt>
    <trkpt lat="22.358197931950649" lon="114.295320887789245">
    </trkpt>
    <trkpt lat="22.358178052423899" lon="114.295311839271449">
    </trkpt>
    <trkpt lat="22.358157037507244" lon="114.295306527621534">
    </trkpt>
    <trkpt lat="22.358135490103709" lon="114.295305105287952">
    </trkpt>
    <trkpt lat="22.358114028549405" lon="114.295307613325392">
    </trkpt>
    <trkpt lat="22.358093268779822" lon="114.295313979438205">
    </trkpt>
    <trkpt lat="22.35799172804942" lon="114.295374135830073">
    </trkpt>
    <trkpt lat="22.357824883523381" lon="114.295473891200714">
    </trkpt>
    <trkpt lat="22.357669600703069" lon="114.295637705733697">
    </trkpt>
    <trkpt lat="22.357672708631078" lon="114.295724661537875">
    </trkpt>
    <trkpt lat="22.357657818630827" lon="114.295720967399433">
    </trkpt>
    <trkpt lat="22.357641995985173" lon="114.295758185974222">
    </trkpt>
    <trkpt lat="22.357620467677606" lon="114.295791933482661">
    </trkpt>
    <trkpt lat="22.357593872227564" lon="114.295821209022662">
    </trkpt>
    <trkpt lat="22.35758557773206" lon="114.295826972525731">
    </trkpt>
    <trkpt lat="22.357578180389073" lon="114.29583400740286">
    </trkpt>
    <trkpt lat="22.35757184692898" lon="114.295842154331851">
    </trkpt>
    <trkpt lat="22.357566720620756" lon="114.295851229456588">
    </trkpt>
    <trkpt lat="22.357562916979926" lon="114.295861028023964">
    </trkpt>
    <trkpt lat="22.357560521959133" lon="114.295871328751218">
    </trkpt>
    <trkpt lat="22.357559589460887" lon="114.295881899163589">
    </trkpt>
    <trkpt lat="22.357544681586329" lon="114.295916949086063">
    </trkpt>
    <trkpt lat="22.357510987707801" lon="114.296056900875271">
    </trkpt>
    <trkpt lat="22.357484816127425" lon="114.296138061838732">
    </trkpt>
    <trkpt lat="22.357453648078092" lon="114.296217156652432">
    </trkpt>
    <trkpt lat="22.35741762312114" lon="114.296293829851365">
    </trkpt>
    <trkpt lat="22.35741067352993" lon="114.296304424001903">
    </trkpt>
    <trkpt lat="22.357402354671905" lon="114.296313808750199">
    </trkpt>
    <trkpt lat="22.35739284663007" lon="114.296321781825867">
    </trkpt>
    <trkpt lat="22.357382354299435" lon="114.296328170590911">
    </trkpt>
    <trkpt lat="22.35737110444817" lon="114.296332837619858">
    </trkpt>
    <trkpt lat="22.357339676677579" lon="114.296340676704958">
    </trkpt>
    <trkpt lat="22.35730962546927" lon="114.296353297464989">
    </trkpt>
    <trkpt lat="22.357281577058416" lon="114.296370436843659">
    </trkpt>
    <trkpt lat="22.357273829438835" lon="114.296382491439857">
    </trkpt>
    <trkpt lat="22.357267853464922" lon="114.296395659906679">
    </trkpt>
    <trkpt lat="22.357263784137569" lon="114.296409643821065">
    </trkpt>
    <trkpt lat="22.357261714028049" lon="114.296424126034779">
    </trkpt>
    <trkpt lat="22.357251783539905" lon="114.296449265678447">
    </trkpt>
    <trkpt lat="22.357240661432929" lon="114.296477814194731">
    </trkpt>
    <trkpt lat="22.357232327948157" lon="114.296488037001467">
    </trkpt>
    <trkpt lat="22.357202008837856" lon="114.296504505968997">
    </trkpt>
    <trkpt lat="22.357146801108758" lon="114.296523724249383">
    </trkpt>
    <trkpt lat="22.357110242672576" lon="114.296526004868696">
    </trkpt>
    <trkpt lat="22.357074407644284" lon="114.296519038699472">
    </trkpt>
    <trkpt lat="22.357034270341146" lon="114.296514380709397">
    </trkpt>
    <trkpt lat="22.356994855531404" lon="114.296502017172358">
    </trkpt>
    <trkpt lat="22.356959733313772" lon="114.296500445939401">
    </trkpt>
    <trkpt lat="22.356943254349272" lon="114.296490413850719">
    </trkpt>
    <trkpt lat="22.356898810558601" lon="114.296493458357077">
    </trkpt>
    <trkpt lat="22.356865841583449" lon="114.296488035886625">
    </trkpt>
    <trkpt lat="22.35684864354177" lon="114.296481085655628">
    </trkpt>
    <trkpt lat="22.356828577166603" lon="114.296475674208466">
    </trkpt>
    <trkpt lat="22.356814955146231" lon="114.296479515654227">
    </trkpt>
    <trkpt lat="22.356794925202891" lon="114.296424784599452">
    </trkpt>
    <trkpt lat="22.356803847646795" lon="114.296378555277471">
    </trkpt>
    <trkpt lat="22.356753096075074" lon="114.296186885296294">
    </trkpt>
    <trkpt lat="22.356971115696233" lon="114.296034488463775">
    </trkpt>
    <trkpt lat="22.357022046621957" lon="114.295982900468402">
    </trkpt>
    <trkpt lat="22.357111735651433" lon="114.295861989580175">
    </trkpt>
    <trkpt lat="22.357167016900419" lon="114.295742590569191">
    </trkpt>
    <trkpt lat="22.35717572141527" lon="114.295602345293673">
    </trkpt>
    <trkpt lat="22.357199431708363" lon="114.29552607398621">
    </trkpt>
  </trkseg>
</trk>
</gpx>
