<?xml version="1.0" encoding="UTF-8"?>
<gpx xmlns:xsi="http://www.w3.org/2001/XMLSchema-instance"
     xsi:schemaLocation="http://www.topografix.com/GPX/1/1 http://www.topografix.com/GPX/1/1/gpx.xsd"
     version="1.1" creator="json3d_batch_to_gpx"
     xmlns="http://www.topografix.com/GPX/1/1">
  <metadata>
    <name>TaiTamFamilyWalk</name>
  </metadata>
  <trk>
    <name>TaiTamFamilyWalk</name>
    <type>hike</type>
    <trkseg>
      <trkpt lat="22.2588438660" lon="114.2015904807"><ele>242.000</ele></trkpt>
      <trkpt lat="22.2587775533" lon="114.2015704320"><ele>246.000</ele></trkpt>
      <trkpt lat="22.2587174562" lon="114.2015637427"><ele>244.000</ele></trkpt>
      <trkpt lat="22.2587008720" lon="114.2015949087"><ele>244.000</ele></trkpt>
      <trkpt lat="22.2587278095" lon="114.2016194036"><ele>243.000</ele></trkpt>
      <trkpt lat="22.2587153668" lon="114.2016683819"><ele>242.000</ele></trkpt>
      <trkpt lat="22.2586328854" lon="114.2016202601"><ele>243.000</ele></trkpt>
      <trkpt lat="22.2585996918" lon="114.2016352328"><ele>244.000</ele></trkpt>
      <trkpt lat="22.2585744631" lon="114.2016746806"><ele>246.000</ele></trkpt>
      <trkpt lat="22.2585576618" lon="114.2017086979"><ele>248.000</ele></trkpt>
      <trkpt lat="22.2585394634" lon="114.2017427149"><ele>248.000</ele></trkpt>
      <trkpt lat="22.2585148910" lon="114.2017717586"><ele>250.000</ele></trkpt>
      <trkpt lat="22.2584715994" lon="114.2018097275"><ele>252.000</ele></trkpt>
      <trkpt lat="22.2584454717" lon="114.2018344526"><ele>252.000</ele></trkpt>
      <trkpt lat="22.2584102433" lon="114.2018685791"><ele>254.000</ele></trkpt>
      <trkpt lat="22.2583809338" lon="114.2019065495"><ele>254.000</ele></trkpt>
      <trkpt lat="22.2583571417" lon="114.2019473624"><ele>254.000</ele></trkpt>
      <trkpt lat="22.2583428538" lon="114.2019676851"><ele>254.000</ele></trkpt>
      <trkpt lat="22.2583097637" lon="114.2019964061"><ele>254.000</ele></trkpt>
      <trkpt lat="22.2582747960" lon="114.2020147788"><ele>256.000</ele></trkpt>
      <trkpt lat="22.2582367489" lon="114.2020321662"><ele>258.000</ele></trkpt>
      <trkpt lat="22.2581818284" lon="114.2020588304"><ele>258.000</ele></trkpt>
      <trkpt lat="22.2581470261" lon="114.2020935632"><ele>260.000</ele></trkpt>
      <trkpt lat="22.2581006715" lon="114.2021292912"><ele>260.000</ele></trkpt>
      <trkpt lat="22.2580537202" lon="114.2021529734"><ele>262.000</ele></trkpt>
      <trkpt lat="22.2580224702" lon="114.2021658624"><ele>262.000</ele></trkpt>
      <trkpt lat="22.2579762539" lon="114.2021785992"><ele>264.000</ele></trkpt>
      <trkpt lat="22.2579448448" lon="114.2021928493"><ele>264.000</ele></trkpt>
      <trkpt lat="22.2579219519" lon="114.2022055243"><ele>267.000</ele></trkpt>
      <trkpt lat="22.2578786750" lon="114.2022294837"><ele>268.000</ele></trkpt>
      <trkpt lat="22.2578371005" lon="114.2022473380"><ele>269.000</ele></trkpt>
      <trkpt lat="22.2578032693" lon="114.2022562526"><ele>269.000</ele></trkpt>
      <trkpt lat="22.2577561689" lon="114.2022626104"><ele>270.000</ele></trkpt>
      <trkpt lat="22.2577079982" lon="114.2022754205"><ele>270.000</ele></trkpt>
      <trkpt lat="22.2576758613" lon="114.2022896588"><ele>270.000</ele></trkpt>
      <trkpt lat="22.2576455868" lon="114.2023018086"><ele>270.000</ele></trkpt>
      <trkpt lat="22.2576179711" lon="114.2023130187"><ele>270.000</ele></trkpt>
      <trkpt lat="22.2575924748" lon="114.2023188875"><ele>270.000</ele></trkpt>
      <trkpt lat="22.2575611281" lon="114.2023273039"><ele>270.000</ele></trkpt>
      <trkpt lat="22.2575264596" lon="114.2023258618"><ele>270.000</ele></trkpt>
      <trkpt lat="22.2574972451" lon="114.2023279812"><ele>270.000</ele></trkpt>
      <trkpt lat="22.2574524712" lon="114.2023155782"><ele>270.000</ele></trkpt>
      <trkpt lat="22.2574108703" lon="114.2023056516"><ele>270.000</ele></trkpt>
      <trkpt lat="22.2573563206" lon="114.2023340677"><ele>270.000</ele></trkpt>
      <trkpt lat="22.2573278176" lon="114.2023481979"><ele>268.000</ele></trkpt>
      <trkpt lat="22.2572660521" lon="114.2023786888"><ele>269.000</ele></trkpt>
      <trkpt lat="22.2572247617" lon="114.2023925838"><ele>270.000</ele></trkpt>
      <trkpt lat="22.2572085238" lon="114.2024091513"><ele>270.000</ele></trkpt>
      <trkpt lat="22.2571639457" lon="114.2024153523"><ele>270.000</ele></trkpt>
      <trkpt lat="22.2571238543" lon="114.2024425388"><ele>270.000</ele></trkpt>
      <trkpt lat="22.2571052683" lon="114.2024593988"><ele>270.000</ele></trkpt>
      <trkpt lat="22.2570896489" lon="114.2024822803"><ele>270.000</ele></trkpt>
      <trkpt lat="22.2570695397" lon="114.2025262640"><ele>270.000</ele></trkpt>
      <trkpt lat="22.2570545623" lon="114.2025550752"><ele>270.000</ele></trkpt>
      <trkpt lat="22.2570240071" lon="114.2025831656"><ele>270.000</ele></trkpt>
      <trkpt lat="22.2569858482" lon="114.2025994914"><ele>270.000</ele></trkpt>
      <trkpt lat="22.2569511619" lon="114.2026074840"><ele>270.000</ele></trkpt>
      <trkpt lat="22.2568849551" lon="114.2026154195"><ele>270.000</ele></trkpt>
      <trkpt lat="22.2568373089" lon="114.2026180195"><ele>270.000</ele></trkpt>
      <trkpt lat="22.2568166384" lon="114.2026191470"><ele>270.000</ele></trkpt>
      <trkpt lat="22.2567951371" lon="114.2026203198"><ele>270.000</ele></trkpt>
      <trkpt lat="22.2567562309" lon="114.2026395443"><ele>270.000</ele></trkpt>
      <trkpt lat="22.2567196710" lon="114.2026576088"><ele>270.000</ele></trkpt>
      <trkpt lat="22.2566498226" lon="114.2026958767"><ele>270.000</ele></trkpt>
      <trkpt lat="22.2565846417" lon="114.2027315881"><ele>268.000</ele></trkpt>
      <trkpt lat="22.2565121836" lon="114.2027694228"><ele>270.000</ele></trkpt>
      <trkpt lat="22.2564683884" lon="114.2028038215"><ele>270.000</ele></trkpt>
      <trkpt lat="22.2564167795" lon="114.2028516778"><ele>270.000</ele></trkpt>
      <trkpt lat="22.2563677248" lon="114.2028981240"><ele>270.000</ele></trkpt>
      <trkpt lat="22.2563094151" lon="114.2029515895"><ele>270.000</ele></trkpt>
      <trkpt lat="22.2562907611" lon="114.2029922493"><ele>271.000</ele></trkpt>
      <trkpt lat="22.2562723366" lon="114.2030324096"><ele>270.000</ele></trkpt>
      <trkpt lat="22.2562490273" lon="114.2030843157"><ele>270.000</ele></trkpt>
      <trkpt lat="22.2562245236" lon="114.2031396006"><ele>270.000</ele></trkpt>
      <trkpt lat="22.2561924414" lon="114.2031780197"><ele>271.000</ele></trkpt>
      <trkpt lat="22.2561420446" lon="114.2032353050"><ele>272.000</ele></trkpt>
      <trkpt lat="22.2560951232" lon="114.2032791824"><ele>272.000</ele></trkpt>
      <trkpt lat="22.2560684561" lon="114.2033041202"><ele>274.000</ele></trkpt>
      <trkpt lat="22.2560400654" lon="114.2033488877"><ele>272.000</ele></trkpt>
      <trkpt lat="22.2560391158" lon="114.2033790983"><ele>272.000</ele></trkpt>
      <trkpt lat="22.2560465069" lon="114.2034047953"><ele>274.000</ele></trkpt>
      <trkpt lat="22.2560768964" lon="114.2034351904"><ele>274.000</ele></trkpt>
      <trkpt lat="22.2560878360" lon="114.2034360345"><ele>274.000</ele></trkpt>
      <trkpt lat="22.2561246050" lon="114.2034262050"><ele>274.000</ele></trkpt>
      <trkpt lat="22.2561552043" lon="114.2034168536"><ele>274.000</ele></trkpt>
      <trkpt lat="22.2561916554" lon="114.2034075702"><ele>275.000</ele></trkpt>
      <trkpt lat="22.2562564127" lon="114.2033948549"><ele>272.000</ele></trkpt>
      <trkpt lat="22.2563070012" lon="114.2033914155"><ele>272.000</ele></trkpt>
      <trkpt lat="22.2563466957" lon="114.2033900832"><ele>272.000</ele></trkpt>
      <trkpt lat="22.2564007408" lon="114.2033948744"><ele>272.000</ele></trkpt>
      <trkpt lat="22.2564411855" lon="114.2034003004"><ele>271.000</ele></trkpt>
      <trkpt lat="22.2565146186" lon="114.2034153071"><ele>272.000</ele></trkpt>
      <trkpt lat="22.2566034707" lon="114.2034357992"><ele>271.000</ele></trkpt>
      <trkpt lat="22.2566753465" lon="114.2034531137"><ele>274.000</ele></trkpt>
      <trkpt lat="22.2567235995" lon="114.2034620619"><ele>272.000</ele></trkpt>
      <trkpt lat="22.2567695782" lon="114.2034678325"><ele>272.000</ele></trkpt>
      <trkpt lat="22.2568171850" lon="114.2034681946"><ele>272.000</ele></trkpt>
      <trkpt lat="22.2568363908" lon="114.2034665257"><ele>272.000</ele></trkpt>
      <trkpt lat="22.2568762611" lon="114.2034616630"><ele>270.000</ele></trkpt>
      <trkpt lat="22.2569171482" lon="114.2034627689"><ele>268.000</ele></trkpt>
      <trkpt lat="22.2569502880" lon="114.2034793961"><ele>268.000</ele></trkpt>
      <trkpt lat="22.2569677265" lon="114.2034993858"><ele>268.000</ele></trkpt>
      <trkpt lat="22.2569727678" lon="114.2035192179"><ele>268.000</ele></trkpt>
      <trkpt lat="22.2569724695" lon="114.2035427094"><ele>268.000</ele></trkpt>
      <trkpt lat="22.2569694682" lon="114.2035675024"><ele>268.000</ele></trkpt>
      <trkpt lat="22.2569576978" lon="114.2036043626"><ele>268.000</ele></trkpt>
      <trkpt lat="22.2569285581" lon="114.2036515071"><ele>270.000</ele></trkpt>
      <trkpt lat="22.2568690664" lon="114.2037300064"><ele>271.000</ele></trkpt>
      <trkpt lat="22.2568335725" lon="114.2037669843"><ele>272.000</ele></trkpt>
      <trkpt lat="22.2568121500" lon="114.2037939595"><ele>271.000</ele></trkpt>
      <trkpt lat="22.2567869543" lon="114.2038276824"><ele>272.000</ele></trkpt>
      <trkpt lat="22.2567412655" lon="114.2038650987"><ele>274.000</ele></trkpt>
      <trkpt lat="22.2567260693" lon="114.2038777021"><ele>274.000</ele></trkpt>
      <trkpt lat="22.2567015192" lon="114.2039065287"><ele>276.000</ele></trkpt>
      <trkpt lat="22.2566828970" lon="114.2039449194"><ele>276.000</ele></trkpt>
      <trkpt lat="22.2566767009" lon="114.2039619746"><ele>276.000</ele></trkpt>
      <trkpt lat="22.2566778207" lon="114.2039891356"><ele>277.000</ele></trkpt>
      <trkpt lat="22.2566944424" lon="114.2040063291"><ele>277.000</ele></trkpt>
      <trkpt lat="22.2567212292" lon="114.2040060122"><ele>276.000</ele></trkpt>
      <trkpt lat="22.2567738729" lon="114.2040038201"><ele>275.000</ele></trkpt>
      <trkpt lat="22.2568441236" lon="114.2040126602"><ele>274.000</ele></trkpt>
      <trkpt lat="22.2568761638" lon="114.2040217122"><ele>272.000</ele></trkpt>
      <trkpt lat="22.2569136254" lon="114.2040401021"><ele>273.000</ele></trkpt>
      <trkpt lat="22.2569486349" lon="114.2040646589"><ele>270.000</ele></trkpt>
      <trkpt lat="22.2569697665" lon="114.2040818321"><ele>270.000</ele></trkpt>
      <trkpt lat="22.2569994826" lon="114.2041152697"><ele>270.000</ele></trkpt>
      <trkpt lat="22.2570283577" lon="114.2041609362"><ele>268.000</ele></trkpt>
      <trkpt lat="22.2570400584" lon="114.2042003457"><ele>270.000</ele></trkpt>
      <trkpt lat="22.2570447875" lon="114.2042451042"><ele>270.000</ele></trkpt>
      <trkpt lat="22.2570467381" lon="114.2043091201"><ele>270.000</ele></trkpt>
      <trkpt lat="22.2570455323" lon="114.2043634986"><ele>270.000</ele></trkpt>
      <trkpt lat="22.2570416804" lon="114.2044133392"><ele>270.000</ele></trkpt>
      <trkpt lat="22.2570461837" lon="114.2044363486"><ele>272.000</ele></trkpt>
      <trkpt lat="22.2570671452" lon="114.2044498545"><ele>272.000</ele></trkpt>
      <trkpt lat="22.2571026590" lon="114.2044617644"><ele>270.000</ele></trkpt>
      <trkpt lat="22.2571288134" lon="114.2044682280"><ele>270.000</ele></trkpt>
      <trkpt lat="22.2571654533" lon="114.2044694430"><ele>272.000</ele></trkpt>
      <trkpt lat="22.2572154286" lon="114.2044661960"><ele>272.000</ele></trkpt>
      <trkpt lat="22.2572682709" lon="114.2044591755"><ele>272.000</ele></trkpt>
      <trkpt lat="22.2572987898" lon="114.2044553513"><ele>272.000</ele></trkpt>
      <trkpt lat="22.2573438581" lon="114.2044401392"><ele>272.000</ele></trkpt>
      <trkpt lat="22.2573918472" lon="114.2044288422"><ele>272.000</ele></trkpt>
      <trkpt lat="22.2574250040" lon="114.2044188026"><ele>270.000</ele></trkpt>
      <trkpt lat="22.2574502792" lon="114.2044071122"><ele>271.000</ele></trkpt>
      <trkpt lat="22.2575309201" lon="114.2043662829"><ele>272.000</ele></trkpt>
      <trkpt lat="22.2575769230" lon="114.2043404737"><ele>272.000</ele></trkpt>
      <trkpt lat="22.2576192396" lon="114.2043253124"><ele>272.000</ele></trkpt>
      <trkpt lat="22.2576514122" lon="114.2043204678"><ele>272.000</ele></trkpt>
      <trkpt lat="22.2576797897" lon="114.2043232995"><ele>272.000</ele></trkpt>
      <trkpt lat="22.2576879686" lon="114.2043348209"><ele>272.000</ele></trkpt>
      <trkpt lat="22.2576896851" lon="114.2043625730"><ele>272.000</ele></trkpt>
      <trkpt lat="22.2576851029" lon="114.2043841700"><ele>272.000</ele></trkpt>
      <trkpt lat="22.2576692900" lon="114.2044284465"><ele>272.000</ele></trkpt>
      <trkpt lat="22.2576594665" lon="114.2044599935"><ele>272.000</ele></trkpt>
      <trkpt lat="22.2576526836" lon="114.2044914966"><ele>272.000</ele></trkpt>
      <trkpt lat="22.2576498929" lon="114.2045354108"><ele>273.000</ele></trkpt>
      <trkpt lat="22.2576504976" lon="114.2045796109"><ele>273.000</ele></trkpt>
      <trkpt lat="22.2576525646" lon="114.2046118336"><ele>273.000</ele></trkpt>
      <trkpt lat="22.2576558084" lon="114.2046434812"><ele>273.000</ele></trkpt>
      <trkpt lat="22.2576679790" lon="114.2046754565"><ele>272.000</ele></trkpt>
      <trkpt lat="22.2576858162" lon="114.2047030343"><ele>272.000</ele></trkpt>
      <trkpt lat="22.2576997199" lon="114.2047286020"><ele>272.000</ele></trkpt>
      <trkpt lat="22.2577176041" lon="114.2047607512"><ele>270.000</ele></trkpt>
      <trkpt lat="22.2577355569" lon="114.2047878584"><ele>270.000</ele></trkpt>
      <trkpt lat="22.2577527976" lon="114.2048180642"><ele>270.000</ele></trkpt>
      <trkpt lat="22.2577680975" lon="114.2048429551"><ele>270.000</ele></trkpt>
      <trkpt lat="22.2577634933" lon="114.2048665536"><ele>269.000</ele></trkpt>
      <trkpt lat="22.2577768666" lon="114.2048779790"><ele>269.000</ele></trkpt>
      <trkpt lat="22.2577866398" lon="114.2048767334"><ele>269.000</ele></trkpt>
      <trkpt lat="22.2578167391" lon="114.2048758449"><ele>269.000</ele></trkpt>
      <trkpt lat="22.2578268943" lon="114.2048854176"><ele>269.000</ele></trkpt>
      <trkpt lat="22.2578333778" lon="114.2049040064"><ele>269.000</ele></trkpt>
      <trkpt lat="22.2578469569" lon="114.2049367660"><ele>268.000</ele></trkpt>
      <trkpt lat="22.2578584357" lon="114.2049638516"><ele>266.000</ele></trkpt>
      <trkpt lat="22.2578701887" lon="114.2049658254"><ele>266.000</ele></trkpt>
      <trkpt lat="22.2578942060" lon="114.2049641838"><ele>266.000</ele></trkpt>
      <trkpt lat="22.2579337199" lon="114.2049581107"><ele>266.000</ele></trkpt>
      <trkpt lat="22.2579699783" lon="114.2049561882"><ele>266.000</ele></trkpt>
      <trkpt lat="22.2580347999" lon="114.2049588226"><ele>264.000</ele></trkpt>
      <trkpt lat="22.2580995505" lon="114.2049651426"><ele>264.000</ele></trkpt>
      <trkpt lat="22.2581613603" lon="114.2049682188"><ele>264.000</ele></trkpt>
      <trkpt lat="22.2582690642" lon="114.2049803171"><ele>264.000</ele></trkpt>
      <trkpt lat="22.2583977594" lon="114.2049588971"><ele>264.000</ele></trkpt>
      <trkpt lat="22.2584930891" lon="114.2049522364"><ele>260.000</ele></trkpt>
      <trkpt lat="22.2585946360" lon="114.2049478046"><ele>256.000</ele></trkpt>
      <trkpt lat="22.2586657588" lon="114.2049530471"><ele>256.000</ele></trkpt>
      <trkpt lat="22.2587148288" lon="114.2049678657"><ele>256.000</ele></trkpt>
      <trkpt lat="22.2587655158" lon="114.2049801544"><ele>254.000</ele></trkpt>
      <trkpt lat="22.2587873607" lon="114.2049767854"><ele>254.000</ele></trkpt>
      <trkpt lat="22.2588288116" lon="114.2049545301"><ele>254.000</ele></trkpt>
      <trkpt lat="22.2588729624" lon="114.2049295325"><ele>254.000</ele></trkpt>
      <trkpt lat="22.2589220766" lon="114.2049077948"><ele>254.000</ele></trkpt>
      <trkpt lat="22.2589676710" lon="114.2048899933"><ele>254.000</ele></trkpt>
      <trkpt lat="22.2590111964" lon="114.2048566055"><ele>252.000</ele></trkpt>
      <trkpt lat="22.2590335555" lon="114.2048196723"><ele>252.000</ele></trkpt>
      <trkpt lat="22.2590860224" lon="114.2047216557"><ele>248.000</ele></trkpt>
      <trkpt lat="22.2591480128" lon="114.2046250903"><ele>248.000</ele></trkpt>
      <trkpt lat="22.2591542344" lon="114.2045961482"><ele>248.000</ele></trkpt>
      <trkpt lat="22.2591770294" lon="114.2046028314"><ele>248.000</ele></trkpt>
      <trkpt lat="22.2592143257" lon="114.2046362353"><ele>248.000</ele></trkpt>
      <trkpt lat="22.2592205376" lon="114.2046696321"><ele>248.000</ele></trkpt>
      <trkpt lat="22.2592329693" lon="114.2046852186"><ele>248.000</ele></trkpt>
      <trkpt lat="22.2592536905" lon="114.2046985811"><ele>247.000</ele></trkpt>
      <trkpt lat="22.2592785580" lon="114.2047052648"><ele>247.000</ele></trkpt>
      <trkpt lat="22.2592764782" lon="114.2047475662"><ele>246.000</ele></trkpt>
      <trkpt lat="22.2592785343" lon="114.2048433013"><ele>248.000</ele></trkpt>
      <trkpt lat="22.2592888749" lon="114.2049657539"><ele>244.000</ele></trkpt>
      <trkpt lat="22.2592971545" lon="114.2050214148"><ele>246.000</ele></trkpt>
      <trkpt lat="22.2592847082" lon="114.2050904311"><ele>243.000</ele></trkpt>
      <trkpt lat="22.2592349606" lon="114.2051549857"><ele>238.000</ele></trkpt>
      <trkpt lat="22.2591230464" lon="114.2051905853"><ele>242.000</ele></trkpt>
      <trkpt lat="22.2589488135" lon="114.2052417030"><ele>250.000</ele></trkpt>
      <trkpt lat="22.2587893789" lon="114.2052884789"><ele>253.000</ele></trkpt>
      <trkpt lat="22.2588150031" lon="114.2053624224"><ele>254.000</ele></trkpt>
      <trkpt lat="22.2588223935" lon="114.2054048120"><ele>252.000</ele></trkpt>
      <trkpt lat="22.2588297835" lon="114.2054498501"><ele>252.000</ele></trkpt>
      <trkpt lat="22.2588347077" lon="114.2054922392"><ele>252.000</ele></trkpt>
      <trkpt lat="22.2588297700" lon="114.2055266786"><ele>252.000</ele></trkpt>
      <trkpt lat="22.2588198992" lon="114.2055637655"><ele>254.000</ele></trkpt>
      <trkpt lat="22.2587903024" lon="114.2055929017"><ele>254.000</ele></trkpt>
      <trkpt lat="22.2587360460" lon="114.2056193823"><ele>253.000</ele></trkpt>
      <trkpt lat="22.2586398661" lon="114.2056591011"><ele>254.000</ele></trkpt>
      <trkpt lat="22.2585584819" lon="114.2056988229"><ele>256.000</ele></trkpt>
      <trkpt lat="22.2585023592" lon="114.2057184933"><ele>256.000</ele></trkpt>
      <trkpt lat="22.2584837076" lon="114.2057368647"><ele>255.000</ele></trkpt>
      <trkpt lat="22.2584567565" lon="114.2057568254"><ele>256.000</ele></trkpt>
      <trkpt lat="22.2584224912" lon="114.2057739904"><ele>256.000</ele></trkpt>
      <trkpt lat="22.2583793941" lon="114.2057894365"><ele>256.000</ele></trkpt>
      <trkpt lat="22.2583173368" lon="114.2058319465"><ele>253.000</ele></trkpt>
      <trkpt lat="22.2582826458" lon="114.2058560288"><ele>254.000</ele></trkpt>
      <trkpt lat="22.2582501587" lon="114.2058769293"><ele>254.000</ele></trkpt>
      <trkpt lat="22.2582202821" lon="114.2058948326"><ele>254.000</ele></trkpt>
      <trkpt lat="22.2582112866" lon="114.2059002346"><ele>254.000</ele></trkpt>
      <trkpt lat="22.2581943046" lon="114.2059243981"><ele>254.000</ele></trkpt>
      <trkpt lat="22.2581770609" lon="114.2059480668"><ele>254.000</ele></trkpt>
      <trkpt lat="22.2581481030" lon="114.2059788639"><ele>254.000</ele></trkpt>
      <trkpt lat="22.2581117295" lon="114.2060182551"><ele>254.000</ele></trkpt>
      <trkpt lat="22.2580868725" lon="114.2060438625"><ele>254.000</ele></trkpt>
      <trkpt lat="22.2580721587" lon="114.2060596151"><ele>254.000</ele></trkpt>
      <trkpt lat="22.2580703640" lon="114.2060964522"><ele>254.000</ele></trkpt>
      <trkpt lat="22.2580807971" lon="114.2061317299"><ele>254.000</ele></trkpt>
      <trkpt lat="22.2580859733" lon="114.2061727305"><ele>252.000</ele></trkpt>
      <trkpt lat="22.2580785107" lon="114.2062405926"><ele>251.000</ele></trkpt>
      <trkpt lat="22.2580730562" lon="114.2062905651"><ele>250.000</ele></trkpt>
      <trkpt lat="22.2580706402" lon="114.2063170115"><ele>249.000</ele></trkpt>
      <trkpt lat="22.2580549139" lon="114.2063386431"><ele>248.000</ele></trkpt>
      <trkpt lat="22.2580493090" lon="114.2063709681"><ele>248.000</ele></trkpt>
      <trkpt lat="22.2580452510" lon="114.2063887990"><ele>248.000</ele></trkpt>
      <trkpt lat="22.2580344566" lon="114.2064042710"><ele>248.000</ele></trkpt>
      <trkpt lat="22.2580238068" lon="114.2064184333"><ele>246.000</ele></trkpt>
      <trkpt lat="22.2580210845" lon="114.2064410280"><ele>246.000</ele></trkpt>
      <trkpt lat="22.2580326381" lon="114.2064717850"><ele>246.000</ele></trkpt>
      <trkpt lat="22.2580392054" lon="114.2065102634"><ele>244.000</ele></trkpt>
      <trkpt lat="22.2580485561" lon="114.2065380997"><ele>244.000</ele></trkpt>
      <trkpt lat="22.2580522352" lon="114.2065673997"><ele>244.000</ele></trkpt>
      <trkpt lat="22.2580515549" lon="114.2065840671"><ele>244.000</ele></trkpt>
      <trkpt lat="22.2580523263" lon="114.2066126874"><ele>244.000</ele></trkpt>
      <trkpt lat="22.2580511837" lon="114.2066385617"><ele>244.000</ele></trkpt>
      <trkpt lat="22.2580472872" lon="114.2066617674"><ele>244.000</ele></trkpt>
      <trkpt lat="22.2580495499" lon="114.2066835871"><ele>244.000</ele></trkpt>
      <trkpt lat="22.2580588202" lon="114.2067066112"><ele>244.000</ele></trkpt>
      <trkpt lat="22.2580633503" lon="114.2067244634"><ele>244.000</ele></trkpt>
      <trkpt lat="22.2580649426" lon="114.2067575175"><ele>244.000</ele></trkpt>
      <trkpt lat="22.2580582614" lon="114.2067986612"><ele>244.000</ele></trkpt>
      <trkpt lat="22.2580555773" lon="114.2068093713"><ele>244.000</ele></trkpt>
      <trkpt lat="22.2580560338" lon="114.2068314526"><ele>244.000</ele></trkpt>
      <trkpt lat="22.2580605826" lon="114.2068453949"><ele>244.000</ele></trkpt>
      <trkpt lat="22.2580670918" lon="114.2068562137"><ele>244.000</ele></trkpt>
      <trkpt lat="22.2580690848" lon="114.2068707474"><ele>244.000</ele></trkpt>
      <trkpt lat="22.2580642867" lon="114.2068860848"><ele>244.000</ele></trkpt>
      <trkpt lat="22.2580508646" lon="114.2068998778"><ele>244.000</ele></trkpt>
      <trkpt lat="22.2580386872" lon="114.2069220339"><ele>244.000</ele></trkpt>
      <trkpt lat="22.2580355321" lon="114.2069401658"><ele>244.000</ele></trkpt>
      <trkpt lat="22.2580324576" lon="114.2069623724"><ele>244.000</ele></trkpt>
      <trkpt lat="22.2580136132" lon="114.2069968192"><ele>242.000</ele></trkpt>
      <trkpt lat="22.2580065023" lon="114.2070173660"><ele>242.000</ele></trkpt>
      <trkpt lat="22.2580079522" lon="114.2070389623"><ele>242.000</ele></trkpt>
      <trkpt lat="22.2580020693" lon="114.2070600332"><ele>242.000</ele></trkpt>
      <trkpt lat="22.2579816919" lon="114.2070828473"><ele>242.000</ele></trkpt>
      <trkpt lat="22.2579664715" lon="114.2071029266"><ele>242.000</ele></trkpt>
      <trkpt lat="22.2579553874" lon="114.2071216486"><ele>242.000</ele></trkpt>
      <trkpt lat="22.2579458742" lon="114.2071423985"><ele>242.000</ele></trkpt>
      <trkpt lat="22.2579481739" lon="114.2071591345"><ele>242.000</ele></trkpt>
      <trkpt lat="22.2579608030" lon="114.2071848371"><ele>242.000</ele></trkpt>
      <trkpt lat="22.2579735307" lon="114.2072142652"><ele>242.000</ele></trkpt>
      <trkpt lat="22.2579754335" lon="114.2072288958"><ele>242.000</ele></trkpt>
      <trkpt lat="22.2579740400" lon="114.2072435936"><ele>242.000</ele></trkpt>
      <trkpt lat="22.2579697751" lon="114.2072567191"><ele>242.000</ele></trkpt>
      <trkpt lat="22.2579518688" lon="114.2072967446"><ele>242.000</ele></trkpt>
      <trkpt lat="22.2579363640" lon="114.2073405930"><ele>242.000</ele></trkpt>
      <trkpt lat="22.2579267772" lon="114.2073683476"><ele>242.000</ele></trkpt>
      <trkpt lat="22.2579179197" lon="114.2074079190"><ele>242.000</ele></trkpt>
      <trkpt lat="22.2579144999" lon="114.2074410302"><ele>242.000</ele></trkpt>
      <trkpt lat="22.2579161337" lon="114.2074927796"><ele>241.000</ele></trkpt>
      <trkpt lat="22.2579216272" lon="114.2075255726"><ele>241.000</ele></trkpt>
      <trkpt lat="22.2579303101" lon="114.2075499355"><ele>240.000</ele></trkpt>
      <trkpt lat="22.2579386333" lon="114.2075661489"><ele>240.000</ele></trkpt>
      <trkpt lat="22.2579456293" lon="114.2075807030"><ele>240.000</ele></trkpt>
      <trkpt lat="22.2579478406" lon="114.2076016631"><ele>240.000</ele></trkpt>
      <trkpt lat="22.2579447328" lon="114.2076416384"><ele>238.000</ele></trkpt>
      <trkpt lat="22.2579447299" lon="114.2076566295"><ele>238.000</ele></trkpt>
      <trkpt lat="22.2579470536" lon="114.2076657914"><ele>238.000</ele></trkpt>
      <trkpt lat="22.2579532521" lon="114.2076807838"><ele>237.000</ele></trkpt>
      <trkpt lat="22.2579555766" lon="114.2076899457"><ele>237.000</ele></trkpt>
      <trkpt lat="22.2579516966" lon="114.2077066017"><ele>237.000</ele></trkpt>
      <trkpt lat="22.2579113577" lon="114.2078481759"><ele>232.000</ele></trkpt>
      <trkpt lat="22.2579160076" lon="114.2078573373"><ele>232.000</ele></trkpt>
      <trkpt lat="22.2579260844" lon="114.2078648351"><ele>232.000</ele></trkpt>
      <trkpt lat="22.2579299586" lon="114.2078739973"><ele>230.000</ele></trkpt>
      <trkpt lat="22.2579307323" lon="114.2078848246"><ele>230.000</ele></trkpt>
      <trkpt lat="22.2579253012" lon="114.2079039785"><ele>230.000</ele></trkpt>
      <trkpt lat="22.2579128922" lon="114.2079322922"><ele>228.000</ele></trkpt>
      <trkpt lat="22.2578966076" lon="114.2079581068"><ele>228.000</ele></trkpt>
      <trkpt lat="22.2578795463" lon="114.2079897510"><ele>226.000</ele></trkpt>
      <trkpt lat="22.2578710130" lon="114.2080188989"><ele>224.000</ele></trkpt>
      <trkpt lat="22.2578694585" lon="114.2080397194"><ele>224.000</ele></trkpt>
      <trkpt lat="22.2578710052" lon="114.2080597072"><ele>224.000</ele></trkpt>
      <trkpt lat="22.2578756553" lon="114.2080680372"><ele>222.000</ele></trkpt>
      <trkpt lat="22.2578865078" lon="114.2080705378"><ele>221.000</ele></trkpt>
      <trkpt lat="22.2579144160" lon="114.2080713774"><ele>221.000</ele></trkpt>
      <trkpt lat="22.2579361232" lon="114.2080705488"><ele>221.000</ele></trkpt>
      <trkpt lat="22.2579345709" lon="114.2080797098"><ele>221.000</ele></trkpt>
      <trkpt lat="22.2579260400" lon="114.2080963648"><ele>221.000</ele></trkpt>
      <trkpt lat="22.2579275895" lon="114.2081021949"><ele>221.000</ele></trkpt>
      <trkpt lat="22.2579407677" lon="114.2081030303"><ele>221.000</ele></trkpt>
      <trkpt lat="22.2579593728" lon="114.2081071993"><ele>221.000</ele></trkpt>
      <trkpt lat="22.2579927037" lon="114.2081280276"><ele>218.000</ele></trkpt>
      <trkpt lat="22.2580213827" lon="114.2081496873"><ele>216.000</ele></trkpt>
      <trkpt lat="22.2580368849" lon="114.2081630161"><ele>214.000</ele></trkpt>
      <trkpt lat="22.2580500631" lon="114.2081688488"><ele>214.000</ele></trkpt>
      <trkpt lat="22.2580640177" lon="114.2081663537"><ele>214.000</ele></trkpt>
      <trkpt lat="22.2580779734" lon="114.2081588612"><ele>213.000</ele></trkpt>
      <trkpt lat="22.2581004575" lon="114.2081472067"><ele>216.000</ele></trkpt>
      <trkpt lat="22.2581159633" lon="114.2081413804"><ele>214.000</ele></trkpt>
      <trkpt lat="22.2581237151" lon="114.2081422145"><ele>214.000</ele></trkpt>
      <trkpt lat="22.2581275901" lon="114.2081472127"><ele>214.000</ele></trkpt>
      <trkpt lat="22.2581291390" lon="114.2081555410"><ele>214.000</ele></trkpt>
      <trkpt lat="22.2581268107" lon="114.2081705317"><ele>211.000</ele></trkpt>
      <trkpt lat="22.2581268082" lon="114.2081838570"><ele>211.000</ele></trkpt>
      <trkpt lat="22.2581283565" lon="114.2081955179"><ele>211.000</ele></trkpt>
      <trkpt lat="22.2581523833" lon="114.2082246721"><ele>208.000</ele></trkpt>
      <trkpt lat="22.2581562574" lon="114.2082338343"><ele>208.000</ele></trkpt>
      <trkpt lat="22.2581516041" lon="114.2082421622"><ele>208.000</ele></trkpt>
      <trkpt lat="22.2581174919" lon="114.2082554799"><ele>206.000</ele></trkpt>
      <trkpt lat="22.2581112881" lon="114.2082629741"><ele>206.000</ele></trkpt>
      <trkpt lat="22.2581081852" lon="114.2082721338"><ele>206.000</ele></trkpt>
      <trkpt lat="22.2581066323" lon="114.2082846264"><ele>206.000</ele></trkpt>
      <trkpt lat="22.2580981023" lon="114.2082962840"><ele>206.000</ele></trkpt>
      <trkpt lat="22.2580810455" lon="114.2083087731"><ele>204.000</ele></trkpt>
      <trkpt lat="22.2580701888" lon="114.2083229294"><ele>204.000</ele></trkpt>
      <trkpt lat="22.2580655353" lon="114.2083370861"><ele>204.000</ele></trkpt>
      <trkpt lat="22.2580686334" lon="114.2083529113"><ele>204.000</ele></trkpt>
      <trkpt lat="22.2580787073" lon="114.2083704029"><ele>204.000</ele></trkpt>
      <trkpt lat="22.2580911102" lon="114.2083737372"><ele>204.000</ele></trkpt>
      <trkpt lat="22.2581128185" lon="114.2083670789"><ele>204.000</ele></trkpt>
      <trkpt lat="22.2581283241" lon="114.2083629184"><ele>204.000</ele></trkpt>
      <trkpt lat="22.2581438283" lon="114.2083654201"><ele>204.000</ele></trkpt>
      <trkpt lat="22.2581570053" lon="114.2083729186"><ele>204.000</ele></trkpt>
      <trkpt lat="22.2581686307" lon="114.2083904115"><ele>204.000</ele></trkpt>
      <trkpt lat="22.2581895597" lon="114.2084020758"><ele>204.000</ele></trkpt>
      <trkpt lat="22.2582081640" lon="114.2084054115"><ele>202.000</ele></trkpt>
      <trkpt lat="22.2582197923" lon="114.2084079123"><ele>202.000</ele></trkpt>
      <trkpt lat="22.2582285620" lon="114.2084175113"><ele>202.000</ele></trkpt>
      <trkpt lat="22.2582197446" lon="114.2084351568"><ele>202.000</ele></trkpt>
      <trkpt lat="22.2582061213" lon="114.2084608924"><ele>204.000</ele></trkpt>
      <trkpt lat="22.2581960389" lon="114.2084827191"><ele>203.000</ele></trkpt>
      <trkpt lat="22.2581970105" lon="114.2085017444"><ele>202.000</ele></trkpt>
      <trkpt lat="22.2582039518" lon="114.2085186755"><ele>204.000</ele></trkpt>
      <trkpt lat="22.2582075710" lon="114.2085290863"><ele>204.000</ele></trkpt>
      <trkpt lat="22.2582147994" lon="114.2085558551"><ele>204.000</ele></trkpt>
      <trkpt lat="22.2582160698" lon="114.2085706020"><ele>204.000</ele></trkpt>
      <trkpt lat="22.2582161213" lon="114.2085845046"><ele>204.000</ele></trkpt>
      <trkpt lat="22.2582122361" lon="114.2085947003"><ele>204.000</ele></trkpt>
      <trkpt lat="22.2582007112" lon="114.2086039725"><ele>204.000</ele></trkpt>
      <trkpt lat="22.2581855548" lon="114.2086187158"><ele>204.000</ele></trkpt>
      <trkpt lat="22.2581800164" lon="114.2086320738"><ele>204.000</ele></trkpt>
      <trkpt lat="22.2581735751" lon="114.2086444033"><ele>206.000</ele></trkpt>
      <trkpt lat="22.2581663563" lon="114.2086613215"><ele>206.000</ele></trkpt>
      <trkpt lat="22.2581532757" lon="114.2086830116"><ele>204.000</ele></trkpt>
      <trkpt lat="22.2581390675" lon="114.2086979006"><ele>206.000</ele></trkpt>
      <trkpt lat="22.2581234868" lon="114.2087124690"><ele>206.000</ele></trkpt>
      <trkpt lat="22.2580958577" lon="114.2087345051"><ele>204.000</ele></trkpt>
      <trkpt lat="22.2580753372" lon="114.2087487232"><ele>206.000</ele></trkpt>
      <trkpt lat="22.2580589086" lon="114.2087579555"><ele>206.000</ele></trkpt>
      <trkpt lat="22.2580423545" lon="114.2087625698"><ele>206.000</ele></trkpt>
      <trkpt lat="22.2580339109" lon="114.2087622574"><ele>206.000</ele></trkpt>
      <trkpt lat="22.2580206893" lon="114.2087657083"><ele>206.000</ele></trkpt>
      <trkpt lat="22.2580107084" lon="114.2087761063"><ele>206.000</ele></trkpt>
      <trkpt lat="22.2579990782" lon="114.2087927246"><ele>206.000</ele></trkpt>
      <trkpt lat="22.2579624737" lon="114.2088457149"><ele>204.000</ele></trkpt>
      <trkpt lat="22.2579464141" lon="114.2088564928"><ele>204.000</ele></trkpt>
      <trkpt lat="22.2579263390" lon="114.2088748167"><ele>202.000</ele></trkpt>
      <trkpt lat="22.2579183083" lon="114.2088823628"><ele>202.000</ele></trkpt>
      <trkpt lat="22.2579112859" lon="114.2088694230"><ele>202.000</ele></trkpt>
      <trkpt lat="22.2579012542" lon="114.2088489355"><ele>202.000</ele></trkpt>
      <trkpt lat="22.2578892145" lon="114.2088306033"><ele>203.000</ele></trkpt>
      <trkpt lat="22.2578741621" lon="114.2088219751"><ele>202.000</ele></trkpt>
      <trkpt lat="22.2578621201" lon="114.2088198156"><ele>202.000</ele></trkpt>
      <trkpt lat="22.2578470654" lon="114.2088230468"><ele>202.000</ele></trkpt>
      <trkpt lat="22.2578159494" lon="114.2088456816"><ele>199.000</ele></trkpt>
      <trkpt lat="22.2577948717" lon="114.2088553795"><ele>199.000</ele></trkpt>
      <trkpt lat="22.2577768074" lon="114.2088521418"><ele>197.000</ele></trkpt>
      <trkpt lat="22.2577667723" lon="114.2088489049"><ele>197.000</ele></trkpt>
      <trkpt lat="22.2577456953" lon="114.2088596817"><ele>196.000</ele></trkpt>
      <trkpt lat="22.2577306420" lon="114.2088553649"><ele>196.000</ele></trkpt>
      <trkpt lat="22.2577165902" lon="114.2088607529"><ele>196.000</ele></trkpt>
      <trkpt lat="22.2576995280" lon="114.2088682969"><ele>194.000</ele></trkpt>
      <trkpt lat="22.2576724325" lon="114.2088585871"><ele>194.000</ele></trkpt>
      <trkpt lat="22.2576453383" lon="114.2088467206"><ele>191.000</ele></trkpt>
      <trkpt lat="22.2576353072" lon="114.2088229987"><ele>191.000</ele></trkpt>
      <trkpt lat="22.2576282856" lon="114.2088014341"><ele>191.000</ele></trkpt>
    </trkseg>
  </trk>
</gpx>
