<?xml version="1.0" encoding="UTF-8"?>
<gpx xmlns:xsi="http://www.w3.org/2001/XMLSchema-instance"
     xsi:schemaLocation="http://www.topografix.com/GPX/1/1 http://www.topografix.com/GPX/1/1/gpx.xsd"
     version="1.1" creator="json3d_batch_to_gpx"
     xmlns="http://www.topografix.com/GPX/1/1">
  <metadata>
    <name>PatSinLengNatureTrail</name>
  </metadata>
  <trk>
    <name>PatSinLengNatureTrail</name>
    <type>hike</type>
    <trkseg>
      <trkpt lat="22.4771518978" lon="114.2361310613"><ele>56.000</ele></trkpt>
      <trkpt lat="22.4772235805" lon="114.2361576773"><ele>58.000</ele></trkpt>
      <trkpt lat="22.4772680087" lon="114.2361369312"><ele>60.000</ele></trkpt>
      <trkpt lat="22.4773691839" lon="114.2359759481"><ele>68.000</ele></trkpt>
      <trkpt lat="22.4774263863" lon="114.2358849314"><ele>70.000</ele></trkpt>
      <trkpt lat="22.4775391235" lon="114.2357331026"><ele>74.000</ele></trkpt>
      <trkpt lat="22.4775588645" lon="114.2357065163"><ele>74.000</ele></trkpt>
      <trkpt lat="22.4776854798" lon="114.2355679306"><ele>80.000</ele></trkpt>
      <trkpt lat="22.4778011840" lon="114.2354412872"><ele>85.000</ele></trkpt>
      <trkpt lat="22.4778988061" lon="114.2352777832"><ele>94.000</ele></trkpt>
      <trkpt lat="22.4779676433" lon="114.2351624896"><ele>98.000</ele></trkpt>
      <trkpt lat="22.4779871428" lon="114.2351049053"><ele>98.000</ele></trkpt>
      <trkpt lat="22.4779998324" lon="114.2349994327"><ele>98.000</ele></trkpt>
      <trkpt lat="22.4779901269" lon="114.2349182725"><ele>98.000</ele></trkpt>
      <trkpt lat="22.4779682497" lon="114.2348083060"><ele>101.000</ele></trkpt>
      <trkpt lat="22.4779682572" lon="114.2347873659"><ele>101.000</ele></trkpt>
      <trkpt lat="22.4779853079" lon="114.2347585719"><ele>102.000</ele></trkpt>
      <trkpt lat="22.4780040856" lon="114.2347490376"><ele>104.000</ele></trkpt>
      <trkpt lat="22.4780413099" lon="114.2347716839"><ele>104.000</ele></trkpt>
      <trkpt lat="22.4780972779" lon="114.2348790411"><ele>107.000</ele></trkpt>
      <trkpt lat="22.4781191838" lon="114.2348842877"><ele>108.000</ele></trkpt>
      <trkpt lat="22.4781411053" lon="114.2348712080"><ele>113.000</ele></trkpt>
      <trkpt lat="22.4781532830" lon="114.2348581243"><ele>113.000</ele></trkpt>
      <trkpt lat="22.4781532915" lon="114.2348345606"><ele>113.000</ele></trkpt>
      <trkpt lat="22.4781324300" lon="114.2347878715"><ele>108.000</ele></trkpt>
      <trkpt lat="22.4781154121" lon="114.2347250343"><ele>110.000</ele></trkpt>
      <trkpt lat="22.4781095280" lon="114.2346643784"><ele>113.000</ele></trkpt>
      <trkpt lat="22.4781314551" lon="114.2346355864"><ele>116.000</ele></trkpt>
      <trkpt lat="22.4781801453" lon="114.2346408440"><ele>118.000</ele></trkpt>
      <trkpt lat="22.4782742678" lon="114.2348067074"><ele>120.000</ele></trkpt>
      <trkpt lat="22.4782779279" lon="114.2348131574"><ele>120.000</ele></trkpt>
      <trkpt lat="22.4783672479" lon="114.2348880349"><ele>122.000</ele></trkpt>
      <trkpt lat="22.4785188322" lon="114.2349639686"><ele>125.000</ele></trkpt>
      <trkpt lat="22.4786323184" lon="114.2350112310"><ele>120.000</ele></trkpt>
      <trkpt lat="22.4787381459" lon="114.2350611722"><ele>124.000</ele></trkpt>
      <trkpt lat="22.4788601342" lon="114.2350960296"><ele>128.000</ele></trkpt>
      <trkpt lat="22.4790155616" lon="114.2351322809"><ele>122.000</ele></trkpt>
      <trkpt lat="22.4791566346" lon="114.2352073946"><ele>123.000</ele></trkpt>
      <trkpt lat="22.4791908592" lon="114.2352341794"><ele>122.000</ele></trkpt>
      <trkpt lat="22.4792057868" lon="114.2352582743"><ele>122.000</ele></trkpt>
      <trkpt lat="22.4792119976" lon="114.2352890703"><ele>122.000</ele></trkpt>
      <trkpt lat="22.4792212351" lon="114.2353904135"><ele>123.000</ele></trkpt>
      <trkpt lat="22.4792508431" lon="114.2354973137"><ele>123.000</ele></trkpt>
      <trkpt lat="22.4792821583" lon="114.2355779688"><ele>124.000</ele></trkpt>
      <trkpt lat="22.4793490022" lon="114.2356747597"><ele>126.000</ele></trkpt>
      <trkpt lat="22.4794383415" lon="114.2357946868"><ele>129.000</ele></trkpt>
      <trkpt lat="22.4795161838" lon="114.2358682392"><ele>129.000</ele></trkpt>
      <trkpt lat="22.4795406338" lon="114.2358802502"><ele>130.000</ele></trkpt>
      <trkpt lat="22.4795700542" lon="114.2358821186"><ele>130.000</ele></trkpt>
      <trkpt lat="22.4796156248" lon="114.2358733245"><ele>132.000</ele></trkpt>
      <trkpt lat="22.4797933018" lon="114.2358384530"><ele>137.000</ele></trkpt>
      <trkpt lat="22.4798077065" lon="114.2358356259"><ele>137.000</ele></trkpt>
      <trkpt lat="22.4798638111" lon="114.2358394199"><ele>139.000</ele></trkpt>
      <trkpt lat="22.4799165096" lon="114.2358721889"><ele>138.000</ele></trkpt>
      <trkpt lat="22.4799785502" lon="114.2359414788"><ele>139.000</ele></trkpt>
      <trkpt lat="22.4800135709" lon="114.2359641637"><ele>138.000</ele></trkpt>
      <trkpt lat="22.4800732916" lon="114.2359818159"><ele>138.000</ele></trkpt>
      <trkpt lat="22.4802482494" lon="114.2360300473"><ele>140.000</ele></trkpt>
      <trkpt lat="22.4802700353" lon="114.2360360531"><ele>143.000</ele></trkpt>
      <trkpt lat="22.4803538889" lon="114.2360436487"><ele>150.000</ele></trkpt>
      <trkpt lat="22.4803702854" lon="114.2360512059"><ele>146.000</ele></trkpt>
      <trkpt lat="22.4803796562" lon="114.2360587698"><ele>146.000</ele></trkpt>
      <trkpt lat="22.4803831611" lon="114.2360801782"><ele>146.000</ele></trkpt>
      <trkpt lat="22.4803808049" lon="114.2361028473"><ele>143.000</ele></trkpt>
      <trkpt lat="22.4803385953" lon="114.2362293854"><ele>142.000</ele></trkpt>
      <trkpt lat="22.4802662702" lon="114.2364074651"><ele>151.000</ele></trkpt>
      <trkpt lat="22.4802342715" lon="114.2364862524"><ele>150.000</ele></trkpt>
      <trkpt lat="22.4802049593" lon="114.2365580203"><ele>148.000</ele></trkpt>
      <trkpt lat="22.4802026041" lon="114.2366020962"><ele>148.000</ele></trkpt>
      <trkpt lat="22.4802119688" lon="114.2366260238"><ele>151.000</ele></trkpt>
      <trkpt lat="22.4802753051" lon="114.2367314431"><ele>152.000</ele></trkpt>
      <trkpt lat="22.4803749692" lon="114.2368935173"><ele>152.000</ele></trkpt>
      <trkpt lat="22.4804120873" lon="114.2369538789"><ele>153.000</ele></trkpt>
      <trkpt lat="22.4804658637" lon="114.2370014093"><ele>154.000</ele></trkpt>
      <trkpt lat="22.4805254688" lon="114.2370379521"><ele>154.000</ele></trkpt>
      <trkpt lat="22.4806636552" lon="114.2370783090"><ele>155.000</ele></trkpt>
      <trkpt lat="22.4808417924" lon="114.2371103466"><ele>154.000</ele></trkpt>
      <trkpt lat="22.4808742302" lon="114.2371161805"><ele>152.000</ele></trkpt>
      <trkpt lat="22.4810529609" lon="114.2371441304"><ele>153.000</ele></trkpt>
      <trkpt lat="22.4811084564" lon="114.2371528088"><ele>154.000</ele></trkpt>
      <trkpt lat="22.4812881106" lon="114.2371727569"><ele>156.000</ele></trkpt>
      <trkpt lat="22.4812905832" lon="114.2371730315"><ele>156.000</ele></trkpt>
      <trkpt lat="22.4814100417" lon="114.2371617529"><ele>162.000</ele></trkpt>
      <trkpt lat="22.4814557146" lon="114.2371693327"><ele>161.000</ele></trkpt>
      <trkpt lat="22.4815189552" lon="114.2371920207"><ele>165.000</ele></trkpt>
      <trkpt lat="22.4816740149" lon="114.2372916696"><ele>168.000</ele></trkpt>
      <trkpt lat="22.4817287894" lon="114.2373268704"><ele>168.000</ele></trkpt>
      <trkpt lat="22.4818730435" lon="114.2374408970"><ele>172.000</ele></trkpt>
      <trkpt lat="22.4819116818" lon="114.2374723977"><ele>174.000</ele></trkpt>
      <trkpt lat="22.4819315835" lon="114.2375001103"><ele>177.000</ele></trkpt>
      <trkpt lat="22.4819444514" lon="114.2375253030"><ele>176.000</ele></trkpt>
      <trkpt lat="22.4819584851" lon="114.2375958370"><ele>176.000</ele></trkpt>
      <trkpt lat="22.4819587086" lon="114.2376499816"><ele>175.000</ele></trkpt>
      <trkpt lat="22.4819575032" lon="114.2377330928"><ele>175.000</ele></trkpt>
      <trkpt lat="22.4819598235" lon="114.2378061384"><ele>175.000</ele></trkpt>
      <trkpt lat="22.4819785373" lon="114.2378703777"><ele>176.000</ele></trkpt>
      <trkpt lat="22.4820054598" lon="114.2379106870"><ele>174.000</ele></trkpt>
      <trkpt lat="22.4820476132" lon="114.2379358926"><ele>177.000</ele></trkpt>
      <trkpt lat="22.4821751191" lon="114.2379927558"><ele>178.000</ele></trkpt>
      <trkpt lat="22.4823427842" lon="114.2380650021"><ele>182.000</ele></trkpt>
      <trkpt lat="22.4823795974" lon="114.2380808648"><ele>183.000</ele></trkpt>
      <trkpt lat="22.4824416657" lon="114.2380985192"><ele>182.000</ele></trkpt>
      <trkpt lat="22.4825025658" lon="114.2381010628"><ele>182.000</ele></trkpt>
      <trkpt lat="22.4826829791" lon="114.2381100887"><ele>185.000</ele></trkpt>
      <trkpt lat="22.4827057732" lon="114.2381112291"><ele>186.000</ele></trkpt>
      <trkpt lat="22.4828263985" lon="114.2381188422"><ele>188.000</ele></trkpt>
      <trkpt lat="22.4828573063" lon="114.2381276694"><ele>188.000</ele></trkpt>
      <trkpt lat="22.4828861251" lon="114.2381440558"><ele>187.000</ele></trkpt>
      <trkpt lat="22.4829468556" lon="114.2381889086"><ele>186.000</ele></trkpt>
      <trkpt lat="22.4829801346" lon="114.2382075999"><ele>186.000</ele></trkpt>
      <trkpt lat="22.4829989752" lon="114.2381992513"><ele>186.000</ele></trkpt>
      <trkpt lat="22.4830138093" lon="114.2381831660"><ele>188.000</ele></trkpt>
      <trkpt lat="22.4830399294" lon="114.2381247569"><ele>190.000</ele></trkpt>
      <trkpt lat="22.4830648331" lon="114.2380589426"><ele>193.000</ele></trkpt>
      <trkpt lat="22.4830767428" lon="114.2380151032"><ele>194.000</ele></trkpt>
      <trkpt lat="22.4831124324" lon="114.2379877160"><ele>198.000</ele></trkpt>
      <trkpt lat="22.4831651109" lon="114.2379767780"><ele>198.000</ele></trkpt>
      <trkpt lat="22.4832442488" lon="114.2379649964"><ele>198.000</ele></trkpt>
      <trkpt lat="22.4834217095" lon="114.2379288718"><ele>198.000</ele></trkpt>
      <trkpt lat="22.4835242853" lon="114.2379079910"><ele>198.000</ele></trkpt>
      <trkpt lat="22.4836928046" lon="114.2378380831"><ele>204.000</ele></trkpt>
      <trkpt lat="22.4837033413" lon="114.2378337121"><ele>204.000</ele></trkpt>
      <trkpt lat="22.4838641529" lon="114.2377452451"><ele>212.000</ele></trkpt>
      <trkpt lat="22.4838928296" lon="114.2377294692"><ele>212.000</ele></trkpt>
      <trkpt lat="22.4839361165" lon="114.2376945930"><ele>214.000</ele></trkpt>
      <trkpt lat="22.4839620965" lon="114.2376480677"><ele>214.000</ele></trkpt>
      <trkpt lat="22.4839837550" lon="114.2375666551"><ele>217.000</ele></trkpt>
      <trkpt lat="22.4840140669" lon="114.2375271185"><ele>218.000</ele></trkpt>
      <trkpt lat="22.4840508565" lon="114.2375038711"><ele>220.000</ele></trkpt>
      <trkpt lat="22.4841042739" lon="114.2374971019"><ele>220.000</ele></trkpt>
      <trkpt lat="22.4842319275" lon="114.2374738940"><ele>224.000</ele></trkpt>
      <trkpt lat="22.4843809644" lon="114.2374762814"><ele>230.000</ele></trkpt>
      <trkpt lat="22.4844566987" lon="114.2374623504"><ele>228.000</ele></trkpt>
      <trkpt lat="22.4845259426" lon="114.2374414395"><ele>230.000</ele></trkpt>
      <trkpt lat="22.4845995189" lon="114.2373786579"><ele>231.000</ele></trkpt>
      <trkpt lat="22.4847486326" lon="114.2372690012"><ele>233.000</ele></trkpt>
      <trkpt lat="22.4847776838" lon="114.2372476372"><ele>238.000</ele></trkpt>
      <trkpt lat="22.4848271280" lon="114.2372162421"><ele>239.000</ele></trkpt>
      <trkpt lat="22.4848592276" lon="114.2372013981"><ele>244.000</ele></trkpt>
      <trkpt lat="22.4848895134" lon="114.2372072222"><ele>244.000</ele></trkpt>
      <trkpt lat="22.4849080206" lon="114.2372211165"><ele>243.000</ele></trkpt>
      <trkpt lat="22.4849394698" lon="114.2372549567"><ele>243.000</ele></trkpt>
      <trkpt lat="22.4850755205" lon="114.2373827775"><ele>241.000</ele></trkpt>
      <trkpt lat="22.4850961373" lon="114.2374021473"><ele>243.000</ele></trkpt>
      <trkpt lat="22.4852541726" lon="114.2374962301"><ele>239.000</ele></trkpt>
      <trkpt lat="22.4852567252" lon="114.2374977497"><ele>239.000</ele></trkpt>
      <trkpt lat="22.4853095571" lon="114.2375109691"><ele>236.000</ele></trkpt>
      <trkpt lat="22.4853529466" lon="114.2374913490"><ele>240.000</ele></trkpt>
      <trkpt lat="22.4854080004" lon="114.2374555057"><ele>244.000</ele></trkpt>
      <trkpt lat="22.4854394624" lon="114.2374313617"><ele>244.000</ele></trkpt>
      <trkpt lat="22.4854664335" lon="114.2374144649"><ele>244.000</ele></trkpt>
      <trkpt lat="22.4855091284" lon="114.2374168935"><ele>244.000</ele></trkpt>
      <trkpt lat="22.4855877561" lon="114.2374410951"><ele>248.000</ele></trkpt>
      <trkpt lat="22.4857210863" lon="114.2374750284"><ele>249.000</ele></trkpt>
      <trkpt lat="22.4857521926" lon="114.2374840307"><ele>249.000</ele></trkpt>
      <trkpt lat="22.4859205903" lon="114.2375542781"><ele>254.000</ele></trkpt>
      <trkpt lat="22.4860635753" lon="114.2376139247"><ele>256.000</ele></trkpt>
      <trkpt lat="22.4862250991" lon="114.2377008777"><ele>262.000</ele></trkpt>
      <trkpt lat="22.4863220633" lon="114.2377530764"><ele>258.000</ele></trkpt>
      <trkpt lat="22.4864161830" lon="114.2377643609"><ele>259.000</ele></trkpt>
      <trkpt lat="22.4865955931" lon="114.2377420135"><ele>262.000</ele></trkpt>
      <trkpt lat="22.4866858706" lon="114.2377307686"><ele>262.000</ele></trkpt>
      <trkpt lat="22.4868470231" lon="114.2376430210"><ele>266.000</ele></trkpt>
      <trkpt lat="22.4868767675" lon="114.2376268251"><ele>266.000</ele></trkpt>
      <trkpt lat="22.4870228409" lon="114.2375125263"><ele>270.000</ele></trkpt>
      <trkpt lat="22.4870585309" lon="114.2374845998"><ele>272.000</ele></trkpt>
      <trkpt lat="22.4871929221" lon="114.2373547600"><ele>278.000</ele></trkpt>
      <trkpt lat="22.4873273131" lon="114.2372249200"><ele>282.000</ele></trkpt>
      <trkpt lat="22.4873444288" lon="114.2372083840"><ele>285.000</ele></trkpt>
      <trkpt lat="22.4874854764" lon="114.2370869948"><ele>290.000</ele></trkpt>
      <trkpt lat="22.4874899464" lon="114.2370831478"><ele>290.000</ele></trkpt>
      <trkpt lat="22.4876383554" lon="114.2369723873"><ele>296.000</ele></trkpt>
      <trkpt lat="22.4877867644" lon="114.2368616267"><ele>302.000</ele></trkpt>
      <trkpt lat="22.4878591579" lon="114.2368075978"><ele>303.000</ele></trkpt>
      <trkpt lat="22.4879986040" lon="114.2366840842"><ele>307.000</ele></trkpt>
      <trkpt lat="22.4881380500" lon="114.2365605703"><ele>314.000</ele></trkpt>
      <trkpt lat="22.4881564643" lon="114.2365442599"><ele>311.000</ele></trkpt>
      <trkpt lat="22.4882777085" lon="114.2364899219"><ele>312.000</ele></trkpt>
      <trkpt lat="22.4883528179" lon="114.2364559519"><ele>314.000</ele></trkpt>
      <trkpt lat="22.4885158041" lon="114.2363923706"><ele>317.000</ele></trkpt>
      <trkpt lat="22.4886947142" lon="114.2363657835"><ele>322.000</ele></trkpt>
      <trkpt lat="22.4887432382" lon="114.2363585725"><ele>320.000</ele></trkpt>
      <trkpt lat="22.4888578831" lon="114.2362991198"><ele>321.000</ele></trkpt>
      <trkpt lat="22.4889409219" lon="114.2362141444"><ele>323.000</ele></trkpt>
      <trkpt lat="22.4890488781" lon="114.2360583316"><ele>326.000</ele></trkpt>
      <trkpt lat="22.4890877257" lon="114.2360022628"><ele>327.000</ele></trkpt>
      <trkpt lat="22.4891828970" lon="114.2358370810"><ele>332.000</ele></trkpt>
      <trkpt lat="22.4892057740" lon="114.2357973750"><ele>334.000</ele></trkpt>
      <trkpt lat="22.4892080620" lon="114.2357388265"><ele>335.000</ele></trkpt>
      <trkpt lat="22.4891468372" lon="114.2356363365"><ele>336.000</ele></trkpt>
      <trkpt lat="22.4890180086" lon="114.2355001219"><ele>338.000</ele></trkpt>
      <trkpt lat="22.4890175626" lon="114.2354996503"><ele>338.000</ele></trkpt>
      <trkpt lat="22.4889041826" lon="114.2353483644"><ele>340.000</ele></trkpt>
      <trkpt lat="22.4889041686" lon="114.2353483459"><ele>340.000</ele></trkpt>
      <trkpt lat="22.4888497489" lon="114.2352556157"><ele>339.000</ele></trkpt>
      <trkpt lat="22.4888293639" lon="114.2351653391"><ele>340.000</ele></trkpt>
      <trkpt lat="22.4888573475" lon="114.2350949944"><ele>340.000</ele></trkpt>
      <trkpt lat="22.4889201538" lon="114.2350702307"><ele>341.000</ele></trkpt>
      <trkpt lat="22.4889753350" lon="114.2350553565"><ele>340.000</ele></trkpt>
      <trkpt lat="22.4890022647" lon="114.2350523747"><ele>340.000</ele></trkpt>
      <trkpt lat="22.4891515955" lon="114.2350410479"><ele>340.000</ele></trkpt>
      <trkpt lat="22.4893285821" lon="114.2350167303"><ele>342.000</ele></trkpt>
      <trkpt lat="22.4894943502" lon="114.2349395777"><ele>340.000</ele></trkpt>
      <trkpt lat="22.4896175854" lon="114.2348822208"><ele>342.000</ele></trkpt>
      <trkpt lat="22.4896462988" lon="114.2348412043"><ele>342.000</ele></trkpt>
      <trkpt lat="22.4896531215" lon="114.2347777693"><ele>344.000</ele></trkpt>
      <trkpt lat="22.4896395267" lon="114.2347387273"><ele>345.000</ele></trkpt>
      <trkpt lat="22.4896239451" lon="114.2347001412"><ele>345.000</ele></trkpt>
      <trkpt lat="22.4895531613" lon="114.2345839259"><ele>343.000</ele></trkpt>
      <trkpt lat="22.4895108812" lon="114.2345075946"><ele>340.000</ele></trkpt>
      <trkpt lat="22.4894853368" lon="114.2344751752"><ele>340.000</ele></trkpt>
      <trkpt lat="22.4893689939" lon="114.2343857332"><ele>346.000</ele></trkpt>
      <trkpt lat="22.4893144350" lon="114.2343020601"><ele>348.000</ele></trkpt>
      <trkpt lat="22.4892948325" lon="114.2342189359"><ele>348.000</ele></trkpt>
      <trkpt lat="22.4892724044" lon="114.2340823725"><ele>347.000</ele></trkpt>
      <trkpt lat="22.4892726044" lon="114.2340530735"><ele>346.000</ele></trkpt>
      <trkpt lat="22.4892821669" lon="114.2340295993"><ele>346.000</ele></trkpt>
      <trkpt lat="22.4893176526" lon="114.2340149401"><ele>346.000</ele></trkpt>
      <trkpt lat="22.4893435825" lon="114.2340046791"><ele>348.000</ele></trkpt>
      <trkpt lat="22.4893722445" lon="114.2340061582"><ele>348.000</ele></trkpt>
      <trkpt lat="22.4894162188" lon="114.2340166520"><ele>346.000</ele></trkpt>
      <trkpt lat="22.4894605617" lon="114.2340574363"><ele>347.000</ele></trkpt>
      <trkpt lat="22.4895192006" lon="114.2341719263"><ele>348.000</ele></trkpt>
      <trkpt lat="22.4895887717" lon="114.2342453339"><ele>348.000</ele></trkpt>
      <trkpt lat="22.4896663007" lon="114.2342878035"><ele>348.000</ele></trkpt>
      <trkpt lat="22.4897281450" lon="114.2343015020"><ele>350.000</ele></trkpt>
      <trkpt lat="22.4898139869" lon="114.2343045111"><ele>348.000</ele></trkpt>
      <trkpt lat="22.4898970618" lon="114.2342926314"><ele>350.000</ele></trkpt>
      <trkpt lat="22.4899607649" lon="114.2342598989"><ele>349.000</ele></trkpt>
      <trkpt lat="22.4900881944" lon="114.2341289066"><ele>352.000</ele></trkpt>
      <trkpt lat="22.4901768562" lon="114.2339978981"><ele>356.000</ele></trkpt>
      <trkpt lat="22.4902551689" lon="114.2338675266"><ele>359.000</ele></trkpt>
      <trkpt lat="22.4903707841" lon="114.2337182110"><ele>360.000</ele></trkpt>
      <trkpt lat="22.4903971645" lon="114.2336841410"><ele>360.000</ele></trkpt>
      <trkpt lat="22.4904091813" lon="114.2336403573"><ele>360.000</ele></trkpt>
      <trkpt lat="22.4904092015" lon="114.2335831191"><ele>360.000</ele></trkpt>
      <trkpt lat="22.4903733038" lon="114.2333926400"><ele>356.000</ele></trkpt>
      <trkpt lat="22.4903547142" lon="114.2332940008"><ele>356.000</ele></trkpt>
      <trkpt lat="22.4903547343" lon="114.2332367627"><ele>356.000</ele></trkpt>
      <trkpt lat="22.4903656679" lon="114.2331912779"><ele>356.000</ele></trkpt>
      <trkpt lat="22.4903847881" lon="114.2331575355"><ele>356.000</ele></trkpt>
      <trkpt lat="22.4904208466" lon="114.2331313216"><ele>357.000</ele></trkpt>
      <trkpt lat="22.4905086085" lon="114.2330667334"><ele>357.000</ele></trkpt>
      <trkpt lat="22.4905454623" lon="114.2330388678"><ele>357.000</ele></trkpt>
      <trkpt lat="22.4906106384" lon="114.2330021120"><ele>352.000</ele></trkpt>
      <trkpt lat="22.4906392975" lon="114.2329859724"><ele>354.000</ele></trkpt>
      <trkpt lat="22.4906686987" lon="114.2329913097"><ele>351.000</ele></trkpt>
      <trkpt lat="22.4907102582" lon="114.2330124239"><ele>351.000</ele></trkpt>
      <trkpt lat="22.4907348102" lon="114.2330432492"><ele>350.000</ele></trkpt>
      <trkpt lat="22.4907539052" lon="114.2330814093"><ele>350.000</ele></trkpt>
      <trkpt lat="22.4907958306" lon="114.2331151861"><ele>350.000</ele></trkpt>
      <trkpt lat="22.4908661724" lon="114.2331295776"><ele>350.000</ele></trkpt>
      <trkpt lat="22.4910462423" lon="114.2331145858"><ele>348.000</ele></trkpt>
      <trkpt lat="22.4910803707" lon="114.2331117444"><ele>348.000</ele></trkpt>
      <trkpt lat="22.4911273273" lon="114.2330901508"><ele>348.000</ele></trkpt>
      <trkpt lat="22.4911588993" lon="114.2330591732"><ele>348.000</ele></trkpt>
      <trkpt lat="22.4911672065" lon="114.2330355523"><ele>348.000</ele></trkpt>
      <trkpt lat="22.4911755939" lon="114.2330150607"><ele>348.000</ele></trkpt>
      <trkpt lat="22.4911780937" lon="114.2329935851"><ele>348.000</ele></trkpt>
      <trkpt lat="22.4911737324" lon="114.2329667328"><ele>348.000</ele></trkpt>
      <trkpt lat="22.4911375647" lon="114.2328915600"><ele>347.000</ele></trkpt>
      <trkpt lat="22.4911209240" lon="114.2328328377"><ele>348.000</ele></trkpt>
      <trkpt lat="22.4911161721" lon="114.2328123602"><ele>348.000</ele></trkpt>
      <trkpt lat="22.4911151309" lon="114.2327942359"><ele>348.000</ele></trkpt>
      <trkpt lat="22.4911207529" lon="114.2327794767"><ele>348.000</ele></trkpt>
      <trkpt lat="22.4911301218" lon="114.2327667306"><ele>348.000</ele></trkpt>
      <trkpt lat="22.4911407349" lon="114.2327600295"><ele>347.000</ele></trkpt>
      <trkpt lat="22.4912230082" lon="114.2327417248"><ele>348.000</ele></trkpt>
      <trkpt lat="22.4913958220" lon="114.2327185684"><ele>346.000</ele></trkpt>
      <trkpt lat="22.4914376981" lon="114.2326862732"><ele>345.000</ele></trkpt>
      <trkpt lat="22.4914442604" lon="114.2326423022"><ele>345.000</ele></trkpt>
      <trkpt lat="22.4914083296" lon="114.2324558107"><ele>342.000</ele></trkpt>
      <trkpt lat="22.4913968906" lon="114.2324223765"><ele>342.000</ele></trkpt>
      <trkpt lat="22.4913919950" lon="114.2323995082"><ele>342.000</ele></trkpt>
      <trkpt lat="22.4914001820" lon="114.2323836810"><ele>342.000</ele></trkpt>
      <trkpt lat="22.4914165379" lon="114.2323784107"><ele>340.000</ele></trkpt>
      <trkpt lat="22.4914443503" lon="114.2323819397"><ele>340.000</ele></trkpt>
      <trkpt lat="22.4914999655" lon="114.2323907566"><ele>340.000</ele></trkpt>
      <trkpt lat="22.4915719426" lon="114.2324030980"><ele>340.000</ele></trkpt>
      <trkpt lat="22.4917518369" lon="114.2324203583"><ele>334.000</ele></trkpt>
      <trkpt lat="22.4917740362" lon="114.2324224882"><ele>333.000</ele></trkpt>
      <trkpt lat="22.4919065435" lon="114.2324102188"><ele>329.000</ele></trkpt>
      <trkpt lat="22.4919870472" lon="114.2323908344"><ele>330.000</ele></trkpt>
      <trkpt lat="22.4921330583" lon="114.2323425847"><ele>329.000</ele></trkpt>
      <trkpt lat="22.4922386262" lon="114.2323088082"><ele>326.000</ele></trkpt>
      <trkpt lat="22.4922941030" lon="114.2322736415"><ele>324.000</ele></trkpt>
      <trkpt lat="22.4923509665" lon="114.2321977570"><ele>324.000</ele></trkpt>
      <trkpt lat="22.4923756779" lon="114.2321591184"><ele>324.000</ele></trkpt>
      <trkpt lat="22.4924026377" lon="114.2321470594"><ele>323.000</ele></trkpt>
      <trkpt lat="22.4924402509" lon="114.2321425166"><ele>323.000</ele></trkpt>
      <trkpt lat="22.4925008942" lon="114.2321304709"><ele>321.000</ele></trkpt>
      <trkpt lat="22.4926042118" lon="114.2321280922"><ele>318.000</ele></trkpt>
      <trkpt lat="22.4926468887" lon="114.2321039599"><ele>318.000</ele></trkpt>
      <trkpt lat="22.4927120622" lon="114.2319952996"><ele>315.000</ele></trkpt>
      <trkpt lat="22.4927743113" lon="114.2318291851"><ele>309.000</ele></trkpt>
      <trkpt lat="22.4928012950" lon="114.2317470688"><ele>309.000</ele></trkpt>
      <trkpt lat="22.4928103025" lon="114.2316818645"><ele>306.000</ele></trkpt>
      <trkpt lat="22.4928035913" lon="114.2316069942"><ele>306.000</ele></trkpt>
      <trkpt lat="22.4927856421" lon="114.2315441894"><ele>304.000</ele></trkpt>
      <trkpt lat="22.4927070800" lon="114.2314040734"><ele>298.000</ele></trkpt>
      <trkpt lat="22.4926689248" lon="114.2313291812"><ele>294.000</ele></trkpt>
      <trkpt lat="22.4926666909" lon="114.2312857117"><ele>297.000</ele></trkpt>
      <trkpt lat="22.4926958960" lon="114.2312567343"><ele>297.000</ele></trkpt>
      <trkpt lat="22.4927408230" lon="114.2312543418"><ele>296.000</ele></trkpt>
      <trkpt lat="22.4928059494" lon="114.2312567773"><ele>295.000</ele></trkpt>
      <trkpt lat="22.4929474549" lon="114.2312326833"><ele>292.000</ele></trkpt>
      <trkpt lat="22.4930328093" lon="114.2312085674"><ele>290.000</ele></trkpt>
      <trkpt lat="22.4931324233" lon="114.2311560997"><ele>290.000</ele></trkpt>
      <trkpt lat="22.4932365132" lon="114.2310860927"><ele>291.000</ele></trkpt>
      <trkpt lat="22.4932836919" lon="114.2310474624"><ele>290.000</ele></trkpt>
      <trkpt lat="22.4933106484" lon="114.2310184937"><ele>290.000</ele></trkpt>
      <trkpt lat="22.4933241363" lon="114.2309750204"><ele>289.000</ele></trkpt>
      <trkpt lat="22.4933219146" lon="114.2309218909"><ele>288.000</ele></trkpt>
      <trkpt lat="22.4933087328" lon="114.2307280482"><ele>283.000</ele></trkpt>
      <trkpt lat="22.4933061799" lon="114.2306905077"><ele>282.000</ele></trkpt>
      <trkpt lat="22.4933062339" lon="114.2305286827"><ele>280.000</ele></trkpt>
      <trkpt lat="22.4933332410" lon="114.2303741178"><ele>278.000</ele></trkpt>
      <trkpt lat="22.4933400186" lon="114.2302509441"><ele>276.000</ele></trkpt>
      <trkpt lat="22.4933375564" lon="114.2300776411"><ele>273.000</ele></trkpt>
      <trkpt lat="22.4933411606" lon="114.2298833188"><ele>272.000</ele></trkpt>
      <trkpt lat="22.4933421257" lon="114.2298312805"><ele>270.000</ele></trkpt>
      <trkpt lat="22.4933735839" lon="114.2297878236"><ele>268.000</ele></trkpt>
      <trkpt lat="22.4934297404" lon="114.2297709355"><ele>268.000</ele></trkpt>
      <trkpt lat="22.4935173294" lon="114.2297613091"><ele>270.000</ele></trkpt>
      <trkpt lat="22.4936670565" lon="114.2298069730"><ele>273.000</ele></trkpt>
      <trkpt lat="22.4937680950" lon="114.2298698097"><ele>274.000</ele></trkpt>
      <trkpt lat="22.4939185449" lon="114.2299688944"><ele>274.000</ele></trkpt>
      <trkpt lat="22.4940263386" lon="114.2300027448"><ele>273.000</ele></trkpt>
      <trkpt lat="22.4941948428" lon="114.2300119053"><ele>271.000</ele></trkpt>
      <trkpt lat="22.4943590020" lon="114.2299706563"><ele>268.000</ele></trkpt>
      <trkpt lat="22.4944288657" lon="114.2299293712"><ele>267.000</ele></trkpt>
      <trkpt lat="22.4944605765" lon="114.2299140287"><ele>266.000</ele></trkpt>
      <trkpt lat="22.4944987668" lon="114.2299116331"><ele>266.000</ele></trkpt>
      <trkpt lat="22.4945301416" lon="114.2299294099"><ele>267.000</ele></trkpt>
      <trkpt lat="22.4945650510" lon="114.2299632229"><ele>264.000</ele></trkpt>
      <trkpt lat="22.4946244110" lon="114.2300083086"><ele>263.000</ele></trkpt>
      <trkpt lat="22.4947927801" lon="114.2300786393"><ele>261.000</ele></trkpt>
      <trkpt lat="22.4948550607" lon="114.2301046550"><ele>262.000</ele></trkpt>
      <trkpt lat="22.4950269206" lon="114.2301644123"><ele>264.000</ele></trkpt>
      <trkpt lat="22.4950425824" lon="114.2301698580"><ele>264.000</ele></trkpt>
      <trkpt lat="22.4952206942" lon="114.2301811994"><ele>263.000</ele></trkpt>
      <trkpt lat="22.4953254710" lon="114.2301624543"><ele>264.000</ele></trkpt>
      <trkpt lat="22.4954878352" lon="114.2300875600"><ele>267.000</ele></trkpt>
      <trkpt lat="22.4955568389" lon="114.2300529410"><ele>266.000</ele></trkpt>
      <trkpt lat="22.4955838553" lon="114.2300331553"><ele>264.000</ele></trkpt>
      <trkpt lat="22.4956488900" lon="114.2299578932"><ele>262.000</ele></trkpt>
      <trkpt lat="22.4957355991" lon="114.2299052146"><ele>259.000</ele></trkpt>
      <trkpt lat="22.4958504452" lon="114.2298577363"><ele>256.000</ele></trkpt>
      <trkpt lat="22.4960242974" lon="114.2299103987"><ele>254.000</ele></trkpt>
      <trkpt lat="22.4960497352" lon="114.2299181042"><ele>254.000</ele></trkpt>
      <trkpt lat="22.4961915613" lon="114.2300384458"><ele>254.000</ele></trkpt>
      <trkpt lat="22.4961969527" lon="114.2300430205"><ele>254.000</ele></trkpt>
      <trkpt lat="22.4963004957" lon="114.2301782508"><ele>252.000</ele></trkpt>
      <trkpt lat="22.4963655178" lon="114.2303043896"><ele>252.000</ele></trkpt>
      <trkpt lat="22.4964108408" lon="114.2304691997"><ele>250.000</ele></trkpt>
      <trkpt lat="22.4964683812" lon="114.2305543928"><ele>250.000</ele></trkpt>
      <trkpt lat="22.4965533098" lon="114.2306153301"><ele>250.000</ele></trkpt>
      <trkpt lat="22.4967157879" lon="114.2307002052"><ele>248.000</ele></trkpt>
      <trkpt lat="22.4968782660" lon="114.2307850804"><ele>248.000</ele></trkpt>
      <trkpt lat="22.4970185286" lon="114.2308583510"><ele>248.000</ele></trkpt>
      <trkpt lat="22.4971809554" lon="114.2309433402"><ele>246.000</ele></trkpt>
      <trkpt lat="22.4972223901" lon="114.2309650207"><ele>244.000</ele></trkpt>
      <trkpt lat="22.4973724640" lon="114.2309985782"><ele>237.000</ele></trkpt>
      <trkpt lat="22.4975525825" lon="114.2310128765"><ele>234.000</ele></trkpt>
      <trkpt lat="22.4976244233" lon="114.2310185795"><ele>234.000</ele></trkpt>
      <trkpt lat="22.4978035851" lon="114.2310431262"><ele>230.000</ele></trkpt>
      <trkpt lat="22.4978383254" lon="114.2310478859"><ele>230.000</ele></trkpt>
      <trkpt lat="22.4979493081" lon="114.2310504754"><ele>228.000</ele></trkpt>
      <trkpt lat="22.4979769829" lon="114.2310603503"><ele>226.000</ele></trkpt>
      <trkpt lat="22.4980106864" lon="114.2310809664"><ele>226.000</ele></trkpt>
      <trkpt lat="22.4980709472" lon="114.2311315935"><ele>224.000</ele></trkpt>
      <trkpt lat="22.4981013585" lon="114.2311406240"><ele>224.000</ele></trkpt>
      <trkpt lat="22.4981370207" lon="114.2311372560"><ele>224.000</ele></trkpt>
      <trkpt lat="22.4982869912" lon="114.2311023477"><ele>220.000</ele></trkpt>
      <trkpt lat="22.4983391323" lon="114.2311033107"><ele>220.000</ele></trkpt>
      <trkpt lat="22.4984028749" lon="114.2311388855"><ele>219.000</ele></trkpt>
      <trkpt lat="22.4985377102" lon="114.2312682013"><ele>214.000</ele></trkpt>
      <trkpt lat="22.4985828736" lon="114.2313115160"><ele>214.000</ele></trkpt>
      <trkpt lat="22.4986619618" lon="114.2313648720"><ele>212.000</ele></trkpt>
      <trkpt lat="22.4986997394" lon="114.2313813984"><ele>210.000</ele></trkpt>
      <trkpt lat="22.4987247896" lon="114.2314085129"><ele>210.000</ele></trkpt>
      <trkpt lat="22.4987909777" lon="114.2315286393"><ele>210.000</ele></trkpt>
      <trkpt lat="22.4988208161" lon="114.2315493513"><ele>213.000</ele></trkpt>
      <trkpt lat="22.4988422720" lon="114.2315504384"><ele>213.000</ele></trkpt>
      <trkpt lat="22.4988690781" lon="114.2315389521"><ele>216.000</ele></trkpt>
      <trkpt lat="22.4989427312" lon="114.2314822059"><ele>216.000</ele></trkpt>
      <trkpt lat="22.4990497411" lon="114.2313761710"><ele>219.000</ele></trkpt>
      <trkpt lat="22.4991211487" lon="114.2313368781"><ele>218.000</ele></trkpt>
      <trkpt lat="22.4992008081" lon="114.2313299217"><ele>218.000</ele></trkpt>
      <trkpt lat="22.4992452607" lon="114.2313418832"><ele>220.000</ele></trkpt>
      <trkpt lat="22.4993022022" lon="114.2313807599"><ele>219.000</ele></trkpt>
      <trkpt lat="22.4993936013" lon="114.2314001841"><ele>220.000</ele></trkpt>
      <trkpt lat="22.4995730299" lon="114.2314223588"><ele>220.000</ele></trkpt>
      <trkpt lat="22.4997524585" lon="114.2314445335"><ele>220.000</ele></trkpt>
      <trkpt lat="22.4998180209" lon="114.2314526361"><ele>220.000</ele></trkpt>
      <trkpt lat="22.4999557998" lon="114.2314460233"><ele>220.000</ele></trkpt>
      <trkpt lat="22.5000087104" lon="114.2314415541"><ele>220.000</ele></trkpt>
      <trkpt lat="22.5000543843" lon="114.2314470338"><ele>220.000</ele></trkpt>
      <trkpt lat="22.5001224585" lon="114.2314909980"><ele>220.000</ele></trkpt>
      <trkpt lat="22.5001879896" lon="114.2314980697"><ele>220.000</ele></trkpt>
      <trkpt lat="22.5003430653" lon="114.2315075187"><ele>218.000</ele></trkpt>
      <trkpt lat="22.5003780137" lon="114.2315051903"><ele>218.000</ele></trkpt>
      <trkpt lat="22.5004850562" lon="114.2314629469"><ele>213.000</ele></trkpt>
      <trkpt lat="22.5005363038" lon="114.2314628018"><ele>212.000</ele></trkpt>
      <trkpt lat="22.5006407862" lon="114.2315134766"><ele>210.000</ele></trkpt>
      <trkpt lat="22.5007138472" lon="114.2315517576"><ele>208.000</ele></trkpt>
      <trkpt lat="22.5007837767" lon="114.2316366574"><ele>208.000</ele></trkpt>
      <trkpt lat="22.5007930537" lon="114.2316551458"><ele>208.000</ele></trkpt>
      <trkpt lat="22.5008580142" lon="114.2317734270"><ele>204.000</ele></trkpt>
      <trkpt lat="22.5008997120" lon="114.2319625474"><ele>202.000</ele></trkpt>
      <trkpt lat="22.5009231667" lon="114.2320689268"><ele>200.000</ele></trkpt>
      <trkpt lat="22.5009402739" lon="114.2322425270"><ele>196.000</ele></trkpt>
      <trkpt lat="22.5009471117" lon="114.2323422521"><ele>194.000</ele></trkpt>
      <trkpt lat="22.5009608036" lon="114.2324678411"><ele>192.000</ele></trkpt>
      <trkpt lat="22.5009788028" lon="114.2326612452"><ele>190.000</ele></trkpt>
      <trkpt lat="22.5009835299" lon="114.2327120394"><ele>188.000</ele></trkpt>
      <trkpt lat="22.5009932537" lon="114.2329061292"><ele>184.000</ele></trkpt>
      <trkpt lat="22.5010012240" lon="114.2330652200"><ele>180.000</ele></trkpt>
      <trkpt lat="22.5010162873" lon="114.2332589146"><ele>178.000</ele></trkpt>
      <trkpt lat="22.5010307289" lon="114.2334446166"><ele>176.000</ele></trkpt>
      <trkpt lat="22.5010708096" lon="114.2336341416"><ele>172.000</ele></trkpt>
      <trkpt lat="22.5010987769" lon="114.2337663881"><ele>172.000</ele></trkpt>
      <trkpt lat="22.5011328688" lon="114.2339132986"><ele>170.000</ele></trkpt>
      <trkpt lat="22.5011407013" lon="114.2340573606"><ele>166.000</ele></trkpt>
      <trkpt lat="22.5010960997" lon="114.2342457123"><ele>162.000</ele></trkpt>
      <trkpt lat="22.5010906700" lon="114.2342686417"><ele>161.000</ele></trkpt>
      <trkpt lat="22.5010827653" lon="114.2343533846"><ele>161.000</ele></trkpt>
      <trkpt lat="22.5011116192" lon="114.2344494357"><ele>160.000</ele></trkpt>
      <trkpt lat="22.5011660984" lon="114.2345280817"><ele>156.000</ele></trkpt>
      <trkpt lat="22.5012698001" lon="114.2346872196"><ele>150.000</ele></trkpt>
      <trkpt lat="22.5012837358" lon="114.2347086050"><ele>151.000</ele></trkpt>
      <trkpt lat="22.5013693261" lon="114.2348334276"><ele>147.000</ele></trkpt>
      <trkpt lat="22.5014255111" lon="114.2348894497"><ele>146.000</ele></trkpt>
      <trkpt lat="22.5015324624" lon="114.2349521503"><ele>144.000</ele></trkpt>
      <trkpt lat="22.5015553920" lon="114.2349732007"><ele>144.000</ele></trkpt>
      <trkpt lat="22.5015651414" lon="114.2349826999"><ele>144.000</ele></trkpt>
      <trkpt lat="22.5015766043" lon="114.2349986238"><ele>142.000</ele></trkpt>
      <trkpt lat="22.5015990579" lon="114.2350372939"><ele>142.000</ele></trkpt>
      <trkpt lat="22.5016215046" lon="114.2350953041"><ele>141.000</ele></trkpt>
      <trkpt lat="22.5016754008" lon="114.2351871483"><ele>138.000</ele></trkpt>
      <trkpt lat="22.5017629861" lon="114.2353128471"><ele>132.000</ele></trkpt>
      <trkpt lat="22.5018353446" lon="114.2353682544"><ele>130.000</ele></trkpt>
      <trkpt lat="22.5019466606" lon="114.2354223952"><ele>128.000</ele></trkpt>
      <trkpt lat="22.5020555480" lon="114.2354747761"><ele>128.000</ele></trkpt>
      <trkpt lat="22.5020995616" lon="114.2355009573"><ele>126.000</ele></trkpt>
      <trkpt lat="22.5021405654" lon="114.2355096436"><ele>126.000</ele></trkpt>
      <trkpt lat="22.5022042960" lon="114.2355009528"><ele>124.000</ele></trkpt>
      <trkpt lat="22.5022379000" lon="114.2354710627"><ele>123.000</ele></trkpt>
      <trkpt lat="22.5023527617" lon="114.2353352342"><ele>116.000</ele></trkpt>
      <trkpt lat="22.5023779081" lon="114.2353191798"><ele>116.000</ele></trkpt>
      <trkpt lat="22.5024211826" lon="114.2353168752"><ele>114.000</ele></trkpt>
      <trkpt lat="22.5024914453" lon="114.2353491319"><ele>108.000</ele></trkpt>
      <trkpt lat="22.5025826005" lon="114.2354169776"><ele>102.000</ele></trkpt>
      <trkpt lat="22.5026761846" lon="114.2354854270"><ele>100.000</ele></trkpt>
      <trkpt lat="22.5027004988" lon="114.2355228154"><ele>98.000</ele></trkpt>
      <trkpt lat="22.5027192465" lon="114.2355708726"><ele>99.000</ele></trkpt>
      <trkpt lat="22.5027661150" lon="114.2357418056"><ele>97.000</ele></trkpt>
      <trkpt lat="22.5027988694" lon="114.2358864923"><ele>95.000</ele></trkpt>
      <trkpt lat="22.5028198808" lon="114.2359175525"><ele>96.000</ele></trkpt>
      <trkpt lat="22.5028546294" lon="114.2359429817"><ele>92.000</ele></trkpt>
      <trkpt lat="22.5028958748" lon="114.2359578689"><ele>92.000</ele></trkpt>
      <trkpt lat="22.5029190050" lon="114.2359732829"><ele>92.000</ele></trkpt>
      <trkpt lat="22.5029487358" lon="114.2360147653"><ele>90.000</ele></trkpt>
      <trkpt lat="22.5030235878" lon="114.2361889568"><ele>88.000</ele></trkpt>
      <trkpt lat="22.5030996506" lon="114.2363652529"><ele>85.000</ele></trkpt>
      <trkpt lat="22.5031320674" lon="114.2364403879"><ele>80.000</ele></trkpt>
    </trkseg>
  </trk>
</gpx>
