<?xml version="1.0" encoding="UTF-8"?>
<gpx xmlns:xsi="http://www.w3.org/2001/XMLSchema-instance"
     xsi:schemaLocation="http://www.topografix.com/GPX/1/1 http://www.topografix.com/GPX/1/1/gpx.xsd"
     version="1.1" creator="json3d_batch_to_gpx"
     xmlns="http://www.topografix.com/GPX/1/1">
  <metadata>
    <name>PingChauCountryTrail</name>
  </metadata>
  <trk>
    <name>PingChauCountryTrail</name>
    <type>hike</type>
    <trkseg>
      <trkpt lat="22.5455479543" lon="114.4307013875"><ele>4.000</ele></trkpt>
      <trkpt lat="22.5454910704" lon="114.4307450911"><ele>4.000</ele></trkpt>
      <trkpt lat="22.5454437556" lon="114.4307820829"><ele>10.000</ele></trkpt>
      <trkpt lat="22.5453860122" lon="114.4308285399"><ele>8.000</ele></trkpt>
      <trkpt lat="22.5453210622" lon="114.4308741225"><ele>6.000</ele></trkpt>
      <trkpt lat="22.5452617258" lon="114.4309154037"><ele>4.000</ele></trkpt>
      <trkpt lat="22.5452316300" lon="114.4309352060"><ele>4.000</ele></trkpt>
      <trkpt lat="22.5452197204" lon="114.4309423694"><ele>4.000</ele></trkpt>
      <trkpt lat="22.5452112166" lon="114.4309463533"><ele>4.000</ele></trkpt>
      <trkpt lat="22.5452034603" lon="114.4309476505"><ele>4.000</ele></trkpt>
      <trkpt lat="22.5451951970" lon="114.4309463240"><ele>4.000</ele></trkpt>
      <trkpt lat="22.5451875047" lon="114.4309441847"><ele>4.000</ele></trkpt>
      <trkpt lat="22.5451791891" lon="114.4309393962"><ele>4.000</ele></trkpt>
      <trkpt lat="22.5451476976" lon="114.4309212593"><ele>4.000</ele></trkpt>
      <trkpt lat="22.5451041410" lon="114.4309697886"><ele>4.000</ele></trkpt>
      <trkpt lat="22.5450574441" lon="114.4310117461"><ele>4.000</ele></trkpt>
      <trkpt lat="22.5449984056" lon="114.4310605659"><ele>4.000</ele></trkpt>
      <trkpt lat="22.5449628640" lon="114.4311075825"><ele>4.000</ele></trkpt>
      <trkpt lat="22.5449453401" lon="114.4311313965"><ele>6.000</ele></trkpt>
      <trkpt lat="22.5449204605" lon="114.4311544105"><ele>4.000</ele></trkpt>
      <trkpt lat="22.5448877007" lon="114.4311822388"><ele>7.000</ele></trkpt>
      <trkpt lat="22.5448370200" lon="114.4312159761"><ele>6.000</ele></trkpt>
      <trkpt lat="22.5448020525" lon="114.4312488021"><ele>6.000</ele></trkpt>
      <trkpt lat="22.5447609876" lon="114.4312731592"><ele>8.000</ele></trkpt>
      <trkpt lat="22.5447146950" lon="114.4312918690"><ele>6.000</ele></trkpt>
      <trkpt lat="22.5446902263" lon="114.4313096788"><ele>6.000</ele></trkpt>
      <trkpt lat="22.5446622449" lon="114.4313406374"><ele>6.000</ele></trkpt>
      <trkpt lat="22.5445809074" lon="114.4314410376"><ele>7.000</ele></trkpt>
      <trkpt lat="22.5445564171" lon="114.4314720035"><ele>7.000</ele></trkpt>
      <trkpt lat="22.5445205733" lon="114.4315067069"><ele>6.000</ele></trkpt>
      <trkpt lat="22.5444445283" lon="114.4315723474"><ele>7.000</ele></trkpt>
      <trkpt lat="22.5443841817" lon="114.4316464734"><ele>6.000</ele></trkpt>
      <trkpt lat="22.5442696369" lon="114.4317703052"><ele>8.000</ele></trkpt>
      <trkpt lat="22.5442007622" lon="114.4318340201"><ele>10.000</ele></trkpt>
      <trkpt lat="22.5441862286" lon="114.4318694635"><ele>6.000</ele></trkpt>
      <trkpt lat="22.5441881315" lon="114.4319285837"><ele>7.000</ele></trkpt>
      <trkpt lat="22.5441955683" lon="114.4319613794"><ele>7.000</ele></trkpt>
      <trkpt lat="22.5441990016" lon="114.4319995427"><ele>10.000</ele></trkpt>
      <trkpt lat="22.5442003983" lon="114.4320634985"><ele>12.000</ele></trkpt>
      <trkpt lat="22.5441926962" lon="114.4321290435"><ele>12.000</ele></trkpt>
      <trkpt lat="22.5441897138" lon="114.4321903100"><ele>12.000</ele></trkpt>
      <trkpt lat="22.5441926622" lon="114.4322198738"><ele>10.000</ele></trkpt>
      <trkpt lat="22.5441996055" lon="114.4322483697"><ele>10.000</ele></trkpt>
      <trkpt lat="22.5442155126" lon="114.4322908549"><ele>12.000</ele></trkpt>
      <trkpt lat="22.5442214316" lon="114.4323360098"><ele>13.000</ele></trkpt>
      <trkpt lat="22.5442243902" lon="114.4323591243"><ele>14.000</ele></trkpt>
      <trkpt lat="22.5442328495" lon="114.4323763373"><ele>14.000</ele></trkpt>
      <trkpt lat="22.5442395562" lon="114.4324082295"><ele>13.000</ele></trkpt>
      <trkpt lat="22.5442389504" lon="114.4324371558"><ele>13.000</ele></trkpt>
      <trkpt lat="22.5442417105" lon="114.4324618702"><ele>11.000</ele></trkpt>
      <trkpt lat="22.5442522697" lon="114.4325101027"><ele>12.000</ele></trkpt>
      <trkpt lat="22.5442806895" lon="114.4325921155"><ele>14.000</ele></trkpt>
      <trkpt lat="22.5442862462" lon="114.4326180405"><ele>14.000</ele></trkpt>
      <trkpt lat="22.5442743938" lon="114.4326788872"><ele>14.000</ele></trkpt>
      <trkpt lat="22.5442653686" lon="114.4327216590"><ele>14.000</ele></trkpt>
      <trkpt lat="22.5442574996" lon="114.4327421346"><ele>13.000</ele></trkpt>
      <trkpt lat="22.5442417827" lon="114.4327686231"><ele>13.000</ele></trkpt>
      <trkpt lat="22.5442243938" lon="114.4327902856"><ele>13.000</ele></trkpt>
      <trkpt lat="22.5441840403" lon="114.4328203451"><ele>14.000</ele></trkpt>
      <trkpt lat="22.5441204438" lon="114.4328735563"><ele>12.000</ele></trkpt>
      <trkpt lat="22.5440654338" lon="114.4329094653"><ele>12.000</ele></trkpt>
      <trkpt lat="22.5440287227" lon="114.4329323579"><ele>12.000</ele></trkpt>
      <trkpt lat="22.5439889118" lon="114.4329504783"><ele>12.000</ele></trkpt>
      <trkpt lat="22.5438978066" lon="114.4329842539"><ele>12.000</ele></trkpt>
      <trkpt lat="22.5438196930" lon="114.4330136807"><ele>12.000</ele></trkpt>
      <trkpt lat="22.5437459141" lon="114.4330446709"><ele>10.000</ele></trkpt>
      <trkpt lat="22.5436771911" lon="114.4330780055"><ele>10.000</ele></trkpt>
      <trkpt lat="22.5435875053" lon="114.4331113013"><ele>10.000</ele></trkpt>
      <trkpt lat="22.5435489913" lon="114.4331361484"><ele>10.000</ele></trkpt>
      <trkpt lat="22.5434377571" lon="114.4332195371"><ele>12.000</ele></trkpt>
      <trkpt lat="22.5433288885" lon="114.4333183640"><ele>10.000</ele></trkpt>
      <trkpt lat="22.5432738427" lon="114.4333761352"><ele>10.000</ele></trkpt>
      <trkpt lat="22.5432387845" lon="114.4334292848"><ele>9.000</ele></trkpt>
      <trkpt lat="22.5432156064" lon="114.4334916441"><ele>7.000</ele></trkpt>
      <trkpt lat="22.5431924402" lon="114.4335464926"><ele>6.000</ele></trkpt>
      <trkpt lat="22.5431767852" lon="114.4336030883"><ele>7.000</ele></trkpt>
      <trkpt lat="22.5431665219" lon="114.4336440930"><ele>6.000</ele></trkpt>
      <trkpt lat="22.5431535305" lon="114.4337128270"><ele>4.000</ele></trkpt>
      <trkpt lat="22.5431292601" lon="114.4337867401"><ele>6.000</ele></trkpt>
      <trkpt lat="22.5431098540" lon="114.4338398621"><ele>6.000</ele></trkpt>
      <trkpt lat="22.5430848562" lon="114.4338976100"><ele>9.000</ele></trkpt>
      <trkpt lat="22.5430501027" lon="114.4339657067"><ele>8.000</ele></trkpt>
      <trkpt lat="22.5430165717" lon="114.4340164451"><ele>8.000</ele></trkpt>
      <trkpt lat="22.5429626934" lon="114.4340915806"><ele>10.000</ele></trkpt>
      <trkpt lat="22.5429285623" lon="114.4341442455"><ele>12.000</ele></trkpt>
      <trkpt lat="22.5428770333" lon="114.4342438212"><ele>11.000</ele></trkpt>
      <trkpt lat="22.5428105431" lon="114.4343613731"><ele>11.000</ele></trkpt>
      <trkpt lat="22.5427381534" lon="114.4344326156"><ele>12.000</ele></trkpt>
      <trkpt lat="22.5426663918" lon="114.4344848897"><ele>12.000</ele></trkpt>
      <trkpt lat="22.5425982097" lon="114.4345400635"><ele>9.000</ele></trkpt>
      <trkpt lat="22.5425683007" lon="114.4345670161"><ele>11.000</ele></trkpt>
      <trkpt lat="22.5424761594" lon="114.4346633000"><ele>8.000</ele></trkpt>
      <trkpt lat="22.5423911925" lon="114.4347557387"><ele>8.000</ele></trkpt>
      <trkpt lat="22.5423672499" lon="114.4347865597"><ele>7.000</ele></trkpt>
      <trkpt lat="22.5423504764" lon="114.4348173940"><ele>7.000</ele></trkpt>
      <trkpt lat="22.5423420537" lon="114.4348546746"><ele>6.000</ele></trkpt>
      <trkpt lat="22.5423300498" lon="114.4348906614"><ele>5.000</ele></trkpt>
      <trkpt lat="22.5423085027" lon="114.4349176293"><ele>6.000</ele></trkpt>
      <trkpt lat="22.5422642416" lon="114.4349548423"><ele>6.000</ele></trkpt>
      <trkpt lat="22.5422331502" lon="114.4349740756"><ele>6.000</ele></trkpt>
      <trkpt lat="22.5421629339" lon="114.4350362242"><ele>5.000</ele></trkpt>
      <trkpt lat="22.5421305588" lon="114.4349995017"><ele>6.000</ele></trkpt>
      <trkpt lat="22.5420639640" lon="114.4350648466"><ele>6.000</ele></trkpt>
      <trkpt lat="22.5420063312" lon="114.4351040197"><ele>6.000</ele></trkpt>
      <trkpt lat="22.5419177776" lon="114.4352108456"><ele>6.000</ele></trkpt>
      <trkpt lat="22.5418243830" lon="114.4353018310"><ele>6.000</ele></trkpt>
      <trkpt lat="22.5417674634" lon="114.4354012360"><ele>4.000</ele></trkpt>
      <trkpt lat="22.5417210675" lon="114.4355120082"><ele>4.000</ele></trkpt>
      <trkpt lat="22.5416471356" lon="114.4356434666"><ele>6.000</ele></trkpt>
      <trkpt lat="22.5415884990" lon="114.4357384370"><ele>4.000</ele></trkpt>
      <trkpt lat="22.5415574096" lon="114.4357563840"><ele>4.000</ele></trkpt>
      <trkpt lat="22.5415262921" lon="114.4357923358"><ele>5.000</ele></trkpt>
      <trkpt lat="22.5415154880" lon="114.4358244671"><ele>5.000</ele></trkpt>
      <trkpt lat="22.5415190286" lon="114.4358514806"><ele>5.000</ele></trkpt>
      <trkpt lat="22.5415381078" lon="114.4358733786"><ele>5.000</ele></trkpt>
      <trkpt lat="22.5414937346" lon="114.4359800391"><ele>6.000</ele></trkpt>
      <trkpt lat="22.5414924860" lon="114.4360134744"><ele>6.000</ele></trkpt>
      <trkpt lat="22.5414744898" lon="114.4360610249"><ele>6.000</ele></trkpt>
      <trkpt lat="22.5414529165" lon="114.4361047103"><ele>6.000</ele></trkpt>
      <trkpt lat="22.5414318395" lon="114.4361373677"><ele>6.000</ele></trkpt>
      <trkpt lat="22.5414278689" lon="114.4362807502"><ele>6.000</ele></trkpt>
      <trkpt lat="22.5414311544" lon="114.4364751447"><ele>4.000</ele></trkpt>
      <trkpt lat="22.5414335065" lon="114.4366143187"><ele>4.000</ele></trkpt>
      <trkpt lat="22.5414668093" lon="114.4368054114"><ele>4.000</ele></trkpt>
      <trkpt lat="22.5414858404" lon="114.4369146129"><ele>4.000</ele></trkpt>
      <trkpt lat="22.5415336576" lon="114.4371021015"><ele>9.000</ele></trkpt>
      <trkpt lat="22.5415417715" lon="114.4371339159"><ele>10.000</ele></trkpt>
      <trkpt lat="22.5416145373" lon="114.4372729900"><ele>11.000</ele></trkpt>
      <trkpt lat="22.5416748507" lon="114.4373956390"><ele>10.000</ele></trkpt>
      <trkpt lat="22.5417616427" lon="114.4375661439"><ele>11.000</ele></trkpt>
      <trkpt lat="22.5418251706" lon="114.4376909464"><ele>10.000</ele></trkpt>
      <trkpt lat="22.5418960519" lon="114.4378697742"><ele>12.000</ele></trkpt>
      <trkpt lat="22.5419669330" lon="114.4380486022"><ele>9.000</ele></trkpt>
      <trkpt lat="22.5419837875" lon="114.4380911250"><ele>8.000</ele></trkpt>
      <trkpt lat="22.5420265356" lon="114.4382800277"><ele>4.000</ele></trkpt>
      <trkpt lat="22.5420413486" lon="114.4383454866"><ele>4.000</ele></trkpt>
      <trkpt lat="22.5420421958" lon="114.4385399119"><ele>6.000</ele></trkpt>
      <trkpt lat="22.5420426644" lon="114.4386474928"><ele>8.000</ele></trkpt>
      <trkpt lat="22.5420013838" lon="114.4388367734"><ele>8.000</ele></trkpt>
      <trkpt lat="22.5419958069" lon="114.4388623443"><ele>10.000</ele></trkpt>
      <trkpt lat="22.5419267252" lon="114.4390419865"><ele>6.000</ele></trkpt>
      <trkpt lat="22.5419025090" lon="114.4391049587"><ele>6.000</ele></trkpt>
      <trkpt lat="22.5418193336" lon="114.4392775403"><ele>4.000</ele></trkpt>
      <trkpt lat="22.5417361580" lon="114.4394501216"><ele>8.000</ele></trkpt>
      <trkpt lat="22.5417305684" lon="114.4394617192"><ele>8.000</ele></trkpt>
      <trkpt lat="22.5416017420" lon="114.4395979844"><ele>10.000</ele></trkpt>
      <trkpt lat="22.5414836514" lon="114.4397228936"><ele>12.000</ele></trkpt>
      <trkpt lat="22.5414529747" lon="114.4397493932"><ele>14.000</ele></trkpt>
      <trkpt lat="22.5414326089" lon="114.4397840784"><ele>14.000</ele></trkpt>
      <trkpt lat="22.5414229912" lon="114.4398213561"><ele>14.000</ele></trkpt>
      <trkpt lat="22.5414193545" lon="114.4398535006"><ele>12.000</ele></trkpt>
      <trkpt lat="22.5414204904" lon="114.4398895126"><ele>8.000</ele></trkpt>
      <trkpt lat="22.5414013076" lon="114.4399319157"><ele>10.000</ele></trkpt>
      <trkpt lat="22.5413869038" lon="114.4399730418"><ele>10.000</ele></trkpt>
      <trkpt lat="22.5413868260" lon="114.4400206257"><ele>10.000</ele></trkpt>
      <trkpt lat="22.5413783735" lon="114.4400759105"><ele>10.000</ele></trkpt>
      <trkpt lat="22.5413662885" lon="114.4401607675"><ele>8.000</ele></trkpt>
      <trkpt lat="22.5413481920" lon="114.4402687616"><ele>11.000</ele></trkpt>
      <trkpt lat="22.5413345587" lon="114.4403263162"><ele>9.000</ele></trkpt>
      <trkpt lat="22.5413422196" lon="114.4405205677"><ele>11.000</ele></trkpt>
      <trkpt lat="22.5413425274" lon="114.4405283710"><ele>11.000</ele></trkpt>
      <trkpt lat="22.5413372623" lon="114.4406217335"><ele>10.000</ele></trkpt>
      <trkpt lat="22.5413086751" lon="114.4408137089"><ele>10.000</ele></trkpt>
      <trkpt lat="22.5412889591" lon="114.4409461098"><ele>6.000</ele></trkpt>
      <trkpt lat="22.5412193501" lon="114.4410803067"><ele>6.000</ele></trkpt>
      <trkpt lat="22.5411407702" lon="114.4411897952"><ele>5.000</ele></trkpt>
      <trkpt lat="22.5410505230" lon="114.4412444429"><ele>4.000</ele></trkpt>
      <trkpt lat="22.5408717865" lon="114.4412723399"><ele>7.000</ele></trkpt>
      <trkpt lat="22.5408208241" lon="114.4412802941"><ele>8.000</ele></trkpt>
      <trkpt lat="22.5407381000" lon="114.4412514091"><ele>8.000</ele></trkpt>
      <trkpt lat="22.5406642149" lon="114.4411625344"><ele>10.000</ele></trkpt>
      <trkpt lat="22.5406110274" lon="114.4410245260"><ele>11.000</ele></trkpt>
      <trkpt lat="22.5405931486" lon="114.4409358445"><ele>10.000</ele></trkpt>
      <trkpt lat="22.5405673399" lon="114.4408919320"><ele>10.000</ele></trkpt>
      <trkpt lat="22.5405311193" lon="114.4408210328"><ele>10.000</ele></trkpt>
      <trkpt lat="22.5405193705" lon="114.4407882507"><ele>10.000</ele></trkpt>
      <trkpt lat="22.5405039137" lon="114.4407472948"><ele>10.000</ele></trkpt>
      <trkpt lat="22.5404993112" lon="114.4407289517"><ele>10.000</ele></trkpt>
      <trkpt lat="22.5404926036" lon="114.4406947686"><ele>10.000</ele></trkpt>
      <trkpt lat="22.5404881666" lon="114.4406801685"><ele>10.000</ele></trkpt>
      <trkpt lat="22.5404537138" lon="114.4405873912"><ele>10.000</ele></trkpt>
      <trkpt lat="22.5404014420" lon="114.4404507197"><ele>10.000</ele></trkpt>
      <trkpt lat="22.5403970561" lon="114.4403955616"><ele>10.000</ele></trkpt>
      <trkpt lat="22.5403911256" lon="114.4403698288"><ele>10.000</ele></trkpt>
      <trkpt lat="22.5403541927" lon="114.4403080286"><ele>14.000</ele></trkpt>
      <trkpt lat="22.5403184996" lon="114.4402192242"><ele>16.000</ele></trkpt>
      <trkpt lat="22.5402959169" lon="114.4401484484"><ele>18.000</ele></trkpt>
      <trkpt lat="22.5402792488" lon="114.4401136934"><ele>23.000</ele></trkpt>
      <trkpt lat="22.5402547665" lon="114.4400736071"><ele>26.000</ele></trkpt>
      <trkpt lat="22.5401957439" lon="114.4400100027"><ele>24.000</ele></trkpt>
      <trkpt lat="22.5401301472" lon="114.4399745182"><ele>22.000</ele></trkpt>
      <trkpt lat="22.5400561349" lon="114.4399409408"><ele>22.000</ele></trkpt>
      <trkpt lat="22.5399295907" lon="114.4398879729"><ele>22.000</ele></trkpt>
      <trkpt lat="22.5398006046" lon="114.4398671526"><ele>22.000</ele></trkpt>
      <trkpt lat="22.5397229703" lon="114.4398567166"><ele>21.000</ele></trkpt>
      <trkpt lat="22.5396513221" lon="114.4398385762"><ele>20.000</ele></trkpt>
      <trkpt lat="22.5395952314" lon="114.4398037477"><ele>22.000</ele></trkpt>
      <trkpt lat="22.5395295600" lon="114.4397830464"><ele>22.000</ele></trkpt>
      <trkpt lat="22.5394483583" lon="114.4397623157"><ele>26.000</ele></trkpt>
      <trkpt lat="22.5393850478" lon="114.4397596236"><ele>26.000</ele></trkpt>
      <trkpt lat="22.5392859749" lon="114.4397092814"><ele>25.000</ele></trkpt>
      <trkpt lat="22.5392310663" lon="114.4396821701"><ele>26.000</ele></trkpt>
      <trkpt lat="22.5391797187" lon="114.4396692127"><ele>26.000</ele></trkpt>
      <trkpt lat="22.5391331133" lon="114.4396781273"><ele>26.000</ele></trkpt>
      <trkpt lat="22.5391056327" lon="114.4396806465"><ele>26.000</ele></trkpt>
      <trkpt lat="22.5390781816" lon="114.4396651621"><ele>26.000</ele></trkpt>
      <trkpt lat="22.5389433143" lon="114.4395877450"><ele>28.000</ele></trkpt>
      <trkpt lat="22.5388991466" lon="114.4395670847"><ele>32.000</ele></trkpt>
      <trkpt lat="22.5388549747" lon="114.4395489975"><ele>32.000</ele></trkpt>
      <trkpt lat="22.5388000841" lon="114.4395103123"><ele>35.000</ele></trkpt>
      <trkpt lat="22.5386485367" lon="114.4394058576"><ele>40.000</ele></trkpt>
      <trkpt lat="22.5385996175" lon="114.4393684699"><ele>42.000</ele></trkpt>
      <trkpt lat="22.5385521172" lon="114.4393237036"><ele>42.000</ele></trkpt>
      <trkpt lat="22.5385257203" lon="114.4392641613"><ele>42.000</ele></trkpt>
      <trkpt lat="22.5385174203" lon="114.4392255653"><ele>40.000</ele></trkpt>
      <trkpt lat="22.5384864467" lon="114.4391727793"><ele>42.000</ele></trkpt>
      <trkpt lat="22.5384554555" lon="114.4391302821"><ele>47.000</ele></trkpt>
      <trkpt lat="22.5384423670" lon="114.4390981067"><ele>49.000</ele></trkpt>
      <trkpt lat="22.5384185326" lon="114.4390620526"><ele>48.000</ele></trkpt>
      <trkpt lat="22.5384138355" lon="114.4390118885"><ele>48.000</ele></trkpt>
      <trkpt lat="22.5384115433" lon="114.4389527272"><ele>46.000</ele></trkpt>
      <trkpt lat="22.5384152062" lon="114.4389038650"><ele>48.000</ele></trkpt>
      <trkpt lat="22.5384212844" lon="114.4388395750"><ele>48.000</ele></trkpt>
      <trkpt lat="22.5384153423" lon="114.4388202732"><ele>48.000</ele></trkpt>
      <trkpt lat="22.5383962644" lon="114.4387983753"><ele>50.000</ele></trkpt>
      <trkpt lat="22.5383807823" lon="114.4387687676"><ele>48.000</ele></trkpt>
      <trkpt lat="22.5383688990" lon="114.4387301640"><ele>49.000</ele></trkpt>
      <trkpt lat="22.5383659573" lon="114.4386866671"><ele>50.000</ele></trkpt>
      <trkpt lat="22.5383761961" lon="114.4386504440"><ele>50.000</ele></trkpt>
      <trkpt lat="22.5383738548" lon="114.4386208611"><ele>50.000</ele></trkpt>
      <trkpt lat="22.5383500044" lon="114.4385950950"><ele>50.000</ele></trkpt>
      <trkpt lat="22.5383272076" lon="114.4385639036"><ele>50.000</ele></trkpt>
      <trkpt lat="22.5383154832" lon="114.4385191546"><ele>51.000</ele></trkpt>
      <trkpt lat="22.5383072299" lon="114.4384522654"><ele>54.000</ele></trkpt>
      <trkpt lat="22.5383097071" lon="114.4383982576"><ele>52.000</ele></trkpt>
      <trkpt lat="22.5383193558" lon="114.4383416900"><ele>51.000</ele></trkpt>
      <trkpt lat="22.5383409256" lon="114.4383005782"><ele>52.000</ele></trkpt>
      <trkpt lat="22.5383601318" lon="114.4382440286"><ele>52.000</ele></trkpt>
      <trkpt lat="22.5383590729" lon="114.4381604355"><ele>52.000</ele></trkpt>
      <trkpt lat="22.5383782645" lon="114.4381128886"><ele>52.000</ele></trkpt>
      <trkpt lat="22.5384058056" lon="114.4380730731"><ele>51.000</ele></trkpt>
      <trkpt lat="22.5384142541" lon="114.4380203616"><ele>50.000</ele></trkpt>
      <trkpt lat="22.5384047842" lon="114.4379663312"><ele>50.000</ele></trkpt>
      <trkpt lat="22.5384048906" lon="114.4379007438"><ele>50.000</ele></trkpt>
      <trkpt lat="22.5383966433" lon="114.4378299964"><ele>50.000</ele></trkpt>
      <trkpt lat="22.5384124822" lon="114.4376396940"><ele>42.000</ele></trkpt>
      <trkpt lat="22.5384418767" lon="114.4374478639"><ele>41.000</ele></trkpt>
      <trkpt lat="22.5384488451" lon="114.4374023877"><ele>41.000</ele></trkpt>
      <trkpt lat="22.5384608041" lon="114.4373079896"><ele>40.000</ele></trkpt>
      <trkpt lat="22.5384657057" lon="114.4372321234"><ele>36.000</ele></trkpt>
      <trkpt lat="22.5384622215" lon="114.4371703876"><ele>37.000</ele></trkpt>
      <trkpt lat="22.5384395655" lon="114.4371446240"><ele>38.000</ele></trkpt>
      <trkpt lat="22.5383841178" lon="114.4371334768"><ele>43.000</ele></trkpt>
      <trkpt lat="22.5383428395" lon="114.4371200086"><ele>44.000</ele></trkpt>
      <trkpt lat="22.5383106248" lon="114.4370955131"><ele>44.000</ele></trkpt>
      <trkpt lat="22.5382832661" lon="114.4370221587"><ele>44.000</ele></trkpt>
      <trkpt lat="22.5382785505" lon="114.4369835696"><ele>42.000</ele></trkpt>
      <trkpt lat="22.5382655157" lon="114.4369179577"><ele>42.000</ele></trkpt>
      <trkpt lat="22.5382429316" lon="114.4368471835"><ele>44.000</ele></trkpt>
      <trkpt lat="22.5382074147" lon="114.4366565578"><ele>47.000</ele></trkpt>
      <trkpt lat="22.5382026633" lon="114.4366310562"><ele>47.000</ele></trkpt>
      <trkpt lat="22.5381884482" lon="114.4365564394"><ele>48.000</ele></trkpt>
      <trkpt lat="22.5381646390" lon="114.4365049546"><ele>48.000</ele></trkpt>
      <trkpt lat="22.5381325415" lon="114.4364071565"><ele>48.000</ele></trkpt>
      <trkpt lat="22.5381051771" lon="114.4363376596"><ele>45.000</ele></trkpt>
      <trkpt lat="22.5380837957" lon="114.4362617444"><ele>46.000</ele></trkpt>
      <trkpt lat="22.5380779217" lon="114.4362000044"><ele>47.000</ele></trkpt>
      <trkpt lat="22.5380649239" lon="114.4361112438"><ele>44.000</ele></trkpt>
      <trkpt lat="22.5380650254" lon="114.4360482288"><ele>44.000</ele></trkpt>
      <trkpt lat="22.5380734587" lon="114.4360045200"><ele>44.000</ele></trkpt>
      <trkpt lat="22.5380962329" lon="114.4359569796"><ele>48.000</ele></trkpt>
      <trkpt lat="22.5381142354" lon="114.4359055719"><ele>47.000</ele></trkpt>
      <trkpt lat="22.5381274963" lon="114.4358310075"><ele>50.000</ele></trkpt>
      <trkpt lat="22.5381366096" lon="114.4357542092"><ele>48.000</ele></trkpt>
      <trkpt lat="22.5381792052" lon="114.4356201955"><ele>46.000</ele></trkpt>
      <trkpt lat="22.5382677960" lon="114.4355033318"><ele>48.000</ele></trkpt>
      <trkpt lat="22.5383706711" lon="114.4353435335"><ele>44.000</ele></trkpt>
      <trkpt lat="22.5384067197" lon="114.4352875383"><ele>44.000</ele></trkpt>
      <trkpt lat="22.5384906004" lon="114.4351282268"><ele>41.000</ele></trkpt>
      <trkpt lat="22.5385552853" lon="114.4350190348"><ele>35.000</ele></trkpt>
      <trkpt lat="22.5386163622" lon="114.4349252683"><ele>34.000</ele></trkpt>
      <trkpt lat="22.5386522716" lon="114.4348816093"><ele>35.000</ele></trkpt>
      <trkpt lat="22.5386666793" lon="114.4348366251"><ele>37.000</ele></trkpt>
      <trkpt lat="22.5386632127" lon="114.4347633153"><ele>32.000</ele></trkpt>
      <trkpt lat="22.5386656867" lon="114.4347105924"><ele>34.000</ele></trkpt>
      <trkpt lat="22.5386873605" lon="114.4346038924"><ele>34.000</ele></trkpt>
      <trkpt lat="22.5386910332" lon="114.4345485994"><ele>36.000</ele></trkpt>
      <trkpt lat="22.5387078941" lon="114.4344637533"><ele>29.000</ele></trkpt>
      <trkpt lat="22.5387283061" lon="114.4343994896"><ele>28.000</ele></trkpt>
      <trkpt lat="22.5387570574" lon="114.4343493876"><ele>29.000</ele></trkpt>
      <trkpt lat="22.5388037078" lon="114.4343121788"><ele>28.000</ele></trkpt>
      <trkpt lat="22.5388371753" lon="114.4343006669"><ele>28.000</ele></trkpt>
      <trkpt lat="22.5388754370" lon="114.4342801610"><ele>28.000</ele></trkpt>
      <trkpt lat="22.5389684443" lon="114.4342006140"><ele>32.000</ele></trkpt>
      <trkpt lat="22.5390177807" lon="114.4341659677"><ele>32.000</ele></trkpt>
      <trkpt lat="22.5390477164" lon="114.4341222983"><ele>30.000</ele></trkpt>
      <trkpt lat="22.5390573369" lon="114.4340824496"><ele>29.000</ele></trkpt>
      <trkpt lat="22.5390813349" lon="114.4340169052"><ele>31.000</ele></trkpt>
      <trkpt lat="22.5391148998" lon="114.4339449499"><ele>37.000</ele></trkpt>
      <trkpt lat="22.5392022927" lon="114.4338293692"><ele>36.000</ele></trkpt>
      <trkpt lat="22.5392298676" lon="114.4337676897"><ele>35.000</ele></trkpt>
      <trkpt lat="22.5392422271" lon="114.4336949115"><ele>29.000</ele></trkpt>
      <trkpt lat="22.5391824475" lon="114.4336349533"><ele>30.000</ele></trkpt>
      <trkpt lat="22.5391338980" lon="114.4335941590"><ele>32.000</ele></trkpt>
      <trkpt lat="22.5390911488" lon="114.4335719788"><ele>32.000</ele></trkpt>
      <trkpt lat="22.5390493355" lon="114.4335552374"><ele>32.000</ele></trkpt>
      <trkpt lat="22.5389700142" lon="114.4335338422"><ele>30.000</ele></trkpt>
      <trkpt lat="22.5389439275" lon="114.4335157320"><ele>30.000</ele></trkpt>
      <trkpt lat="22.5389272075" lon="114.4334735598"><ele>30.000</ele></trkpt>
      <trkpt lat="22.5389254432" lon="114.4334133640"><ele>30.000</ele></trkpt>
      <trkpt lat="22.5389479203" lon="114.4333511978"><ele>32.000</ele></trkpt>
      <trkpt lat="22.5389958106" lon="114.4332469508"><ele>32.000</ele></trkpt>
      <trkpt lat="22.5390056755" lon="114.4332139248"><ele>32.000</ele></trkpt>
      <trkpt lat="22.5390491057" lon="114.4331346286"><ele>30.000</ele></trkpt>
      <trkpt lat="22.5390871496" lon="114.4330636097"><ele>30.000</ele></trkpt>
      <trkpt lat="22.5391177475" lon="114.4329951979"><ele>30.000</ele></trkpt>
      <trkpt lat="22.5391471371" lon="114.4329029650"><ele>31.000</ele></trkpt>
      <trkpt lat="22.5391723366" lon="114.4328322800"><ele>30.000</ele></trkpt>
      <trkpt lat="22.5392035485" lon="114.4327371710"><ele>30.000</ele></trkpt>
      <trkpt lat="22.5392610910" lon="114.4326112455"><ele>30.000</ele></trkpt>
      <trkpt lat="22.5392994137" lon="114.4325521578"><ele>30.000</ele></trkpt>
      <trkpt lat="22.5393437417" lon="114.4324725061"><ele>28.000</ele></trkpt>
      <trkpt lat="22.5393940187" lon="114.4324082967"><ele>26.000</ele></trkpt>
      <trkpt lat="22.5394299674" lon="114.4323389165"><ele>28.000</ele></trkpt>
      <trkpt lat="22.5394785313" lon="114.4322838079"><ele>27.000</ele></trkpt>
      <trkpt lat="22.5395089889" lon="114.4322284627"><ele>26.000</ele></trkpt>
      <trkpt lat="22.5395425000" lon="114.4321899427"><ele>26.000</ele></trkpt>
      <trkpt lat="22.5395843976" lon="114.4321360067"><ele>26.000</ele></trkpt>
      <trkpt lat="22.5397147427" lon="114.4320539397"><ele>28.000</ele></trkpt>
      <trkpt lat="22.5397817558" lon="114.4319820450"><ele>28.000</ele></trkpt>
      <trkpt lat="22.5398727803" lon="114.4318356033"><ele>27.000</ele></trkpt>
      <trkpt lat="22.5399075145" lon="114.4317790807"><ele>25.000</ele></trkpt>
      <trkpt lat="22.5399351030" lon="114.4317083986"><ele>24.000</ele></trkpt>
      <trkpt lat="22.5399602755" lon="114.4316544316"><ele>23.000</ele></trkpt>
      <trkpt lat="22.5399878537" lon="114.4315901800"><ele>22.000</ele></trkpt>
      <trkpt lat="22.5400225777" lon="114.4315400879"><ele>22.000</ele></trkpt>
      <trkpt lat="22.5400620694" lon="114.4314964351"><ele>24.000</ele></trkpt>
      <trkpt lat="22.5401099118" lon="114.4314605134"><ele>23.000</ele></trkpt>
      <trkpt lat="22.5401386439" lon="114.4314219853"><ele>23.000</ele></trkpt>
      <trkpt lat="22.5401650099" lon="114.4313693055"><ele>24.000</ele></trkpt>
      <trkpt lat="22.5401819714" lon="114.4313151522"><ele>24.000</ele></trkpt>
      <trkpt lat="22.5401866613" lon="114.4312754640"><ele>24.000</ele></trkpt>
      <trkpt lat="22.5402058671" lon="114.4312176266"><ele>23.000</ele></trkpt>
      <trkpt lat="22.5402454340" lon="114.4311263901"><ele>24.000</ele></trkpt>
      <trkpt lat="22.5402754907" lon="114.4310055573"><ele>25.000</ele></trkpt>
      <trkpt lat="22.5403126832" lon="114.4309053135"><ele>26.000</ele></trkpt>
      <trkpt lat="22.5403498137" lon="114.4308436513"><ele>28.000</ele></trkpt>
      <trkpt lat="22.5403964877" lon="114.4307910085"><ele>28.000</ele></trkpt>
      <trkpt lat="22.5404498178" lon="114.4307389582"><ele>25.000</ele></trkpt>
      <trkpt lat="22.5404790710" lon="114.4306934198"><ele>26.000</ele></trkpt>
      <trkpt lat="22.5405042340" lon="114.4306458820"><ele>26.000</ele></trkpt>
      <trkpt lat="22.5405347873" lon="114.4305254892"><ele>27.000</ele></trkpt>
      <trkpt lat="22.5405774572" lon="114.4304235295"><ele>24.000</ele></trkpt>
      <trkpt lat="22.5406098218" lon="114.4303541426"><ele>22.000</ele></trkpt>
      <trkpt lat="22.5406517229" lon="114.4302976324"><ele>23.000</ele></trkpt>
      <trkpt lat="22.5406840499" lon="114.4302606815"><ele>23.000</ele></trkpt>
      <trkpt lat="22.5407295179" lon="114.4302064652"><ele>21.000</ele></trkpt>
      <trkpt lat="22.5407811435" lon="114.4301551823"><ele>22.000</ele></trkpt>
      <trkpt lat="22.5408121049" lon="114.4301063036"><ele>21.000</ele></trkpt>
      <trkpt lat="22.5409047843" lon="114.4299394291"><ele>20.000</ele></trkpt>
      <trkpt lat="22.5409091448" lon="114.4299315777"><ele>20.000</ele></trkpt>
      <trkpt lat="22.5409738028" lon="114.4298378138"><ele>18.000</ele></trkpt>
      <trkpt lat="22.5410313108" lon="114.4297324627"><ele>22.000</ele></trkpt>
      <trkpt lat="22.5410588922" lon="114.4296656380"><ele>20.000</ele></trkpt>
      <trkpt lat="22.5410876704" lon="114.4295975293"><ele>21.000</ele></trkpt>
      <trkpt lat="22.5410973230" lon="114.4295371025"><ele>19.000</ele></trkpt>
      <trkpt lat="22.5410949901" lon="114.4295010885"><ele>18.000</ele></trkpt>
      <trkpt lat="22.5411022261" lon="114.4294573761"><ele>16.000</ele></trkpt>
      <trkpt lat="22.5411166787" lon="114.4293828116"><ele>18.000</ele></trkpt>
      <trkpt lat="22.5411442621" lon="114.4293147007"><ele>16.000</ele></trkpt>
      <trkpt lat="22.5411694327" lon="114.4292620179"><ele>16.000</ele></trkpt>
      <trkpt lat="22.5411981764" lon="114.4292157723"><ele>15.000</ele></trkpt>
      <trkpt lat="22.5412209627" lon="114.4291592278"><ele>16.000</ele></trkpt>
      <trkpt lat="22.5412485186" lon="114.4291091216"><ele>16.000</ele></trkpt>
      <trkpt lat="22.5412851135" lon="114.4290252433"><ele>14.000</ele></trkpt>
      <trkpt lat="22.5412965249" lon="114.4289677428"><ele>16.000</ele></trkpt>
      <trkpt lat="22.5413183449" lon="114.4289221096"><ele>16.000</ele></trkpt>
      <trkpt lat="22.5413277103" lon="114.4288880640"><ele>16.000</ele></trkpt>
      <trkpt lat="22.5413277607" lon="114.4288559127"><ele>16.000</ele></trkpt>
      <trkpt lat="22.5413234640" lon="114.4288242746"><ele>16.000</ele></trkpt>
      <trkpt lat="22.5413183087" lon="114.4287890205"><ele>16.000</ele></trkpt>
      <trkpt lat="22.5413037269" lon="114.4287530688"><ele>16.000</ele></trkpt>
      <trkpt lat="22.5412670781" lon="114.4287001901"><ele>18.000</ele></trkpt>
      <trkpt lat="22.5412527747" lon="114.4286795870"><ele>18.000</ele></trkpt>
      <trkpt lat="22.5412410440" lon="114.4286515517"><ele>19.000</ele></trkpt>
      <trkpt lat="22.5412289831" lon="114.4286152411"><ele>19.000</ele></trkpt>
      <trkpt lat="22.5412271374" lon="114.4285817467"><ele>20.000</ele></trkpt>
      <trkpt lat="22.5412291059" lon="114.4285367920"><ele>20.000</ele></trkpt>
      <trkpt lat="22.5412415493" lon="114.4284960112"><ele>20.000</ele></trkpt>
      <trkpt lat="22.5412507645" lon="114.4284378049"><ele>20.000</ele></trkpt>
      <trkpt lat="22.5412568196" lon="114.4283850873"><ele>20.000</ele></trkpt>
      <trkpt lat="22.5412509717" lon="114.4283549425"><ele>20.000</ele></trkpt>
      <trkpt lat="22.5412270603" lon="114.4283168732"><ele>17.000</ele></trkpt>
      <trkpt lat="22.5412271186" lon="114.4282795773"><ele>12.000</ele></trkpt>
      <trkpt lat="22.5412259842" lon="114.4282409932"><ele>12.000</ele></trkpt>
      <trkpt lat="22.5412164737" lon="114.4282113969"><ele>14.000</ele></trkpt>
      <trkpt lat="22.5412057645" lon="114.4281843707"><ele>14.000</ele></trkpt>
      <trkpt lat="22.5411819075" lon="114.4281611780"><ele>15.000</ele></trkpt>
      <trkpt lat="22.5411437560" lon="114.4281122389"><ele>18.000</ele></trkpt>
      <trkpt lat="22.5411258725" lon="114.4280890581"><ele>18.000</ele></trkpt>
      <trkpt lat="22.5411139565" lon="114.4280697455"><ele>20.000</ele></trkpt>
      <trkpt lat="22.5411128059" lon="114.4280414504"><ele>20.000</ele></trkpt>
      <trkpt lat="22.5411236096" lon="114.4280080325"><ele>22.000</ele></trkpt>
      <trkpt lat="22.5411434160" lon="114.4279760433"><ele>22.000</ele></trkpt>
      <trkpt lat="22.5412026161" lon="114.4279052906"><ele>22.000</ele></trkpt>
      <trkpt lat="22.5412528783" lon="114.4278487955"><ele>22.000</ele></trkpt>
      <trkpt lat="22.5412840050" lon="114.4278064123"><ele>22.000</ele></trkpt>
      <trkpt lat="22.5413175331" lon="114.4277563166"><ele>20.000</ele></trkpt>
      <trkpt lat="22.5413498525" lon="114.4277152207"><ele>18.000</ele></trkpt>
      <trkpt lat="22.5413845532" lon="114.4276792745"><ele>18.000</ele></trkpt>
      <trkpt lat="22.5414287832" lon="114.4276453336"><ele>20.000</ele></trkpt>
      <trkpt lat="22.5415806424" lon="114.4275703130"><ele>22.000</ele></trkpt>
      <trkpt lat="22.5416810762" lon="114.4275164805"><ele>20.000</ele></trkpt>
      <trkpt lat="22.5417480472" lon="114.4274703034"><ele>15.000</ele></trkpt>
      <trkpt lat="22.5418102443" lon="114.4274215454"><ele>15.000</ele></trkpt>
      <trkpt lat="22.5418963697" lon="114.4273496809"><ele>16.000</ele></trkpt>
      <trkpt lat="22.5419107273" lon="114.4273355602"><ele>16.000</ele></trkpt>
      <trkpt lat="22.5419322510" lon="114.4273227386"><ele>16.000</ele></trkpt>
      <trkpt lat="22.5419776791" lon="114.4273022433"><ele>16.000</ele></trkpt>
      <trkpt lat="22.5420386525" lon="114.4272714879"><ele>17.000</ele></trkpt>
      <trkpt lat="22.5420864580" lon="114.4272587137"><ele>18.000</ele></trkpt>
      <trkpt lat="22.5421235100" lon="114.4272472062"><ele>17.000</ele></trkpt>
      <trkpt lat="22.5421605851" lon="114.4272202651"><ele>16.000</ele></trkpt>
      <trkpt lat="22.5422020350" lon="114.4271784795"><ele>16.000</ele></trkpt>
      <trkpt lat="22.5422446591" lon="114.4271278290"><ele>16.000</ele></trkpt>
      <trkpt lat="22.5422596423" lon="114.4271178819"><ele>16.000</ele></trkpt>
      <trkpt lat="22.5422721232" lon="114.4271125333"><ele>16.000</ele></trkpt>
      <trkpt lat="22.5422903140" lon="114.4271025910"><ele>18.000</ele></trkpt>
      <trkpt lat="22.5423092255" lon="114.4270872788"><ele>17.000</ele></trkpt>
      <trkpt lat="22.5423328666" lon="114.4270572463"><ele>17.000</ele></trkpt>
      <trkpt lat="22.5423484588" lon="114.4270174059"><ele>18.000</ele></trkpt>
      <trkpt lat="22.5423724530" lon="114.4269518597"><ele>17.000</ele></trkpt>
      <trkpt lat="22.5423976260" lon="114.4268966047"><ele>18.000</ele></trkpt>
      <trkpt lat="22.5424239416" lon="114.4268747886"><ele>18.000</ele></trkpt>
      <trkpt lat="22.5424466481" lon="114.4268696859"><ele>18.000</ele></trkpt>
      <trkpt lat="22.5424897127" lon="114.4268324672"><ele>20.000</ele></trkpt>
      <trkpt lat="22.5425471407" lon="114.4267772693"><ele>20.000</ele></trkpt>
      <trkpt lat="22.5425710439" lon="114.4267708826"><ele>22.000</ele></trkpt>
      <trkpt lat="22.5426272393" lon="114.4267401182"><ele>22.000</ele></trkpt>
      <trkpt lat="22.5426762784" lon="114.4267016240"><ele>23.000</ele></trkpt>
      <trkpt lat="22.5427205616" lon="114.4266489746"><ele>22.000</ele></trkpt>
      <trkpt lat="22.5427851619" lon="114.4265912181"><ele>24.000</ele></trkpt>
      <trkpt lat="22.5428401625" lon="114.4265604514"><ele>28.000</ele></trkpt>
      <trkpt lat="22.5428963408" lon="114.4265412612"><ele>28.000</ele></trkpt>
      <trkpt lat="22.5429370376" lon="114.4265418195"><ele>28.000</ele></trkpt>
      <trkpt lat="22.5429645010" lon="114.4265467394"><ele>28.000</ele></trkpt>
      <trkpt lat="22.5429942330" lon="114.4265474889"><ele>28.000</ele></trkpt>
      <trkpt lat="22.5430210725" lon="114.4265377953"><ele>28.000</ele></trkpt>
      <trkpt lat="22.5430504796" lon="114.4265209620"><ele>28.000</ele></trkpt>
      <trkpt lat="22.5431138292" lon="114.4264992124"><ele>26.000</ele></trkpt>
      <trkpt lat="22.5431795493" lon="114.4264890423"><ele>26.000</ele></trkpt>
      <trkpt lat="22.5432739434" lon="114.4264776367"><ele>26.000</ele></trkpt>
      <trkpt lat="22.5433098066" lon="114.4264622683"><ele>24.000</ele></trkpt>
      <trkpt lat="22.5433516365" lon="114.4264507692"><ele>22.000</ele></trkpt>
      <trkpt lat="22.5433946451" lon="114.4264495603"><ele>22.000</ele></trkpt>
      <trkpt lat="22.5434591715" lon="114.4264393881"><ele>22.000</ele></trkpt>
      <trkpt lat="22.5434985820" lon="114.4264471749"><ele>22.000</ele></trkpt>
      <trkpt lat="22.5435296385" lon="114.4264498031"><ele>22.000</ele></trkpt>
      <trkpt lat="22.5435666895" lon="114.4264382953"><ele>20.000</ele></trkpt>
      <trkpt lat="22.5436049262" lon="114.4264332194"><ele>20.000</ele></trkpt>
      <trkpt lat="22.5436395799" lon="114.4264268509"><ele>20.000</ele></trkpt>
      <trkpt lat="22.5436873713" lon="114.4264230794"><ele>22.000</ele></trkpt>
      <trkpt lat="22.5437053268" lon="114.4263999618"><ele>24.000</ele></trkpt>
      <trkpt lat="22.5437436025" lon="114.4263691648"><ele>20.000</ele></trkpt>
      <trkpt lat="22.5437878337" lon="114.4263499529"><ele>20.000</ele></trkpt>
      <trkpt lat="22.5438380185" lon="114.4263436133"><ele>20.000</ele></trkpt>
      <trkpt lat="22.5438917686" lon="114.4263488536"><ele>18.000</ele></trkpt>
      <trkpt lat="22.5439467003" lon="114.4263630991"><ele>16.000</ele></trkpt>
      <trkpt lat="22.5439861168" lon="114.4263670284"><ele>16.000</ele></trkpt>
      <trkpt lat="22.5440255493" lon="114.4263606695"><ele>14.000</ele></trkpt>
      <trkpt lat="22.5440888889" lon="114.4263453504"><ele>14.000</ele></trkpt>
      <trkpt lat="22.5441510497" lon="114.4263197399"><ele>18.000</ele></trkpt>
      <trkpt lat="22.5442107323" lon="114.4262885370"><ele>20.000</ele></trkpt>
      <trkpt lat="22.5442932961" lon="114.4262646945"><ele>20.000</ele></trkpt>
      <trkpt lat="22.5443411055" lon="114.4262493474"><ele>21.000</ele></trkpt>
      <trkpt lat="22.5443865314" lon="114.4262301376"><ele>22.000</ele></trkpt>
      <trkpt lat="22.5444211820" lon="114.4262263413"><ele>22.000</ele></trkpt>
      <trkpt lat="22.5444928736" lon="114.4262174680"><ele>20.000</ele></trkpt>
      <trkpt lat="22.5445233147" lon="114.4262133667"><ele>18.000</ele></trkpt>
      <trkpt lat="22.5446291075" lon="114.4261881329"><ele>20.000</ele></trkpt>
      <trkpt lat="22.5446995845" lon="114.4261921170"><ele>20.000</ele></trkpt>
      <trkpt lat="22.5447402296" lon="114.4261741847"><ele>18.000</ele></trkpt>
      <trkpt lat="22.5447605566" lon="114.4261626466"><ele>18.000</ele></trkpt>
      <trkpt lat="22.5447868821" lon="114.4261344002"><ele>20.000</ele></trkpt>
      <trkpt lat="22.5448239909" lon="114.4260855954"><ele>20.000</ele></trkpt>
      <trkpt lat="22.5448383444" lon="114.4260740467"><ele>18.000</ele></trkpt>
      <trkpt lat="22.5448526908" lon="114.4260676416"><ele>18.000</ele></trkpt>
      <trkpt lat="22.5448968802" lon="114.4260754380"><ele>16.000</ele></trkpt>
      <trkpt lat="22.5449279158" lon="114.4260909267"><ele>17.000</ele></trkpt>
      <trkpt lat="22.5449708596" lon="114.4261321583"><ele>17.000</ele></trkpt>
      <trkpt lat="22.5450007145" lon="114.4261386428"><ele>18.000</ele></trkpt>
      <trkpt lat="22.5450473171" lon="114.4261310094"><ele>17.000</ele></trkpt>
      <trkpt lat="22.5450915164" lon="114.4261323750"><ele>17.000</ele></trkpt>
      <trkpt lat="22.5451500234" lon="114.4261517716"><ele>16.000</ele></trkpt>
      <trkpt lat="22.5451975073" lon="114.4261483144"><ele>14.000</ele></trkpt>
      <trkpt lat="22.5452348707" lon="114.4261339186"><ele>14.000</ele></trkpt>
      <trkpt lat="22.5452755038" lon="114.4261237032"><ele>12.000</ele></trkpt>
      <trkpt lat="22.5453770712" lon="114.4261084525"><ele>14.000</ele></trkpt>
      <trkpt lat="22.5454428002" lon="114.4260931375"><ele>14.000</ele></trkpt>
      <trkpt lat="22.5455288472" lon="114.4260714280"><ele>17.000</ele></trkpt>
      <trkpt lat="22.5456292538" lon="114.4260343112"><ele>15.000</ele></trkpt>
      <trkpt lat="22.5457033726" lon="114.4260010057"><ele>13.000</ele></trkpt>
      <trkpt lat="22.5457535734" lon="114.4259843765"><ele>14.000</ele></trkpt>
      <trkpt lat="22.5457906044" lon="114.4259857291"><ele>14.000</ele></trkpt>
      <trkpt lat="22.5458562995" lon="114.4259922779"><ele>15.000</ele></trkpt>
      <trkpt lat="22.5459040940" lon="114.4259859328"><ele>16.000</ele></trkpt>
      <trkpt lat="22.5459411439" lon="114.4259757109"><ele>16.000</ele></trkpt>
      <trkpt lat="22.5459973312" lon="114.4259500901"><ele>14.000</ele></trkpt>
      <trkpt lat="22.5460807440" lon="114.4259308033"><ele>14.000</ele></trkpt>
      <trkpt lat="22.5461717789" lon="114.4259298253"><ele>16.000</ele></trkpt>
      <trkpt lat="22.5462613483" lon="114.4259479916"><ele>14.000</ele></trkpt>
      <trkpt lat="22.5463525599" lon="114.4259448441"><ele>14.000</ele></trkpt>
      <trkpt lat="22.5463748447" lon="114.4259443368"><ele>12.000</ele></trkpt>
      <trkpt lat="22.5464058514" lon="114.4259791174"><ele>13.000</ele></trkpt>
      <trkpt lat="22.5464404274" lon="114.4260229067"><ele>14.000</ele></trkpt>
      <trkpt lat="22.5464977297" lon="114.4260487323"><ele>12.000</ele></trkpt>
      <trkpt lat="22.5465490773" lon="114.4260629715"><ele>14.000</ele></trkpt>
      <trkpt lat="22.5465920739" lon="114.4260694786"><ele>14.000</ele></trkpt>
      <trkpt lat="22.5466473450" lon="114.4261141121"><ele>16.000</ele></trkpt>
      <trkpt lat="22.5466982566" lon="114.4261596964"><ele>16.000</ele></trkpt>
      <trkpt lat="22.5467531535" lon="114.4261958062"><ele>18.000</ele></trkpt>
      <trkpt lat="22.5468430774" lon="114.4262422082"><ele>12.000</ele></trkpt>
      <trkpt lat="22.5468927561" lon="114.4262681456"><ele>11.000</ele></trkpt>
      <trkpt lat="22.5469537800" lon="114.4262704845"><ele>12.000</ele></trkpt>
      <trkpt lat="22.5470408942" lon="114.4262658395"><ele>14.000</ele></trkpt>
      <trkpt lat="22.5470898803" lon="114.4262620690"><ele>14.000</ele></trkpt>
      <trkpt lat="22.5471496517" lon="114.4262364546"><ele>14.000</ele></trkpt>
      <trkpt lat="22.5472213707" lon="114.4261912761"><ele>15.000</ele></trkpt>
      <trkpt lat="22.5473313353" lon="114.4261427861"><ele>20.000</ele></trkpt>
      <trkpt lat="22.5474270069" lon="114.4261070555"><ele>22.000</ele></trkpt>
      <trkpt lat="22.5475034913" lon="114.4260891871"><ele>22.000</ele></trkpt>
      <trkpt lat="22.5475489431" lon="114.4260532573"><ele>20.000</ele></trkpt>
      <trkpt lat="22.5476135482" lon="114.4259916400"><ele>18.000</ele></trkpt>
      <trkpt lat="22.5476434538" lon="114.4259659717"><ele>18.000</ele></trkpt>
      <trkpt lat="22.5476625840" lon="114.4259557165"><ele>18.000</ele></trkpt>
      <trkpt lat="22.5477534517" lon="114.4259070072"><ele>19.000</ele></trkpt>
      <trkpt lat="22.5477773559" lon="114.4258993339"><ele>20.000</ele></trkpt>
      <trkpt lat="22.5478084283" lon="114.4258916725"><ele>18.000</ele></trkpt>
      <trkpt lat="22.5478717897" lon="114.4258622056"><ele>18.000</ele></trkpt>
      <trkpt lat="22.5479542945" lon="114.4258134812"><ele>20.000</ele></trkpt>
      <trkpt lat="22.5480762723" lon="114.4257326744"><ele>20.000</ele></trkpt>
      <trkpt lat="22.5481844252" lon="114.4256766587"><ele>22.000</ele></trkpt>
      <trkpt lat="22.5482054115" lon="114.4256557390"><ele>22.000</ele></trkpt>
      <trkpt lat="22.5482257683" lon="114.4256249087"><ele>25.000</ele></trkpt>
      <trkpt lat="22.5482430095" lon="114.4255748420"><ele>26.000</ele></trkpt>
      <trkpt lat="22.5482521991" lon="114.4255284970"><ele>26.000</ele></trkpt>
      <trkpt lat="22.5482515053" lon="114.4254761019"><ele>24.000</ele></trkpt>
      <trkpt lat="22.5482368279" lon="114.4254255804"><ele>22.000</ele></trkpt>
      <trkpt lat="22.5482187095" lon="114.4253642052"><ele>21.000</ele></trkpt>
      <trkpt lat="22.5482131165" lon="114.4253085007"><ele>21.000</ele></trkpt>
      <trkpt lat="22.5482209216" lon="114.4252656628"><ele>21.000</ele></trkpt>
      <trkpt lat="22.5482246144" lon="114.4252233542"><ele>20.000</ele></trkpt>
      <trkpt lat="22.5482230948" lon="114.4251927860"><ele>15.000</ele></trkpt>
      <trkpt lat="22.5482181098" lon="114.4251696090"><ele>15.000</ele></trkpt>
      <trkpt lat="22.5481986673" lon="114.4251147927"><ele>12.000</ele></trkpt>
      <trkpt lat="22.5482374466" lon="114.4251009589"><ele>13.000</ele></trkpt>
      <trkpt lat="22.5483238082" lon="114.4250982950"><ele>16.000</ele></trkpt>
      <trkpt lat="22.5483854625" lon="114.4251017438"><ele>14.000</ele></trkpt>
      <trkpt lat="22.5484339620" lon="114.4251189565"><ele>13.000</ele></trkpt>
      <trkpt lat="22.5484916835" lon="114.4251675261"><ele>15.000</ele></trkpt>
      <trkpt lat="22.5485222953" lon="114.4251779998"><ele>15.000</ele></trkpt>
      <trkpt lat="22.5485536813" lon="114.4252473767"><ele>17.000</ele></trkpt>
      <trkpt lat="22.5485822364" lon="114.4252915135"><ele>17.000</ele></trkpt>
      <trkpt lat="22.5486037708" lon="114.4253208528"><ele>18.000</ele></trkpt>
      <trkpt lat="22.5486225007" lon="114.4253306286"><ele>17.000</ele></trkpt>
      <trkpt lat="22.5486359793" lon="114.4253324085"><ele>17.000</ele></trkpt>
      <trkpt lat="22.5486777861" lon="114.4253363410"><ele>16.000</ele></trkpt>
      <trkpt lat="22.5486974578" lon="114.4253450286"><ele>16.000</ele></trkpt>
      <trkpt lat="22.5487112033" lon="114.4253569791"><ele>14.000</ele></trkpt>
      <trkpt lat="22.5487374651" lon="114.4253698871"><ele>16.000</ele></trkpt>
      <trkpt lat="22.5487756778" lon="114.4253802452"><ele>14.000</ele></trkpt>
      <trkpt lat="22.5488102886" lon="114.4254021707"><ele>14.000</ele></trkpt>
      <trkpt lat="22.5488305471" lon="114.4254343601"><ele>16.000</ele></trkpt>
      <trkpt lat="22.5488531879" lon="114.4254716987"><ele>18.000</ele></trkpt>
      <trkpt lat="22.5488639035" lon="114.4254948676"><ele>18.000</ele></trkpt>
      <trkpt lat="22.5488602796" lon="114.4255205842"><ele>17.000</ele></trkpt>
      <trkpt lat="22.5488662213" lon="114.4255411732"><ele>17.000</ele></trkpt>
      <trkpt lat="22.5488769409" lon="114.4255617697"><ele>18.000</ele></trkpt>
      <trkpt lat="22.5488972380" lon="114.4255695233"><ele>20.000</ele></trkpt>
      <trkpt lat="22.5489485728" lon="114.4255914788"><ele>20.000</ele></trkpt>
      <trkpt lat="22.5489915555" lon="114.4256069894"><ele>18.000</ele></trkpt>
      <trkpt lat="22.5490228424" lon="114.4256282654"><ele>19.000</ele></trkpt>
      <trkpt lat="22.5490739159" lon="114.4256521523"><ele>20.000</ele></trkpt>
      <trkpt lat="22.5491228732" lon="114.4256663874"><ele>19.000</ele></trkpt>
      <trkpt lat="22.5491578348" lon="114.4257060872"><ele>18.000</ele></trkpt>
      <trkpt lat="22.5491728678" lon="114.4257269171"><ele>18.000</ele></trkpt>
      <trkpt lat="22.5491848827" lon="114.4257385213"><ele>18.000</ele></trkpt>
      <trkpt lat="22.5492045964" lon="114.4257527137"><ele>22.000</ele></trkpt>
      <trkpt lat="22.5492218649" lon="114.4257720271"><ele>22.000</ele></trkpt>
      <trkpt lat="22.5492373295" lon="114.4258144967"><ele>22.000</ele></trkpt>
      <trkpt lat="22.5492401696" lon="114.4258342276"><ele>22.000</ele></trkpt>
      <trkpt lat="22.5492450668" lon="114.4258441089"><ele>22.000</ele></trkpt>
      <trkpt lat="22.5492561871" lon="114.4258543544"><ele>22.000</ele></trkpt>
      <trkpt lat="22.5492777924" lon="114.4258610925"><ele>22.000</ele></trkpt>
      <trkpt lat="22.5493269094" lon="114.4258678800"><ele>22.000</ele></trkpt>
      <trkpt lat="22.5494442634" lon="114.4259068781"><ele>26.000</ele></trkpt>
      <trkpt lat="22.5494701088" lon="114.4259268078"><ele>26.000</ele></trkpt>
      <trkpt lat="22.5494892573" lon="114.4259554616"><ele>26.000</ele></trkpt>
      <trkpt lat="22.5494925127" lon="114.4259694679"><ele>26.000</ele></trkpt>
      <trkpt lat="22.5494903341" lon="114.4259808620"><ele>26.000</ele></trkpt>
      <trkpt lat="22.5494814510" lon="114.4259978108"><ele>26.000</ele></trkpt>
      <trkpt lat="22.5494771217" lon="114.4260101800"><ele>26.000</ele></trkpt>
      <trkpt lat="22.5494770981" lon="114.4260253928"><ele>26.000</ele></trkpt>
      <trkpt lat="22.5494813915" lon="114.4260362307"><ele>26.000</ele></trkpt>
      <trkpt lat="22.5494916729" lon="114.4260475937"><ele>26.000</ele></trkpt>
      <trkpt lat="22.5495308079" lon="114.4260735360"><ele>24.000</ele></trkpt>
      <trkpt lat="22.5495642159" lon="114.4261006045"><ele>26.000</ele></trkpt>
      <trkpt lat="22.5495916324" lon="114.4261392381"><ele>26.000</ele></trkpt>
      <trkpt lat="22.5496047055" lon="114.4261829898"><ele>26.000</ele></trkpt>
      <trkpt lat="22.5496270185" lon="114.4262172774"><ele>28.000</ele></trkpt>
      <trkpt lat="22.5496366942" lon="114.4262296649"><ele>28.000</ele></trkpt>
      <trkpt lat="22.5496497647" lon="114.4262523036"><ele>28.000</ele></trkpt>
      <trkpt lat="22.5496713769" lon="114.4263297290"><ele>28.000</ele></trkpt>
      <trkpt lat="22.5496828271" lon="114.4263595823"><ele>28.000</ele></trkpt>
      <trkpt lat="22.5496890737" lon="114.4263802964"><ele>28.000</ele></trkpt>
      <trkpt lat="22.5496959172" lon="114.4263963635"><ele>28.000</ele></trkpt>
      <trkpt lat="22.5497033564" lon="114.4264073617"><ele>28.000</ele></trkpt>
      <trkpt lat="22.5497137458" lon="114.4264137181"><ele>28.000</ele></trkpt>
      <trkpt lat="22.5497672746" lon="114.4264387414"><ele>28.000</ele></trkpt>
      <trkpt lat="22.5498085441" lon="114.4264688778"><ele>28.000</ele></trkpt>
      <trkpt lat="22.5498538822" lon="114.4265062576"><ele>28.000</ele></trkpt>
      <trkpt lat="22.5498908553" lon="114.4265449076"><ele>30.000</ele></trkpt>
      <trkpt lat="22.5499792180" lon="114.4265707899"><ele>28.000</ele></trkpt>
      <trkpt lat="22.5500508665" lon="114.4265902111"><ele>28.000</ele></trkpt>
      <trkpt lat="22.5500962266" lon="114.4266134427"><ele>28.000</ele></trkpt>
      <trkpt lat="22.5501654828" lon="114.4266341459"><ele>28.000</ele></trkpt>
      <trkpt lat="22.5502335604" lon="114.4266445572"><ele>28.000</ele></trkpt>
      <trkpt lat="22.5502920872" lon="114.4266510936"><ele>28.000</ele></trkpt>
      <trkpt lat="22.5503494473" lon="114.4266396219"><ele>28.000</ele></trkpt>
      <trkpt lat="22.5504091948" lon="114.4266294397"><ele>28.000</ele></trkpt>
      <trkpt lat="22.5504438293" lon="114.4266359331"><ele>30.000</ele></trkpt>
      <trkpt lat="22.5504904160" lon="114.4266385894"><ele>30.000</ele></trkpt>
      <trkpt lat="22.5505441540" lon="114.4266515474"><ele>28.000</ele></trkpt>
      <trkpt lat="22.5505644671" lon="114.4266490115"><ele>28.000</ele></trkpt>
      <trkpt lat="22.5506407875" lon="114.4266215666"><ele>28.000</ele></trkpt>
      <trkpt lat="22.5507210510" lon="114.4265927035"><ele>28.000</ele></trkpt>
      <trkpt lat="22.5507903741" lon="114.4265709635"><ele>30.000</ele></trkpt>
      <trkpt lat="22.5508345773" lon="114.4265697568"><ele>30.000</ele></trkpt>
      <trkpt lat="22.5509779066" lon="114.4265867347"><ele>33.000</ele></trkpt>
      <trkpt lat="22.5510257160" lon="114.4265713870"><ele>32.000</ele></trkpt>
      <trkpt lat="22.5510639457" lon="114.4265701696"><ele>32.000</ele></trkpt>
      <trkpt lat="22.5511129098" lon="114.4265805475"><ele>32.000</ele></trkpt>
      <trkpt lat="22.5511606992" lon="114.4265780611"><ele>32.000</ele></trkpt>
      <trkpt lat="22.5512060732" lon="114.4265922903"><ele>34.000</ele></trkpt>
      <trkpt lat="22.5512407069" lon="114.4265987828"><ele>34.000</ele></trkpt>
      <trkpt lat="22.5512908677" lon="114.4266078766"><ele>34.000</ele></trkpt>
      <trkpt lat="22.5513613146" lon="114.4266311536"><ele>36.000</ele></trkpt>
      <trkpt lat="22.5514296523" lon="114.4266572316"><ele>34.000</ele></trkpt>
      <trkpt lat="22.5514699643" lon="114.4266712203"><ele>34.000</ele></trkpt>
      <trkpt lat="22.5515033562" lon="114.4267085791"><ele>35.000</ele></trkpt>
      <trkpt lat="22.5515229355" lon="114.4267226229"><ele>35.000</ele></trkpt>
      <trkpt lat="22.5515654143" lon="114.4267485610"><ele>34.000</ele></trkpt>
      <trkpt lat="22.5515756429" lon="114.4267601283"><ele>34.000</ele></trkpt>
      <trkpt lat="22.5515862386" lon="114.4267743494"><ele>34.000</ele></trkpt>
      <trkpt lat="22.5515958636" lon="114.4267920327"><ele>34.000</ele></trkpt>
      <trkpt lat="22.5516035563" lon="114.4268107518"><ele>34.000</ele></trkpt>
      <trkpt lat="22.5516165998" lon="114.4268669795"><ele>34.000</ele></trkpt>
      <trkpt lat="22.5516253404" lon="114.4269057844"><ele>36.000</ele></trkpt>
      <trkpt lat="22.5516289522" lon="114.4269344681"><ele>36.000</ele></trkpt>
      <trkpt lat="22.5516331928" lon="114.4269518948"><ele>36.000</ele></trkpt>
      <trkpt lat="22.5516462956" lon="114.4269763558"><ele>34.000</ele></trkpt>
      <trkpt lat="22.5516713365" lon="114.4270059823"><ele>34.000</ele></trkpt>
      <trkpt lat="22.5516853429" lon="114.4270463813"><ele>32.000</ele></trkpt>
      <trkpt lat="22.5516861604" lon="114.4270908914"><ele>32.000</ele></trkpt>
      <trkpt lat="22.5516808795" lon="114.4271279940"><ele>32.000</ele></trkpt>
      <trkpt lat="22.5516794773" lon="114.4271487597"><ele>32.000</ele></trkpt>
      <trkpt lat="22.5516834403" lon="114.4271606123"><ele>32.000</ele></trkpt>
      <trkpt lat="22.5516917812" lon="114.4271707489"><ele>30.000</ele></trkpt>
      <trkpt lat="22.5517068876" lon="114.4271912519"><ele>30.000</ele></trkpt>
      <trkpt lat="22.5517105367" lon="114.4272011468"><ele>30.000</ele></trkpt>
      <trkpt lat="22.5517126149" lon="114.4272078986"><ele>30.000</ele></trkpt>
      <trkpt lat="22.5517110341" lon="114.4272168926"><ele>28.000</ele></trkpt>
      <trkpt lat="22.5517080263" lon="114.4272272664"><ele>28.000</ele></trkpt>
      <trkpt lat="22.5516613154" lon="114.4273043511"><ele>28.000</ele></trkpt>
      <trkpt lat="22.5516421450" lon="114.4273403290"><ele>26.000</ele></trkpt>
      <trkpt lat="22.5516158073" lon="114.4273762939"><ele>26.000</ele></trkpt>
      <trkpt lat="22.5515882668" lon="114.4274174006"><ele>27.000</ele></trkpt>
      <trkpt lat="22.5515702891" lon="114.4274546668"><ele>27.000</ele></trkpt>
      <trkpt lat="22.5515642735" lon="114.4274816648"><ele>28.000</ele></trkpt>
      <trkpt lat="22.5515630207" lon="114.4275189613"><ele>28.000</ele></trkpt>
      <trkpt lat="22.5515784967" lon="114.4275537155"><ele>28.000</ele></trkpt>
      <trkpt lat="22.5516130511" lon="114.4276116543"><ele>26.000</ele></trkpt>
      <trkpt lat="22.5516583528" lon="114.4276721851"><ele>26.000</ele></trkpt>
      <trkpt lat="22.5516905578" lon="114.4277043972"><ele>24.000</ele></trkpt>
      <trkpt lat="22.5517060599" lon="114.4277224314"><ele>24.000</ele></trkpt>
      <trkpt lat="22.5517596674" lon="114.4278189898"><ele>26.000</ele></trkpt>
      <trkpt lat="22.5518287451" lon="114.4279441437"><ele>26.000</ele></trkpt>
      <trkpt lat="22.5518454496" lon="114.4279670529"><ele>26.000</ele></trkpt>
      <trkpt lat="22.5518680838" lon="114.4280082503"><ele>26.000</ele></trkpt>
      <trkpt lat="22.5519121244" lon="114.4281112228"><ele>25.000</ele></trkpt>
      <trkpt lat="22.5519359061" lon="114.4281820038"><ele>25.000</ele></trkpt>
      <trkpt lat="22.5519573003" lon="114.4282514952"><ele>24.000</ele></trkpt>
      <trkpt lat="22.5520133421" lon="114.4283197632"><ele>24.000</ele></trkpt>
      <trkpt lat="22.5520479424" lon="114.4283481211"><ele>24.000</ele></trkpt>
      <trkpt lat="22.5521433774" lon="114.4284344660"><ele>20.000</ele></trkpt>
      <trkpt lat="22.5521672032" lon="114.4284769530"><ele>20.000</ele></trkpt>
      <trkpt lat="22.5522029821" lon="114.4285156020"><ele>20.000</ele></trkpt>
      <trkpt lat="22.5522254959" lon="114.4285528727"><ele>20.000</ele></trkpt>
      <trkpt lat="22.5522339198" lon="114.4285941136"><ele>20.000</ele></trkpt>
      <trkpt lat="22.5522314659" lon="114.4286352667"><ele>20.000</ele></trkpt>
      <trkpt lat="22.5522278335" lon="114.4286661278"><ele>20.000</ele></trkpt>
      <trkpt lat="22.5522397362" lon="114.4286944447"><ele>20.000</ele></trkpt>
      <trkpt lat="22.5522635841" lon="114.4287227832"><ele>20.000</ele></trkpt>
      <trkpt lat="22.5522981824" lon="114.4287524275"><ele>20.000</ele></trkpt>
      <trkpt lat="22.5523136803" lon="114.4287730344"><ele>20.000</ele></trkpt>
      <trkpt lat="22.5523231907" lon="114.4288026332"><ele>20.000</ele></trkpt>
      <trkpt lat="22.5523315190" lon="114.4288247778"><ele>20.000</ele></trkpt>
      <trkpt lat="22.5523517771" lon="114.4288567041"><ele>20.000</ele></trkpt>
      <trkpt lat="22.5523804099" lon="114.4288811926"><ele>18.000</ele></trkpt>
      <trkpt lat="22.5523935346" lon="114.4288915064"><ele>18.000</ele></trkpt>
      <trkpt lat="22.5524138395" lon="114.4288941157"><ele>16.000</ele></trkpt>
      <trkpt lat="22.5524281972" lon="114.4288799932"><ele>16.000</ele></trkpt>
      <trkpt lat="22.5524413622" lon="114.4288645832"><ele>14.000</ele></trkpt>
      <trkpt lat="22.5524700635" lon="114.4288453438"><ele>14.000</ele></trkpt>
      <trkpt lat="22.5525035113" lon="114.4288466898"><ele>14.000</ele></trkpt>
      <trkpt lat="22.5525273834" lon="114.4288595955"><ele>14.000</ele></trkpt>
      <trkpt lat="22.5526543117" lon="114.4289979205"><ele>11.000</ele></trkpt>
      <trkpt lat="22.5526746883" lon="114.4290201267"><ele>9.000</ele></trkpt>
      <trkpt lat="22.5527657705" lon="114.4291161517"><ele>3.000</ele></trkpt>
      <trkpt lat="22.5527214719" lon="114.4293046546"><ele>7.000</ele></trkpt>
      <trkpt lat="22.5527030973" lon="114.4293828434"><ele>12.000</ele></trkpt>
      <trkpt lat="22.5527261033" lon="114.4295233402"><ele>9.000</ele></trkpt>
      <trkpt lat="22.5528063238" lon="114.4296975491"><ele>8.000</ele></trkpt>
      <trkpt lat="22.5528865440" lon="114.4298717582"><ele>10.000</ele></trkpt>
      <trkpt lat="22.5529104770" lon="114.4299237320"><ele>9.000</ele></trkpt>
      <trkpt lat="22.5530272766" lon="114.4300429161"><ele>11.000</ele></trkpt>
      <trkpt lat="22.5530367898" lon="114.4301364802"><ele>8.000</ele></trkpt>
      <trkpt lat="22.5529717243" lon="114.4302022203"><ele>8.000</ele></trkpt>
      <trkpt lat="22.5529165632" lon="114.4302444207"><ele>7.000</ele></trkpt>
      <trkpt lat="22.5527396818" lon="114.4302837020"><ele>6.000</ele></trkpt>
      <trkpt lat="22.5527091014" lon="114.4302904932"><ele>9.000</ele></trkpt>
      <trkpt lat="22.5525471428" lon="114.4302794428"><ele>6.000</ele></trkpt>
      <trkpt lat="22.5523702491" lon="114.4302402257"><ele>10.000</ele></trkpt>
      <trkpt lat="22.5521933555" lon="114.4302010087"><ele>13.000</ele></trkpt>
      <trkpt lat="22.5521409774" lon="114.4301893966"><ele>13.000</ele></trkpt>
      <trkpt lat="22.5519959356" lon="114.4301804295"><ele>13.000</ele></trkpt>
      <trkpt lat="22.5518194262" lon="114.4301392543"><ele>14.000</ele></trkpt>
      <trkpt lat="22.5516429169" lon="114.4300980792"><ele>10.000</ele></trkpt>
      <trkpt lat="22.5514664075" lon="114.4300569042"><ele>7.000</ele></trkpt>
      <trkpt lat="22.5514234838" lon="114.4300468912"><ele>6.000</ele></trkpt>
      <trkpt lat="22.5513402560" lon="114.4300149502"><ele>6.000</ele></trkpt>
      <trkpt lat="22.5511760419" lon="114.4299340114"><ele>6.000</ele></trkpt>
      <trkpt lat="22.5511655762" lon="114.4299288530"><ele>6.000</ele></trkpt>
      <trkpt lat="22.5510292526" lon="114.4298151581"><ele>6.000</ele></trkpt>
      <trkpt lat="22.5510183641" lon="114.4297994770"><ele>6.000</ele></trkpt>
      <trkpt lat="22.5509252872" lon="114.4297685556"><ele>6.000</ele></trkpt>
      <trkpt lat="22.5508997157" lon="114.4297607966"><ele>6.000</ele></trkpt>
      <trkpt lat="22.5508536737" lon="114.4297546529"><ele>6.000</ele></trkpt>
      <trkpt lat="22.5508403573" lon="114.4297628914"><ele>6.000</ele></trkpt>
      <trkpt lat="22.5508108178" lon="114.4297706958"><ele>6.000</ele></trkpt>
      <trkpt lat="22.5507671601" lon="114.4297798356"><ele>6.000</ele></trkpt>
      <trkpt lat="22.5506766882" lon="114.4297961155"><ele>6.000</ele></trkpt>
      <trkpt lat="22.5506344602" lon="114.4298051286"><ele>6.000</ele></trkpt>
      <trkpt lat="22.5505842756" lon="114.4298210774"><ele>6.000</ele></trkpt>
      <trkpt lat="22.5505316067" lon="114.4298375554"><ele>6.000</ele></trkpt>
      <trkpt lat="22.5505176985" lon="114.4298391342"><ele>6.000</ele></trkpt>
      <trkpt lat="22.5504997155" lon="114.4298369402"><ele>6.000</ele></trkpt>
      <trkpt lat="22.5504834457" lon="114.4298299827"><ele>6.000</ele></trkpt>
      <trkpt lat="22.5504670652" lon="114.4298246057"><ele>6.000</ele></trkpt>
      <trkpt lat="22.5503398137" lon="114.4298174303"><ele>6.000</ele></trkpt>
      <trkpt lat="22.5502622726" lon="114.4298121723"><ele>6.000</ele></trkpt>
      <trkpt lat="22.5501909964" lon="114.4298060069"><ele>7.000</ele></trkpt>
      <trkpt lat="22.5500816642" lon="114.4298123418"><ele>4.000</ele></trkpt>
      <trkpt lat="22.5500484192" lon="114.4298100578"><ele>6.000</ele></trkpt>
      <trkpt lat="22.5500107901" lon="114.4297996421"><ele>6.000</ele></trkpt>
      <trkpt lat="22.5499731679" lon="114.4297849138"><ele>6.000</ele></trkpt>
      <trkpt lat="22.5499411539" lon="114.4297693343"><ele>6.000</ele></trkpt>
      <trkpt lat="22.5499131326" lon="114.4297615222"><ele>6.000</ele></trkpt>
      <trkpt lat="22.5498907046" lon="114.4297623437"><ele>6.000</ele></trkpt>
      <trkpt lat="22.5497745249" lon="114.4297880010"><ele>3.000</ele></trkpt>
      <trkpt lat="22.5496453576" lon="114.4298242034"><ele>4.000</ele></trkpt>
      <trkpt lat="22.5495509516" lon="114.4298539913"><ele>6.000</ele></trkpt>
      <trkpt lat="22.5494603695" lon="114.4299012536"><ele>6.000</ele></trkpt>
      <trkpt lat="22.5493946844" lon="114.4299045831"><ele>6.000</ele></trkpt>
      <trkpt lat="22.5493169944" lon="114.4299027168"><ele>8.000</ele></trkpt>
      <trkpt lat="22.5492897646" lon="114.4299009425"><ele>8.000</ele></trkpt>
      <trkpt lat="22.5492705351" lon="114.4299052191"><ele>9.000</ele></trkpt>
      <trkpt lat="22.5492488855" lon="114.4299198383"><ele>9.000</ele></trkpt>
      <trkpt lat="22.5492224200" lon="114.4299413474"><ele>8.000</ele></trkpt>
      <trkpt lat="22.5492031838" lon="114.4299499356"><ele>8.000</ele></trkpt>
      <trkpt lat="22.5491094638" lon="114.4299540763"><ele>8.000</ele></trkpt>
      <trkpt lat="22.5490469984" lon="114.4299479261"><ele>6.000</ele></trkpt>
      <trkpt lat="22.5489869504" lon="114.4299331579"><ele>8.000</ele></trkpt>
      <trkpt lat="22.5489124879" lon="114.4299157755"><ele>8.000</ele></trkpt>
      <trkpt lat="22.5488740525" lon="114.4299088077"><ele>8.000</ele></trkpt>
      <trkpt lat="22.5488212374" lon="114.4299080484"><ele>8.000</ele></trkpt>
      <trkpt lat="22.5487787354" lon="114.4299103586"><ele>8.000</ele></trkpt>
      <trkpt lat="22.5487306796" lon="114.4299094086"><ele>8.000</ele></trkpt>
      <trkpt lat="22.5486666190" lon="114.4298989439"><ele>8.000</ele></trkpt>
      <trkpt lat="22.5485440722" lon="114.4298987204"><ele>10.000</ele></trkpt>
      <trkpt lat="22.5485032080" lon="114.4299081315"><ele>10.000</ele></trkpt>
      <trkpt lat="22.5484511174" lon="114.4299261444"><ele>10.000</ele></trkpt>
      <trkpt lat="22.5484142419" lon="114.4299459107"><ele>12.000</ele></trkpt>
      <trkpt lat="22.5482883731" lon="114.4300207006"><ele>10.000</ele></trkpt>
      <trkpt lat="22.5482138047" lon="114.4300705785"><ele>9.000</ele></trkpt>
      <trkpt lat="22.5481547687" lon="114.4301208406"><ele>12.000</ele></trkpt>
      <trkpt lat="22.5481377123" lon="114.4301403299"><ele>12.000</ele></trkpt>
      <trkpt lat="22.5481287755" lon="114.4301514791"><ele>12.000</ele></trkpt>
      <trkpt lat="22.5481197197" lon="114.4301653939"><ele>12.000</ele></trkpt>
      <trkpt lat="22.5481119233" lon="114.4301818232"><ele>10.000</ele></trkpt>
      <trkpt lat="22.5481054674" lon="114.4301973887"><ele>12.000</ele></trkpt>
      <trkpt lat="22.5480976764" lon="114.4302103560"><ele>12.000</ele></trkpt>
      <trkpt lat="22.5480877462" lon="114.4302204340"><ele>12.000</ele></trkpt>
      <trkpt lat="22.5480789982" lon="114.4302264086"><ele>10.000</ele></trkpt>
      <trkpt lat="22.5480630673" lon="114.4302376976"><ele>12.000</ele></trkpt>
      <trkpt lat="22.5480541378" lon="114.4302453344"><ele>12.000</ele></trkpt>
      <trkpt lat="22.5480477640" lon="114.4302564211"><ele>12.000</ele></trkpt>
      <trkpt lat="22.5480348513" lon="114.4302858265"><ele>10.000</ele></trkpt>
      <trkpt lat="22.5479795119" lon="114.4303322900"><ele>6.000</ele></trkpt>
      <trkpt lat="22.5478744566" lon="114.4304140169"><ele>6.000</ele></trkpt>
      <trkpt lat="22.5478111971" lon="114.4304035535"><ele>7.000</ele></trkpt>
      <trkpt lat="22.5477527556" lon="114.4303853379"><ele>6.000</ele></trkpt>
      <trkpt lat="22.5476943115" lon="114.4303688480"><ele>4.000</ele></trkpt>
      <trkpt lat="22.5476278398" lon="114.4303635526"><ele>6.000</ele></trkpt>
      <trkpt lat="22.5475581683" lon="114.4303556644"><ele>6.000</ele></trkpt>
      <trkpt lat="22.5474940928" lon="114.4303546851"><ele>6.000</ele></trkpt>
      <trkpt lat="22.5473134894" lon="114.4303555858"><ele>8.000</ele></trkpt>
      <trkpt lat="22.5472409866" lon="114.4303559474"><ele>6.000</ele></trkpt>
      <trkpt lat="22.5471256377" lon="114.4303626352"><ele>7.000</ele></trkpt>
      <trkpt lat="22.5470943744" lon="114.4303789622"><ele>6.000</ele></trkpt>
      <trkpt lat="22.5470607109" lon="114.4303935592"><ele>6.000</ele></trkpt>
      <trkpt lat="22.5469941971" lon="114.4304149946"><ele>4.000</ele></trkpt>
      <trkpt lat="22.5469389107" lon="114.4304278284"><ele>4.000</ele></trkpt>
      <trkpt lat="22.5468283491" lon="114.4304457351"><ele>6.000</ele></trkpt>
      <trkpt lat="22.5468107161" lon="114.4304534627"><ele>6.000</ele></trkpt>
      <trkpt lat="22.5467706244" lon="114.4304809836"><ele>5.000</ele></trkpt>
      <trkpt lat="22.5467239421" lon="114.4305143585"><ele>4.000</ele></trkpt>
      <trkpt lat="22.5466872337" lon="114.4305386045"><ele>5.000</ele></trkpt>
      <trkpt lat="22.5466255516" lon="114.4305436656"><ele>6.000</ele></trkpt>
      <trkpt lat="22.5465166097" lon="114.4305503650"><ele>8.000</ele></trkpt>
      <trkpt lat="22.5464573278" lon="114.4305571542"><ele>8.000</ele></trkpt>
      <trkpt lat="22.5464212777" lon="114.4305613999"><ele>4.000</ele></trkpt>
      <trkpt lat="22.5463804257" lon="114.4305630498"><ele>4.000</ele></trkpt>
      <trkpt lat="22.5463307706" lon="114.4305603721"><ele>4.000</ele></trkpt>
      <trkpt lat="22.5462643017" lon="114.4305533521"><ele>6.000</ele></trkpt>
      <trkpt lat="22.5462298562" lon="114.4305558761"><ele>6.000</ele></trkpt>
      <trkpt lat="22.5461697625" lon="114.4305695633"><ele>5.000</ele></trkpt>
      <trkpt lat="22.5461056611" lon="114.4305849667"><ele>5.000</ele></trkpt>
      <trkpt lat="22.5460495628" lon="114.4306046974"><ele>5.000</ele></trkpt>
      <trkpt lat="22.5459997664" lon="114.4306205868"><ele>4.000</ele></trkpt>
      <trkpt lat="22.5459373661" lon="114.4306441576"><ele>4.000</ele></trkpt>
      <trkpt lat="22.5458780625" lon="114.4306647437"><ele>4.000</ele></trkpt>
      <trkpt lat="22.5457955167" lon="114.4306939103"><ele>4.000</ele></trkpt>
      <trkpt lat="22.5457738775" lon="114.4307024939"><ele>4.000</ele></trkpt>
      <trkpt lat="22.5457394198" lon="114.4307127786"><ele>4.000</ele></trkpt>
      <trkpt lat="22.5457145793" lon="114.4307196307"><ele>4.000</ele></trkpt>
      <trkpt lat="22.5456360589" lon="114.4307358709"><ele>4.000</ele></trkpt>
      <trkpt lat="22.5456248705" lon="114.4307203289"><ele>4.000</ele></trkpt>
      <trkpt lat="22.5455504135" lon="114.4306994982"><ele>4.000</ele></trkpt>
      <trkpt lat="22.5455491113" lon="114.4306994822"><ele>4.000</ele></trkpt>
    </trkseg>
  </trk>
</gpx>
