<?xml version="1.0" encoding="UTF-8"?>
<gpx xmlns:xsi="http://www.w3.org/2001/XMLSchema-instance"
     xsi:schemaLocation="http://www.topografix.com/GPX/1/1 http://www.topografix.com/GPX/1/1/gpx.xsd"
     version="1.1" creator="json3d_batch_to_gpx"
     xmlns="http://www.topografix.com/GPX/1/1">
  <metadata>
    <name>HighIslandGeoTrail-EastDamSection</name>
  </metadata>
  <trk>
    <name>HighIslandGeoTrail-EastDamSection</name>
    <type>hike</type>
    <trkseg>
      <trkpt lat="22.3620571342" lon="114.3716931277"><ele>65.000</ele></trkpt>
      <trkpt lat="22.3620800618" lon="114.3717013791"><ele>65.000</ele></trkpt>
      <trkpt lat="22.3621244356" lon="114.3717103555"><ele>65.000</ele></trkpt>
      <trkpt lat="22.3621688095" lon="114.3717193319"><ele>65.000</ele></trkpt>
      <trkpt lat="22.3622131834" lon="114.3717283083"><ele>65.000</ele></trkpt>
      <trkpt lat="22.3622539624" lon="114.3717365576"><ele>65.000</ele></trkpt>
      <trkpt lat="22.3622980679" lon="114.3717469508"><ele>65.000</ele></trkpt>
      <trkpt lat="22.3623421735" lon="114.3717573440"><ele>65.000</ele></trkpt>
      <trkpt lat="22.3623862790" lon="114.3717677372"><ele>65.000</ele></trkpt>
      <trkpt lat="22.3624303846" lon="114.3717781304"><ele>65.000</ele></trkpt>
      <trkpt lat="22.3624469655" lon="114.3717820376"><ele>65.000</ele></trkpt>
      <trkpt lat="22.3624905538" lon="114.3717947044"><ele>65.000</ele></trkpt>
      <trkpt lat="22.3625341421" lon="114.3718073711"><ele>65.000</ele></trkpt>
      <trkpt lat="22.3625777305" lon="114.3718200379"><ele>65.000</ele></trkpt>
      <trkpt lat="22.3626213188" lon="114.3718327047"><ele>65.000</ele></trkpt>
      <trkpt lat="22.3626649071" lon="114.3718453714"><ele>65.000</ele></trkpt>
      <trkpt lat="22.3626743500" lon="114.3718481156"><ele>65.000</ele></trkpt>
      <trkpt lat="22.3627173521" lon="114.3718629182"><ele>65.000</ele></trkpt>
      <trkpt lat="22.3627603543" lon="114.3718777208"><ele>65.000</ele></trkpt>
      <trkpt lat="22.3628033564" lon="114.3718925235"><ele>65.000</ele></trkpt>
      <trkpt lat="22.3628463585" lon="114.3719073262"><ele>65.000</ele></trkpt>
      <trkpt lat="22.3628893607" lon="114.3719221288"><ele>65.000</ele></trkpt>
      <trkpt lat="22.3629323628" lon="114.3719369315"><ele>65.000</ele></trkpt>
      <trkpt lat="22.3629753649" lon="114.3719517342"><ele>65.000</ele></trkpt>
      <trkpt lat="22.3629800568" lon="114.3719533493"><ele>65.000</ele></trkpt>
      <trkpt lat="22.3630223037" lon="114.3719704822"><ele>65.000</ele></trkpt>
      <trkpt lat="22.3630645506" lon="114.3719876151"><ele>65.000</ele></trkpt>
      <trkpt lat="22.3631067976" lon="114.3720047480"><ele>65.000</ele></trkpt>
      <trkpt lat="22.3631490445" lon="114.3720218809"><ele>65.000</ele></trkpt>
      <trkpt lat="22.3631912914" lon="114.3720390138"><ele>65.000</ele></trkpt>
      <trkpt lat="22.3632335383" lon="114.3720561468"><ele>65.000</ele></trkpt>
      <trkpt lat="22.3632757853" lon="114.3720732797"><ele>65.000</ele></trkpt>
      <trkpt lat="22.3633105780" lon="114.3720873897"><ele>65.000</ele></trkpt>
      <trkpt lat="22.3633514775" lon="114.3721079575"><ele>65.000</ele></trkpt>
      <trkpt lat="22.3633923770" lon="114.3721285254"><ele>65.000</ele></trkpt>
      <trkpt lat="22.3634332764" lon="114.3721490934"><ele>65.000</ele></trkpt>
      <trkpt lat="22.3634741759" lon="114.3721696613"><ele>65.000</ele></trkpt>
      <trkpt lat="22.3635150754" lon="114.3721902292"><ele>65.000</ele></trkpt>
      <trkpt lat="22.3635559749" lon="114.3722107972"><ele>65.000</ele></trkpt>
      <trkpt lat="22.3635646480" lon="114.3722151588"><ele>65.000</ele></trkpt>
      <trkpt lat="22.3636047141" lon="114.3722375426"><ele>65.000</ele></trkpt>
      <trkpt lat="22.3636447802" lon="114.3722599264"><ele>65.000</ele></trkpt>
      <trkpt lat="22.3636848464" lon="114.3722823102"><ele>65.000</ele></trkpt>
      <trkpt lat="22.3637249125" lon="114.3723046940"><ele>65.000</ele></trkpt>
      <trkpt lat="22.3637649786" lon="114.3723270778"><ele>65.000</ele></trkpt>
      <trkpt lat="22.3638050447" lon="114.3723494617"><ele>65.000</ele></trkpt>
      <trkpt lat="22.3638301627" lon="114.3723634944"><ele>65.000</ele></trkpt>
      <trkpt lat="22.3638690514" lon="114.3723881620"><ele>65.000</ele></trkpt>
      <trkpt lat="22.3639079402" lon="114.3724128296"><ele>65.000</ele></trkpt>
      <trkpt lat="22.3639468289" lon="114.3724374973"><ele>65.000</ele></trkpt>
      <trkpt lat="22.3639857176" lon="114.3724621649"><ele>65.000</ele></trkpt>
      <trkpt lat="22.3640246063" lon="114.3724868326"><ele>65.000</ele></trkpt>
      <trkpt lat="22.3640634950" lon="114.3725115003"><ele>65.000</ele></trkpt>
      <trkpt lat="22.3641023837" lon="114.3725361679"><ele>65.000</ele></trkpt>
      <trkpt lat="22.3641223917" lon="114.3725488593"><ele>65.000</ele></trkpt>
      <trkpt lat="22.3641593484" lon="114.3725767498"><ele>65.000</ele></trkpt>
      <trkpt lat="22.3641963051" lon="114.3726046403"><ele>65.000</ele></trkpt>
      <trkpt lat="22.3642332617" lon="114.3726325308"><ele>65.000</ele></trkpt>
      <trkpt lat="22.3642702184" lon="114.3726604214"><ele>65.000</ele></trkpt>
      <trkpt lat="22.3643071750" lon="114.3726883119"><ele>65.000</ele></trkpt>
      <trkpt lat="22.3643441316" lon="114.3727162025"><ele>65.000</ele></trkpt>
      <trkpt lat="22.3643810883" lon="114.3727440930"><ele>65.000</ele></trkpt>
      <trkpt lat="22.3644088497" lon="114.3727650442"><ele>65.000</ele></trkpt>
      <trkpt lat="22.3644439645" lon="114.3727955619"><ele>65.000</ele></trkpt>
      <trkpt lat="22.3644790791" lon="114.3728260797"><ele>65.000</ele></trkpt>
      <trkpt lat="22.3645141938" lon="114.3728565975"><ele>65.000</ele></trkpt>
      <trkpt lat="22.3645493085" lon="114.3728871153"><ele>65.000</ele></trkpt>
      <trkpt lat="22.3645844232" lon="114.3729176331"><ele>65.000</ele></trkpt>
      <trkpt lat="22.3646195379" lon="114.3729481510"><ele>65.000</ele></trkpt>
      <trkpt lat="22.3646546525" lon="114.3729786688"><ele>65.000</ele></trkpt>
      <trkpt lat="22.3646551685" lon="114.3729791173"><ele>65.000</ele></trkpt>
      <trkpt lat="22.3646888917" lon="114.3730113983"><ele>65.000</ele></trkpt>
      <trkpt lat="22.3647226149" lon="114.3730436793"><ele>65.000</ele></trkpt>
      <trkpt lat="22.3647563380" lon="114.3730759603"><ele>65.000</ele></trkpt>
      <trkpt lat="22.3647900612" lon="114.3731082413"><ele>65.000</ele></trkpt>
      <trkpt lat="22.3648237844" lon="114.3731405224"><ele>65.000</ele></trkpt>
      <trkpt lat="22.3648575075" lon="114.3731728035"><ele>65.000</ele></trkpt>
      <trkpt lat="22.3648912306" lon="114.3732050845"><ele>65.000</ele></trkpt>
      <trkpt lat="22.3648938243" lon="114.3732075673"><ele>65.000</ele></trkpt>
      <trkpt lat="22.3649257103" lon="114.3732419388"><ele>65.000</ele></trkpt>
      <trkpt lat="22.3649575962" lon="114.3732763103"><ele>65.000</ele></trkpt>
      <trkpt lat="22.3649894822" lon="114.3733106818"><ele>65.000</ele></trkpt>
      <trkpt lat="22.3650213681" lon="114.3733450534"><ele>65.000</ele></trkpt>
      <trkpt lat="22.3650532541" lon="114.3733794249"><ele>65.000</ele></trkpt>
      <trkpt lat="22.3650851400" lon="114.3734137965"><ele>65.000</ele></trkpt>
      <trkpt lat="22.3651133550" lon="114.3734442110"><ele>65.000</ele></trkpt>
      <trkpt lat="22.3651431830" lon="114.3734806556"><ele>65.000</ele></trkpt>
      <trkpt lat="22.3651730111" lon="114.3735171002"><ele>65.000</ele></trkpt>
      <trkpt lat="22.3652028391" lon="114.3735535448"><ele>65.000</ele></trkpt>
      <trkpt lat="22.3652326672" lon="114.3735899895"><ele>65.000</ele></trkpt>
      <trkpt lat="22.3652624952" lon="114.3736264341"><ele>65.000</ele></trkpt>
      <trkpt lat="22.3652923232" lon="114.3736628788"><ele>65.000</ele></trkpt>
      <trkpt lat="22.3653221512" lon="114.3736993235"><ele>65.000</ele></trkpt>
      <trkpt lat="22.3653472319" lon="114.3737299678"><ele>65.000</ele></trkpt>
      <trkpt lat="22.3653710628" lon="114.3737712012"><ele>65.000</ele></trkpt>
      <trkpt lat="22.3653792400" lon="114.3737853498"><ele>65.000</ele></trkpt>
      <trkpt lat="22.3653937862" lon="114.3738313072"><ele>65.000</ele></trkpt>
      <trkpt lat="22.3653993027" lon="114.3738487359"><ele>65.000</ele></trkpt>
      <trkpt lat="22.3654023026" lon="114.3738850658"><ele>65.000</ele></trkpt>
      <trkpt lat="22.3654062956" lon="114.3739334211"><ele>65.000</ele></trkpt>
      <trkpt lat="22.3654066544" lon="114.3739377662"><ele>65.000</ele></trkpt>
      <trkpt lat="22.3654022232" lon="114.3739718457"><ele>64.000</ele></trkpt>
      <trkpt lat="22.3653959715" lon="114.3740199237"><ele>64.000</ele></trkpt>
      <trkpt lat="22.3653931000" lon="114.3740420064"><ele>64.000</ele></trkpt>
      <trkpt lat="22.3653716768" lon="114.3740847399"><ele>63.000</ele></trkpt>
      <trkpt lat="22.3653661815" lon="114.3740957017"><ele>63.000</ele></trkpt>
      <trkpt lat="22.3653392691" lon="114.3741346818"><ele>62.000</ele></trkpt>
      <trkpt lat="22.3653235879" lon="114.3741573945"><ele>62.000</ele></trkpt>
      <trkpt lat="22.3652950691" lon="114.3741950311"><ele>61.000</ele></trkpt>
      <trkpt lat="22.3652750232" lon="114.3742214858"><ele>60.000</ele></trkpt>
      <trkpt lat="22.3652393982" lon="114.3742513123"><ele>60.000</ele></trkpt>
      <trkpt lat="22.3652205145" lon="114.3742671223"><ele>59.000</ele></trkpt>
      <trkpt lat="22.3651805195" lon="114.3742896530"><ele>59.000</ele></trkpt>
      <trkpt lat="22.3651405246" lon="114.3743121836"><ele>58.000</ele></trkpt>
      <trkpt lat="22.3651040683" lon="114.3743327208"><ele>57.000</ele></trkpt>
      <trkpt lat="22.3650652692" lon="114.3743575511"><ele>57.000</ele></trkpt>
      <trkpt lat="22.3650264701" lon="114.3743823815"><ele>56.000</ele></trkpt>
      <trkpt lat="22.3650040351" lon="114.3743967393"><ele>56.000</ele></trkpt>
      <trkpt lat="22.3649679462" lon="114.3744259138"><ele>55.000</ele></trkpt>
      <trkpt lat="22.3649318573" lon="114.3744550884"><ele>54.000</ele></trkpt>
      <trkpt lat="22.3649099546" lon="114.3744727947"><ele>54.000</ele></trkpt>
      <trkpt lat="22.3648791108" lon="114.3745082484"><ele>53.000</ele></trkpt>
      <trkpt lat="22.3648482669" lon="114.3745437021"><ele>52.000</ele></trkpt>
      <trkpt lat="22.3648174231" lon="114.3745791558"><ele>52.000</ele></trkpt>
      <trkpt lat="22.3648061233" lon="114.3745921445"><ele>51.000</ele></trkpt>
      <trkpt lat="22.3647818794" lon="114.3746330985"><ele>51.000</ele></trkpt>
      <trkpt lat="22.3647576355" lon="114.3746740525"><ele>50.000</ele></trkpt>
      <trkpt lat="22.3647333916" lon="114.3747150065"><ele>49.000</ele></trkpt>
      <trkpt lat="22.3647321226" lon="114.3747171501"><ele>49.000</ele></trkpt>
      <trkpt lat="22.3647130163" lon="114.3747611349"><ele>48.000</ele></trkpt>
      <trkpt lat="22.3646939099" lon="114.3748051198"><ele>47.000</ele></trkpt>
      <trkpt lat="22.3646748035" lon="114.3748491047"><ele>47.000</ele></trkpt>
      <trkpt lat="22.3646556971" lon="114.3748930895"><ele>46.000</ele></trkpt>
      <trkpt lat="22.3646365907" lon="114.3749370744"><ele>45.000</ele></trkpt>
      <trkpt lat="22.3646174843" lon="114.3749810592"><ele>45.000</ele></trkpt>
      <trkpt lat="22.3646012153" lon="114.3750185119"><ele>44.000</ele></trkpt>
      <trkpt lat="22.3645872600" lon="114.3750646803"><ele>43.000</ele></trkpt>
      <trkpt lat="22.3645733046" lon="114.3751108487"><ele>42.000</ele></trkpt>
      <trkpt lat="22.3645593493" lon="114.3751570171"><ele>42.000</ele></trkpt>
      <trkpt lat="22.3645453939" lon="114.3752031855"><ele>41.000</ele></trkpt>
      <trkpt lat="22.3645435449" lon="114.3752093025"><ele>41.000</ele></trkpt>
      <trkpt lat="22.3645318660" lon="114.3752561958"><ele>40.000</ele></trkpt>
      <trkpt lat="22.3645201871" lon="114.3753030890"><ele>39.000</ele></trkpt>
      <trkpt lat="22.3645085082" lon="114.3753499822"><ele>39.000</ele></trkpt>
      <trkpt lat="22.3645008162" lon="114.3753808670"><ele>38.000</ele></trkpt>
      <trkpt lat="22.3644914314" lon="114.3754283520"><ele>37.000</ele></trkpt>
      <trkpt lat="22.3644820465" lon="114.3754758370"><ele>37.000</ele></trkpt>
      <trkpt lat="22.3644726616" lon="114.3755233220"><ele>36.000</ele></trkpt>
      <trkpt lat="22.3644632767" lon="114.3755708071"><ele>35.000</ele></trkpt>
      <trkpt lat="22.3644580322" lon="114.3755973423"><ele>35.000</ele></trkpt>
      <trkpt lat="22.3644520970" lon="114.3756454663"><ele>34.000</ele></trkpt>
      <trkpt lat="22.3644461618" lon="114.3756935903"><ele>33.000</ele></trkpt>
      <trkpt lat="22.3644422095" lon="114.3757256366"><ele>33.000</ele></trkpt>
      <trkpt lat="22.3644389187" lon="114.3757740527"><ele>32.000</ele></trkpt>
      <trkpt lat="22.3644356279" lon="114.3758224688"><ele>31.000</ele></trkpt>
      <trkpt lat="22.3644323371" lon="114.3758708849"><ele>31.000</ele></trkpt>
      <trkpt lat="22.3644300549" lon="114.3759044619"><ele>30.000</ele></trkpt>
      <trkpt lat="22.3644210149" lon="114.3759520242"><ele>30.000</ele></trkpt>
      <trkpt lat="22.3644119749" lon="114.3759995864"><ele>29.000</ele></trkpt>
      <trkpt lat="22.3644029348" lon="114.3760471487"><ele>28.000</ele></trkpt>
      <trkpt lat="22.3643992721" lon="114.3760664193"><ele>28.000</ele></trkpt>
      <trkpt lat="22.3643856905" lon="114.3761127164"><ele>27.000</ele></trkpt>
      <trkpt lat="22.3643790474" lon="114.3761353617"><ele>27.000</ele></trkpt>
      <trkpt lat="22.3643619786" lon="114.3761803045"><ele>26.000</ele></trkpt>
      <trkpt lat="22.3643449098" lon="114.3762252474"><ele>26.000</ele></trkpt>
      <trkpt lat="22.3643431259" lon="114.3762299446"><ele>26.000</ele></trkpt>
      <trkpt lat="22.3643214084" lon="114.3762725056"><ele>25.000</ele></trkpt>
      <trkpt lat="22.3643169546" lon="114.3762812341"><ele>25.000</ele></trkpt>
      <trkpt lat="22.3642906615" lon="114.3763206994"><ele>24.000</ele></trkpt>
      <trkpt lat="22.3642721156" lon="114.3763485364"><ele>24.000</ele></trkpt>
      <trkpt lat="22.3642438812" lon="114.3763864198"><ele>23.000</ele></trkpt>
      <trkpt lat="22.3642156468" lon="114.3764243032"><ele>23.000</ele></trkpt>
      <trkpt lat="22.3641874123" lon="114.3764621865"><ele>22.000</ele></trkpt>
      <trkpt lat="22.3641591779" lon="114.3765000699"><ele>22.000</ele></trkpt>
      <trkpt lat="22.3641309435" lon="114.3765379532"><ele>21.000</ele></trkpt>
      <trkpt lat="22.3641027090" lon="114.3765758365"><ele>20.000</ele></trkpt>
      <trkpt lat="22.3640744746" lon="114.3766137198"><ele>20.000</ele></trkpt>
      <trkpt lat="22.3640462401" lon="114.3766516031"><ele>19.000</ele></trkpt>
      <trkpt lat="22.3640180056" lon="114.3766894864"><ele>19.000</ele></trkpt>
      <trkpt lat="22.3639986509" lon="114.3767154554"><ele>18.000</ele></trkpt>
      <trkpt lat="22.3639710203" lon="114.3767402769"><ele>18.000</ele></trkpt>
      <trkpt lat="22.3639374521" lon="114.3767410309"><ele>18.000</ele></trkpt>
      <trkpt lat="22.3639150963" lon="114.3767233558"><ele>18.000</ele></trkpt>
      <trkpt lat="22.3639024385" lon="114.3767040896"><ele>18.000</ele></trkpt>
      <trkpt lat="22.3639047247" lon="114.3766655976"><ele>18.000</ele></trkpt>
      <trkpt lat="22.3639331468" lon="114.3766278769"><ele>18.000</ele></trkpt>
      <trkpt lat="22.3639615690" lon="114.3765901562"><ele>18.000</ele></trkpt>
      <trkpt lat="22.3639899911" lon="114.3765524355"><ele>18.000</ele></trkpt>
      <trkpt lat="22.3640115680" lon="114.3765237994"><ele>18.000</ele></trkpt>
      <trkpt lat="22.3640361767" lon="114.3764830979"><ele>17.000</ele></trkpt>
      <trkpt lat="22.3640377295" lon="114.3764805296"><ele>17.000</ele></trkpt>
      <trkpt lat="22.3640533100" lon="114.3764349663"><ele>17.000</ele></trkpt>
      <trkpt lat="22.3640688905" lon="114.3763894029"><ele>17.000</ele></trkpt>
      <trkpt lat="22.3640844710" lon="114.3763438395"><ele>17.000</ele></trkpt>
      <trkpt lat="22.3641000514" lon="114.3762982761"><ele>16.000</ele></trkpt>
      <trkpt lat="22.3641156319" lon="114.3762527127"><ele>16.000</ele></trkpt>
      <trkpt lat="22.3641312123" lon="114.3762071492"><ele>16.000</ele></trkpt>
      <trkpt lat="22.3641467928" lon="114.3761615858"><ele>16.000</ele></trkpt>
      <trkpt lat="22.3641623732" lon="114.3761160224"><ele>15.000</ele></trkpt>
      <trkpt lat="22.3641769750" lon="114.3760733208"><ele>15.000</ele></trkpt>
      <trkpt lat="22.3641883072" lon="114.3760263295"><ele>15.000</ele></trkpt>
      <trkpt lat="22.3641996394" lon="114.3759793381"><ele>15.000</ele></trkpt>
      <trkpt lat="22.3642077154" lon="114.3759458490"><ele>15.000</ele></trkpt>
      <trkpt lat="22.3642130069" lon="114.3758976384"><ele>15.000</ele></trkpt>
      <trkpt lat="22.3642182766" lon="114.3758496262"><ele>14.000</ele></trkpt>
      <trkpt lat="22.3642206291" lon="114.3758011470"><ele>14.000</ele></trkpt>
      <trkpt lat="22.3642228684" lon="114.3757549988"><ele>14.000</ele></trkpt>
      <trkpt lat="22.3642185284" lon="114.3757066785"><ele>14.000</ele></trkpt>
      <trkpt lat="22.3642141883" lon="114.3756583581"><ele>14.000</ele></trkpt>
      <trkpt lat="22.3642125665" lon="114.3756403011"><ele>13.000</ele></trkpt>
      <trkpt lat="22.3642044620" lon="114.3755925444"><ele>13.000</ele></trkpt>
      <trkpt lat="22.3641963576" lon="114.3755447876"><ele>13.000</ele></trkpt>
      <trkpt lat="22.3641882532" lon="114.3754970309"><ele>13.000</ele></trkpt>
      <trkpt lat="22.3641801487" lon="114.3754492742"><ele>13.000</ele></trkpt>
      <trkpt lat="22.3641720443" lon="114.3754015175"><ele>12.000</ele></trkpt>
      <trkpt lat="22.3641639398" lon="114.3753537608"><ele>12.000</ele></trkpt>
      <trkpt lat="22.3641558353" lon="114.3753060041"><ele>12.000</ele></trkpt>
      <trkpt lat="22.3641477308" lon="114.3752582474"><ele>12.000</ele></trkpt>
      <trkpt lat="22.3641396263" lon="114.3752104907"><ele>12.000</ele></trkpt>
      <trkpt lat="22.3641315217" lon="114.3751627341"><ele>11.000</ele></trkpt>
      <trkpt lat="22.3641234172" lon="114.3751149774"><ele>11.000</ele></trkpt>
      <trkpt lat="22.3641153126" lon="114.3750672207"><ele>11.000</ele></trkpt>
      <trkpt lat="22.3641072080" lon="114.3750194640"><ele>11.000</ele></trkpt>
      <trkpt lat="22.3640991035" lon="114.3749717074"><ele>11.000</ele></trkpt>
      <trkpt lat="22.3640909989" lon="114.3749239507"><ele>10.000</ele></trkpt>
      <trkpt lat="22.3640828942" lon="114.3748761941"><ele>10.000</ele></trkpt>
      <trkpt lat="22.3640747896" lon="114.3748284374"><ele>10.000</ele></trkpt>
      <trkpt lat="22.3640666849" lon="114.3747806808"><ele>10.000</ele></trkpt>
      <trkpt lat="22.3640585803" lon="114.3747329242"><ele>9.000</ele></trkpt>
      <trkpt lat="22.3640577831" lon="114.3747282267"><ele>9.000</ele></trkpt>
      <trkpt lat="22.3640521243" lon="114.3746800644"><ele>9.000</ele></trkpt>
      <trkpt lat="22.3640489242" lon="114.3746528285"><ele>9.000</ele></trkpt>
      <trkpt lat="22.3640502854" lon="114.3746043055"><ele>9.000</ele></trkpt>
      <trkpt lat="22.3640512639" lon="114.3745694255"><ele>9.000</ele></trkpt>
      <trkpt lat="22.3640596994" lon="114.3745217352"><ele>9.000</ele></trkpt>
      <trkpt lat="22.3640660950" lon="114.3744855780"><ele>8.000</ele></trkpt>
      <trkpt lat="22.3640676279" lon="114.3744770702"><ele>8.000</ele></trkpt>
      <trkpt lat="22.3640803063" lon="114.3744304781"><ele>8.000</ele></trkpt>
      <trkpt lat="22.3640929846" lon="114.3743838861"><ele>8.000</ele></trkpt>
      <trkpt lat="22.3640937131" lon="114.3743812091"><ele>8.000</ele></trkpt>
      <trkpt lat="22.3641050793" lon="114.3743342272"><ele>8.000</ele></trkpt>
      <trkpt lat="22.3641164455" lon="114.3742872454"><ele>7.000</ele></trkpt>
      <trkpt lat="22.3641278117" lon="114.3742402636"><ele>7.000</ele></trkpt>
      <trkpt lat="22.3641391779" lon="114.3741932818"><ele>7.000</ele></trkpt>
      <trkpt lat="22.3641505440" lon="114.3741462999"><ele>7.000</ele></trkpt>
      <trkpt lat="22.3641527215" lon="114.3741372996"><ele>7.000</ele></trkpt>
      <trkpt lat="22.3641650512" lon="114.3740905995"><ele>7.000</ele></trkpt>
      <trkpt lat="22.3641773809" lon="114.3740438993"><ele>7.000</ele></trkpt>
      <trkpt lat="22.3641897106" lon="114.3739971992"><ele>6.000</ele></trkpt>
      <trkpt lat="22.3641946902" lon="114.3739783384"><ele>6.000</ele></trkpt>
      <trkpt lat="22.3641867980" lon="114.3739698299"><ele>6.000</ele></trkpt>
      <trkpt lat="22.3641539029" lon="114.3739365760"><ele>6.000</ele></trkpt>
      <trkpt lat="22.3641210079" lon="114.3739033221"><ele>6.000</ele></trkpt>
      <trkpt lat="22.3640881128" lon="114.3738700682"><ele>6.000</ele></trkpt>
      <trkpt lat="22.3640552177" lon="114.3738368143"><ele>6.000</ele></trkpt>
      <trkpt lat="22.3640223226" lon="114.3738035605"><ele>6.000</ele></trkpt>
      <trkpt lat="22.3639894275" lon="114.3737703066"><ele>6.000</ele></trkpt>
      <trkpt lat="22.3639565323" lon="114.3737370528"><ele>6.000</ele></trkpt>
      <trkpt lat="22.3639511136" lon="114.3737315749"><ele>6.000</ele></trkpt>
      <trkpt lat="22.3639150047" lon="114.3737024291"><ele>6.000</ele></trkpt>
      <trkpt lat="22.3638788959" lon="114.3736732832"><ele>6.000</ele></trkpt>
      <trkpt lat="22.3638427870" lon="114.3736441374"><ele>6.000</ele></trkpt>
      <trkpt lat="22.3638066782" lon="114.3736149916"><ele>6.000</ele></trkpt>
      <trkpt lat="22.3637705693" lon="114.3735858458"><ele>6.000</ele></trkpt>
      <trkpt lat="22.3637344604" lon="114.3735567000"><ele>6.000</ele></trkpt>
      <trkpt lat="22.3637311620" lon="114.3735540377"><ele>6.000</ele></trkpt>
      <trkpt lat="22.3636928526" lon="114.3735283437"><ele>6.000</ele></trkpt>
      <trkpt lat="22.3636545431" lon="114.3735026498"><ele>6.000</ele></trkpt>
      <trkpt lat="22.3636162336" lon="114.3734769558"><ele>6.000</ele></trkpt>
      <trkpt lat="22.3635779241" lon="114.3734512619"><ele>6.000</ele></trkpt>
      <trkpt lat="22.3635396147" lon="114.3734255680"><ele>6.000</ele></trkpt>
      <trkpt lat="22.3635013052" lon="114.3733998741"><ele>6.000</ele></trkpt>
      <trkpt lat="22.3634953806" lon="114.3733959006"><ele>6.000</ele></trkpt>
      <trkpt lat="22.3634561299" lon="114.3733719048"><ele>6.000</ele></trkpt>
      <trkpt lat="22.3634168793" lon="114.3733479091"><ele>6.000</ele></trkpt>
      <trkpt lat="22.3633776286" lon="114.3733239133"><ele>6.000</ele></trkpt>
      <trkpt lat="22.3633383779" lon="114.3732999176"><ele>6.000</ele></trkpt>
      <trkpt lat="22.3632991273" lon="114.3732759219"><ele>6.000</ele></trkpt>
      <trkpt lat="22.3632598766" lon="114.3732519262"><ele>6.000</ele></trkpt>
      <trkpt lat="22.3632206259" lon="114.3732279305"><ele>6.000</ele></trkpt>
      <trkpt lat="22.3631813752" lon="114.3732039349"><ele>6.000</ele></trkpt>
      <trkpt lat="22.3631749639" lon="114.3732000154"><ele>6.000</ele></trkpt>
      <trkpt lat="22.3631341287" lon="114.3731793004"><ele>6.000</ele></trkpt>
      <trkpt lat="22.3630932935" lon="114.3731585855"><ele>6.000</ele></trkpt>
      <trkpt lat="22.3630524583" lon="114.3731378706"><ele>6.000</ele></trkpt>
      <trkpt lat="22.3630116230" lon="114.3731171556"><ele>6.000</ele></trkpt>
      <trkpt lat="22.3629707878" lon="114.3730964407"><ele>6.000</ele></trkpt>
      <trkpt lat="22.3629299525" lon="114.3730757259"><ele>6.000</ele></trkpt>
      <trkpt lat="22.3628891173" lon="114.3730550110"><ele>6.000</ele></trkpt>
      <trkpt lat="22.3628482821" lon="114.3730342961"><ele>6.000</ele></trkpt>
      <trkpt lat="22.3628074468" lon="114.3730135813"><ele>6.000</ele></trkpt>
      <trkpt lat="22.3627958326" lon="114.3730076897"><ele>6.000</ele></trkpt>
      <trkpt lat="22.3627527266" lon="114.3729932407"><ele>6.000</ele></trkpt>
      <trkpt lat="22.3627096205" lon="114.3729787918"><ele>6.000</ele></trkpt>
      <trkpt lat="22.3626665144" lon="114.3729643429"><ele>6.000</ele></trkpt>
      <trkpt lat="22.3626234083" lon="114.3729498940"><ele>6.000</ele></trkpt>
      <trkpt lat="22.3625803022" lon="114.3729354451"><ele>6.000</ele></trkpt>
      <trkpt lat="22.3625371961" lon="114.3729209962"><ele>6.000</ele></trkpt>
      <trkpt lat="22.3625012669" lon="114.3729089530"><ele>6.000</ele></trkpt>
      <trkpt lat="22.3624580932" lon="114.3728947392"><ele>6.000</ele></trkpt>
      <trkpt lat="22.3624149195" lon="114.3728805254"><ele>6.000</ele></trkpt>
      <trkpt lat="22.3623717459" lon="114.3728663117"><ele>6.000</ele></trkpt>
      <trkpt lat="22.3623285722" lon="114.3728520980"><ele>6.000</ele></trkpt>
      <trkpt lat="22.3622853985" lon="114.3728378842"><ele>6.000</ele></trkpt>
      <trkpt lat="22.3622422249" lon="114.3728236705"><ele>6.000</ele></trkpt>
      <trkpt lat="22.3621990512" lon="114.3728094568"><ele>5.000</ele></trkpt>
      <trkpt lat="22.3621717115" lon="114.3728004560"><ele>5.000</ele></trkpt>
      <trkpt lat="22.3621423424" lon="114.3728373282"><ele>5.000</ele></trkpt>
      <trkpt lat="22.3621129733" lon="114.3728742004"><ele>5.000</ele></trkpt>
      <trkpt lat="22.3620836042" lon="114.3729110725"><ele>4.000</ele></trkpt>
      <trkpt lat="22.3620542351" lon="114.3729479447"><ele>4.000</ele></trkpt>
      <trkpt lat="22.3620248660" lon="114.3729848168"><ele>1.000</ele></trkpt>
      <trkpt lat="22.3619954969" lon="114.3730216890"><ele>1.000</ele></trkpt>
      <trkpt lat="22.3619661278" lon="114.3730585611"><ele>1.000</ele></trkpt>
      <trkpt lat="22.3619367587" lon="114.3730954332"><ele>1.000</ele></trkpt>
      <trkpt lat="22.3619073895" lon="114.3731323053"><ele>1.000</ele></trkpt>
      <trkpt lat="22.3619003238" lon="114.3731411761"><ele>1.000</ele></trkpt>
    </trkseg>
  </trk>
</gpx>
