<?xml version="1.0" encoding="UTF-8"?>
<gpx xmlns:xsi="http://www.w3.org/2001/XMLSchema-instance"
     xsi:schemaLocation="http://www.topografix.com/GPX/1/1 http://www.topografix.com/GPX/1/1/gpx.xsd"
     version="1.1" creator="json3d_batch_to_gpx"
     xmlns="http://www.topografix.com/GPX/1/1">
  <metadata>
    <name>HongKongTrail(Section2)PokFuLamReservoirRoadtoPeelRise</name>
  </metadata>
  <trk>
    <name>HongKongTrail(Section2)PokFuLamReservoirRoadtoPeelRise</name>
    <type>hike</type>
    <trkseg>
      <trkpt lat="22.2665146670" lon="114.1426809695"><ele>234.000</ele></trkpt>
      <trkpt lat="22.2664365727" lon="114.1426727870"><ele>226.000</ele></trkpt>
      <trkpt lat="22.2663485923" lon="114.1426290335"><ele>230.000</ele></trkpt>
      <trkpt lat="22.2662856130" lon="114.1425798019"><ele>231.000</ele></trkpt>
      <trkpt lat="22.2662434720" lon="114.1425434984"><ele>228.000</ele></trkpt>
      <trkpt lat="22.2661846598" lon="114.1424962558"><ele>231.000</ele></trkpt>
      <trkpt lat="22.2661346480" lon="114.1424619442"><ele>231.000</ele></trkpt>
      <trkpt lat="22.2661050117" lon="114.1424430494"><ele>231.000</ele></trkpt>
      <trkpt lat="22.2660753782" lon="114.1424370868"><ele>232.000</ele></trkpt>
      <trkpt lat="22.2660531535" lon="114.1424360978"><ele>233.000</ele></trkpt>
      <trkpt lat="22.2660341703" lon="114.1424365992"><ele>233.000</ele></trkpt>
      <trkpt lat="22.2660161144" lon="114.1424405835"><ele>233.000</ele></trkpt>
      <trkpt lat="22.2659985213" lon="114.1424470543"><ele>234.000</ele></trkpt>
      <trkpt lat="22.2659716702" lon="114.1424629794"><ele>234.000</ele></trkpt>
      <trkpt lat="22.2659429677" lon="114.1424823861"><ele>235.000</ele></trkpt>
      <trkpt lat="22.2659124110" lon="114.1424923433"><ele>234.000</ele></trkpt>
      <trkpt lat="22.2658878722" lon="114.1424933437"><ele>234.000</ele></trkpt>
      <trkpt lat="22.2658582371" lon="114.1424799201"><ele>235.000</ele></trkpt>
      <trkpt lat="22.2658424918" lon="114.1424654977"><ele>232.000</ele></trkpt>
      <trkpt lat="22.2658332274" lon="114.1424446080"><ele>232.000</ele></trkpt>
      <trkpt lat="22.2657711498" lon="114.1422829543"><ele>233.000</ele></trkpt>
      <trkpt lat="22.2657373312" lon="114.1421909367"><ele>232.000</ele></trkpt>
      <trkpt lat="22.2657076854" lon="114.1421322453"><ele>230.000</ele></trkpt>
      <trkpt lat="22.2656738758" lon="114.1420825102"><ele>230.000</ele></trkpt>
      <trkpt lat="22.2656335834" lon="114.1420347656"><ele>229.000</ele></trkpt>
      <trkpt lat="22.2655969977" lon="114.1419934877"><ele>232.000</ele></trkpt>
      <trkpt lat="22.2655724521" lon="114.1419666311"><ele>228.000</ele></trkpt>
      <trkpt lat="22.2655326267" lon="114.1419362972"><ele>224.000</ele></trkpt>
      <trkpt lat="22.2654941942" lon="114.1419198915"><ele>228.000</ele></trkpt>
      <trkpt lat="22.2654650234" lon="114.1419119400"><ele>231.000</ele></trkpt>
      <trkpt lat="22.2654353904" lon="114.1419124441"><ele>231.000</ele></trkpt>
      <trkpt lat="22.2653937208" lon="114.1419149421"><ele>235.000</ele></trkpt>
      <trkpt lat="22.2653594571" lon="114.1419084841"><ele>236.000</ele></trkpt>
      <trkpt lat="22.2653228765" lon="114.1418955591"><ele>236.000</ele></trkpt>
      <trkpt lat="22.2652812001" lon="114.1418706978"><ele>232.000</ele></trkpt>
      <trkpt lat="22.2651996988" lon="114.1418135127"><ele>232.000</ele></trkpt>
      <trkpt lat="22.2651756185" lon="114.1417961081"><ele>232.000</ele></trkpt>
      <trkpt lat="22.2651237585" lon="114.1417811980"><ele>229.000</ele></trkpt>
      <trkpt lat="22.2650797684" lon="114.1417603162"><ele>228.000</ele></trkpt>
      <trkpt lat="22.2650589262" lon="114.1417250034"><ele>227.000</ele></trkpt>
      <trkpt lat="22.2650640092" lon="114.1416817254"><ele>224.000</ele></trkpt>
      <trkpt lat="22.2650899302" lon="114.1416459032"><ele>227.000</ele></trkpt>
      <trkpt lat="22.2651135381" lon="114.1416205279"><ele>224.000</ele></trkpt>
      <trkpt lat="22.2652223251" lon="114.1415294695"><ele>235.000</ele></trkpt>
      <trkpt lat="22.2653024109" lon="114.1414637877"><ele>234.000</ele></trkpt>
      <trkpt lat="22.2653306498" lon="114.1414433855"><ele>234.000</ele></trkpt>
      <trkpt lat="22.2653630565" lon="114.1414279566"><ele>232.000</ele></trkpt>
      <trkpt lat="22.2653982430" lon="114.1414170036"><ele>230.000</ele></trkpt>
      <trkpt lat="22.2654320414" lon="114.1414140107"><ele>230.000</ele></trkpt>
      <trkpt lat="22.2654658413" lon="114.1414140022"><ele>230.000</ele></trkpt>
      <trkpt lat="22.2655241836" lon="114.1414294083"><ele>228.000</ele></trkpt>
      <trkpt lat="22.2656404062" lon="114.1414661894"><ele>226.000</ele></trkpt>
      <trkpt lat="22.2656825398" lon="114.1414671743"><ele>225.000</ele></trkpt>
      <trkpt lat="22.2657056900" lon="114.1414636863"><ele>224.000</ele></trkpt>
      <trkpt lat="22.2657330050" lon="114.1414552230"><ele>225.000</ele></trkpt>
      <trkpt lat="22.2657575424" lon="114.1414437759"><ele>223.000</ele></trkpt>
      <trkpt lat="22.2657783744" lon="114.1414318320"><ele>223.000</ele></trkpt>
      <trkpt lat="22.2657992069" lon="114.1414178982"><ele>222.000</ele></trkpt>
      <trkpt lat="22.2658186496" lon="114.1413999849"><ele>224.000</ele></trkpt>
      <trkpt lat="22.2658362399" lon="114.1413810785"><ele>224.000</ele></trkpt>
      <trkpt lat="22.2658496631" lon="114.1413646589"><ele>224.000</ele></trkpt>
      <trkpt lat="22.2658644740" lon="114.1413427678"><ele>224.000</ele></trkpt>
      <trkpt lat="22.2658765067" lon="114.1413149086"><ele>222.000</ele></trkpt>
      <trkpt lat="22.2658862244" lon="114.1412895366"><ele>222.000</ele></trkpt>
      <trkpt lat="22.2658908490" lon="114.1412646627"><ele>222.000</ele></trkpt>
      <trkpt lat="22.2658945460" lon="114.1412308357"><ele>222.000</ele></trkpt>
      <trkpt lat="22.2658950020" lon="114.1412019840"><ele>222.000</ele></trkpt>
      <trkpt lat="22.2658903654" lon="114.1411721390"><ele>222.000</ele></trkpt>
      <trkpt lat="22.2658801719" lon="114.1411363257"><ele>222.000</ele></trkpt>
      <trkpt lat="22.2658648839" lon="114.1410995191"><ele>224.000</ele></trkpt>
      <trkpt lat="22.2658412595" lon="114.1410492839"><ele>224.000</ele></trkpt>
      <trkpt lat="22.2658264385" lon="114.1410249126"><ele>224.000</ele></trkpt>
      <trkpt lat="22.2658097629" lon="114.1409940753"><ele>222.000</ele></trkpt>
      <trkpt lat="22.2658051248" lon="114.1409572661"><ele>220.000</ele></trkpt>
      <trkpt lat="22.2658060450" lon="114.1409289119"><ele>220.000</ele></trkpt>
      <trkpt lat="22.2658162220" lon="114.1408896113"><ele>220.000</ele></trkpt>
      <trkpt lat="22.2658333449" lon="114.1408522988"><ele>220.000</ele></trkpt>
      <trkpt lat="22.2658402828" lon="114.1408179742"><ele>219.000</ele></trkpt>
      <trkpt lat="22.2658430476" lon="114.1407592748"><ele>220.000</ele></trkpt>
      <trkpt lat="22.2658398012" lon="114.1407353984"><ele>220.000</ele></trkpt>
      <trkpt lat="22.2658245106" lon="114.1406831711"><ele>222.000</ele></trkpt>
      <trkpt lat="22.2658059835" lon="114.1406513398"><ele>224.000</ele></trkpt>
      <trkpt lat="22.2657768050" lon="114.1406130447"><ele>227.000</ele></trkpt>
      <trkpt lat="22.2657318831" lon="114.1405653017"><ele>227.000</ele></trkpt>
      <trkpt lat="22.2656726037" lon="114.1405026394"><ele>222.000</ele></trkpt>
      <trkpt lat="22.2656426502" lon="114.1405078903"><ele>224.000</ele></trkpt>
      <trkpt lat="22.2656060460" lon="114.1405351621"><ele>228.000</ele></trkpt>
      <trkpt lat="22.2655841415" lon="114.1405442481"><ele>228.000</ele></trkpt>
      <trkpt lat="22.2655609604" lon="114.1405511552"><ele>228.000</ele></trkpt>
      <trkpt lat="22.2655375690" lon="114.1405583254"><ele>228.000</ele></trkpt>
      <trkpt lat="22.2655165991" lon="114.1405671375"><ele>228.000</ele></trkpt>
      <trkpt lat="22.2654619670" lon="114.1405940200"><ele>232.000</ele></trkpt>
      <trkpt lat="22.2654314789" lon="114.1406115686"><ele>232.000</ele></trkpt>
      <trkpt lat="22.2653908303" lon="114.1406369775"><ele>231.000</ele></trkpt>
      <trkpt lat="22.2653607756" lon="114.1406579072"><ele>231.000</ele></trkpt>
      <trkpt lat="22.2653426814" lon="114.1406724506"><ele>231.000</ele></trkpt>
      <trkpt lat="22.2653309933" lon="114.1406776676"><ele>232.000</ele></trkpt>
      <trkpt lat="22.2651556881" lon="114.1407243647"><ele>234.000</ele></trkpt>
      <trkpt lat="22.2650900119" lon="114.1407418592"><ele>238.000</ele></trkpt>
      <trkpt lat="22.2650242762" lon="114.1409140234"><ele>245.000</ele></trkpt>
      <trkpt lat="22.2648738073" lon="114.1410213534"><ele>251.000</ele></trkpt>
      <trkpt lat="22.2648181027" lon="114.1410610876"><ele>252.000</ele></trkpt>
      <trkpt lat="22.2647672275" lon="114.1410976846"><ele>255.000</ele></trkpt>
      <trkpt lat="22.2647507810" lon="114.1411184408"><ele>256.000</ele></trkpt>
      <trkpt lat="22.2647438830" lon="114.1411454612"><ele>256.000</ele></trkpt>
      <trkpt lat="22.2647420964" lon="114.1411603546"><ele>256.000</ele></trkpt>
      <trkpt lat="22.2647341251" lon="114.1411730325"><ele>258.000</ele></trkpt>
      <trkpt lat="22.2647228993" lon="114.1411824368"><ele>258.000</ele></trkpt>
      <trkpt lat="22.2647101214" lon="114.1411886882"><ele>258.000</ele></trkpt>
      <trkpt lat="22.2646964120" lon="114.1411929160"><ele>258.000</ele></trkpt>
      <trkpt lat="22.2646531010" lon="114.1412013427"><ele>260.000</ele></trkpt>
      <trkpt lat="22.2646252558" lon="114.1412133484"><ele>260.000</ele></trkpt>
      <trkpt lat="22.2646117521" lon="114.1412205120"><ele>262.000</ele></trkpt>
      <trkpt lat="22.2645846677" lon="114.1412386513"><ele>262.000</ele></trkpt>
      <trkpt lat="22.2645571490" lon="114.1412573058"><ele>264.000</ele></trkpt>
      <trkpt lat="22.2645272754" lon="114.1412726787"><ele>264.000</ele></trkpt>
      <trkpt lat="22.2644955393" lon="114.1412865191"><ele>264.000</ele></trkpt>
      <trkpt lat="22.2644473620" lon="114.1413004083"><ele>264.000</ele></trkpt>
      <trkpt lat="22.2644300708" lon="114.1413038317"><ele>264.000</ele></trkpt>
      <trkpt lat="22.2644073936" lon="114.1413515915"><ele>266.000</ele></trkpt>
      <trkpt lat="22.2643796215" lon="114.1413884086"><ele>268.000</ele></trkpt>
      <trkpt lat="22.2643509219" lon="114.1414207492"><ele>268.000</ele></trkpt>
      <trkpt lat="22.2643120368" lon="114.1414540879"><ele>268.000</ele></trkpt>
      <trkpt lat="22.2642509293" lon="114.1414963853"><ele>268.000</ele></trkpt>
      <trkpt lat="22.2641435263" lon="114.1415645601"><ele>268.000</ele></trkpt>
      <trkpt lat="22.2640092721" lon="114.1416481632"><ele>269.000</ele></trkpt>
      <trkpt lat="22.2639615892" lon="114.1416765286"><ele>273.000</ele></trkpt>
      <trkpt lat="22.2639092742" lon="114.1416999209"><ele>275.000</ele></trkpt>
      <trkpt lat="22.2638416807" lon="114.1417248102"><ele>276.000</ele></trkpt>
      <trkpt lat="22.2637805680" lon="114.1417437271"><ele>276.000</ele></trkpt>
      <trkpt lat="22.2637426034" lon="114.1417536861"><ele>278.000</ele></trkpt>
      <trkpt lat="22.2636574136" lon="114.1417701223"><ele>276.000</ele></trkpt>
      <trkpt lat="22.2635759282" lon="114.1417870554"><ele>277.000</ele></trkpt>
      <trkpt lat="22.2635171271" lon="114.1417920443"><ele>278.000</ele></trkpt>
      <trkpt lat="22.2634828638" lon="114.1417875753"><ele>278.000</ele></trkpt>
      <trkpt lat="22.2634560069" lon="114.1417761412"><ele>278.000</ele></trkpt>
      <trkpt lat="22.2634300738" lon="114.1417562506"><ele>276.000</ele></trkpt>
      <trkpt lat="22.2633985812" lon="114.1417184533"><ele>278.000</ele></trkpt>
      <trkpt lat="22.2633666241" lon="114.1416712052"><ele>276.000</ele></trkpt>
      <trkpt lat="22.2633467084" lon="114.1416443490"><ele>276.000</ele></trkpt>
      <trkpt lat="22.2633059538" lon="114.1415976009"><ele>276.000</ele></trkpt>
      <trkpt lat="22.2632772371" lon="114.1415513466"><ele>278.000</ele></trkpt>
      <trkpt lat="22.2632336992" lon="114.1414797279"><ele>280.000</ele></trkpt>
      <trkpt lat="22.2631971080" lon="114.1414180551"><ele>280.000</ele></trkpt>
      <trkpt lat="22.2631577382" lon="114.1413529019"><ele>278.000</ele></trkpt>
      <trkpt lat="22.2631197587" lon="114.1412942139"><ele>276.000</ele></trkpt>
      <trkpt lat="22.2630891933" lon="114.1412603963"><ele>276.000</ele></trkpt>
      <trkpt lat="22.2630493661" lon="114.1412221045"><ele>275.000</ele></trkpt>
      <trkpt lat="22.2629970390" lon="114.1411897846"><ele>274.000</ele></trkpt>
      <trkpt lat="22.2629465644" lon="114.1411589564"><ele>274.000</ele></trkpt>
      <trkpt lat="22.2628817357" lon="114.1411246508"><ele>272.000</ele></trkpt>
      <trkpt lat="22.2628020900" lon="114.1410843784"><ele>268.000</ele></trkpt>
      <trkpt lat="22.2627317060" lon="114.1410515664"><ele>266.000</ele></trkpt>
      <trkpt lat="22.2626710459" lon="114.1410257152"><ele>266.000</ele></trkpt>
      <trkpt lat="22.2625816770" lon="114.1409859440"><ele>266.000</ele></trkpt>
      <trkpt lat="22.2625108302" lon="114.1409556189"><ele>266.000</ele></trkpt>
      <trkpt lat="22.2624473919" lon="114.1409282763"><ele>264.000</ele></trkpt>
      <trkpt lat="22.2623802500" lon="114.1408999402"><ele>264.000</ele></trkpt>
      <trkpt lat="22.2623362603" lon="114.1408815458"><ele>261.000</ele></trkpt>
      <trkpt lat="22.2622881025" lon="114.1408571846"><ele>261.000</ele></trkpt>
      <trkpt lat="22.2622089154" lon="114.1408000008"><ele>260.000</ele></trkpt>
      <trkpt lat="22.2621241716" lon="114.1407383410"><ele>255.000</ele></trkpt>
      <trkpt lat="22.2620385015" lon="114.1406781746"><ele>257.000</ele></trkpt>
      <trkpt lat="22.2619954348" lon="114.1406478426"><ele>253.000</ele></trkpt>
      <trkpt lat="22.2619722816" lon="114.1406339204"><ele>250.000</ele></trkpt>
      <trkpt lat="22.2619537593" lon="114.1406239767"><ele>253.000</ele></trkpt>
      <trkpt lat="22.2618944894" lon="114.1406001153"><ele>248.000</ele></trkpt>
      <trkpt lat="22.2618370710" lon="114.1405772480"><ele>250.000</ele></trkpt>
      <trkpt lat="22.2618162337" lon="114.1405692948"><ele>250.000</ele></trkpt>
      <trkpt lat="22.2617875258" lon="114.1405638302"><ele>249.000</ele></trkpt>
      <trkpt lat="22.2617203880" lon="114.1405543968"><ele>245.000</ele></trkpt>
      <trkpt lat="22.2616611218" lon="114.1405469503"><ele>244.000</ele></trkpt>
      <trkpt lat="22.2616208384" lon="114.1405414888"><ele>242.000</ele></trkpt>
      <trkpt lat="22.2615958393" lon="114.1405559211"><ele>242.000</ele></trkpt>
      <trkpt lat="22.2615838082" lon="114.1405862671"><ele>240.000</ele></trkpt>
      <trkpt lat="22.2615750192" lon="114.1406250686"><ele>240.000</ele></trkpt>
      <trkpt lat="22.2615592840" lon="114.1406564110"><ele>244.000</ele></trkpt>
      <trkpt lat="22.2615370657" lon="114.1406802932"><ele>240.000</ele></trkpt>
      <trkpt lat="22.2615097524" lon="114.1407001970"><ele>245.000</ele></trkpt>
      <trkpt lat="22.2614514186" lon="114.1407230931"><ele>242.000</ele></trkpt>
      <trkpt lat="22.2614125275" lon="114.1407285750"><ele>237.000</ele></trkpt>
      <trkpt lat="22.2613671530" lon="114.1407290843"><ele>238.000</ele></trkpt>
      <trkpt lat="22.2612990890" lon="114.1407211423"><ele>238.000</ele></trkpt>
      <trkpt lat="22.2612287092" lon="114.1407117097"><ele>238.000</ele></trkpt>
      <trkpt lat="22.2611675910" lon="114.1407052590"><ele>241.000</ele></trkpt>
      <trkpt lat="22.2611046208" lon="114.1406998033"><ele>244.000</ele></trkpt>
      <trkpt lat="22.2610416511" lon="114.1406963374"><ele>244.000</ele></trkpt>
      <trkpt lat="22.2609522897" lon="114.1406908885"><ele>246.000</ele></trkpt>
      <trkpt lat="22.2608846907" lon="114.1406909058"><ele>248.000</ele></trkpt>
      <trkpt lat="22.2608490393" lon="114.1406943970"><ele>248.000</ele></trkpt>
      <trkpt lat="22.2608207990" lon="114.1407038559"><ele>248.000</ele></trkpt>
      <trkpt lat="22.2607967263" lon="114.1407217689"><ele>248.000</ele></trkpt>
      <trkpt lat="22.2607805261" lon="114.1407456495"><ele>248.000</ele></trkpt>
      <trkpt lat="22.2607666439" lon="114.1407809699"><ele>248.000</ele></trkpt>
      <trkpt lat="22.2607620207" lon="114.1408118116"><ele>248.000</ele></trkpt>
      <trkpt lat="22.2607643432" lon="114.1408476256"><ele>248.000</ele></trkpt>
      <trkpt lat="22.2607773216" lon="114.1409107944"><ele>244.000</ele></trkpt>
      <trkpt lat="22.2607944698" lon="114.1409878912"><ele>241.000</ele></trkpt>
      <trkpt lat="22.2608088409" lon="114.1410689675"><ele>242.000</ele></trkpt>
      <trkpt lat="22.2608204251" lon="114.1411082612"><ele>244.000</ele></trkpt>
      <trkpt lat="22.2608320071" lon="114.1411381033"><ele>243.000</ele></trkpt>
      <trkpt lat="22.2608454412" lon="114.1411714270"><ele>242.000</ele></trkpt>
      <trkpt lat="22.2608630419" lon="114.1411997764"><ele>242.000</ele></trkpt>
      <trkpt lat="22.2608861991" lon="114.1412321023"><ele>243.000</ele></trkpt>
      <trkpt lat="22.2609125965" lon="114.1412604495"><ele>248.000</ele></trkpt>
      <trkpt lat="22.2609510337" lon="114.1412937669"><ele>246.000</ele></trkpt>
      <trkpt lat="22.2609806712" lon="114.1413176359"><ele>249.000</ele></trkpt>
      <trkpt lat="22.2610181794" lon="114.1413395130"><ele>250.000</ele></trkpt>
      <trkpt lat="22.2610459636" lon="114.1413539308"><ele>253.000</ele></trkpt>
      <trkpt lat="22.2610765275" lon="114.1413812816"><ele>250.000</ele></trkpt>
      <trkpt lat="22.2610964442" lon="114.1414126149"><ele>248.000</ele></trkpt>
      <trkpt lat="22.2611061732" lon="114.1414429552"><ele>248.000</ele></trkpt>
      <trkpt lat="22.2611094216" lon="114.1414762816"><ele>250.000</ele></trkpt>
      <trkpt lat="22.2611038718" lon="114.1415031438"><ele>250.000</ele></trkpt>
      <trkpt lat="22.2610923043" lon="114.1415399558"><ele>250.000</ele></trkpt>
      <trkpt lat="22.2610747231" lon="114.1416011436"><ele>251.000</ele></trkpt>
      <trkpt lat="22.2610557548" lon="114.1416702902"><ele>254.000</ele></trkpt>
      <trkpt lat="22.2610173489" lon="114.1417777439"><ele>254.000</ele></trkpt>
      <trkpt lat="22.2610039305" lon="114.1418205250"><ele>254.000</ele></trkpt>
      <trkpt lat="22.2609969919" lon="114.1418483829"><ele>254.000</ele></trkpt>
      <trkpt lat="22.2609937560" lon="114.1418727569"><ele>254.000</ele></trkpt>
      <trkpt lat="22.2609923726" lon="114.1418981269"><ele>254.000</ele></trkpt>
      <trkpt lat="22.2609933062" lon="114.1419354335"><ele>254.000</ele></trkpt>
      <trkpt lat="22.2609970197" lon="114.1419777136"><ele>255.000</ele></trkpt>
      <trkpt lat="22.2610007332" lon="114.1420244702"><ele>258.000</ele></trkpt>
      <trkpt lat="22.2610025963" lon="114.1420757047"><ele>258.000</ele></trkpt>
      <trkpt lat="22.2610012165" lon="114.1421184828"><ele>258.000</ele></trkpt>
      <trkpt lat="22.2609970596" lon="114.1421642469"><ele>256.000</ele></trkpt>
      <trkpt lat="22.2609781083" lon="114.1423149711"><ele>255.000</ele></trkpt>
      <trkpt lat="22.2609600821" lon="114.1424637052"><ele>257.000</ele></trkpt>
      <trkpt lat="22.2609494486" lon="114.1425368293"><ele>258.000</ele></trkpt>
      <trkpt lat="22.2609313991" lon="114.1425711562"><ele>258.000</ele></trkpt>
      <trkpt lat="22.2609077938" lon="114.1426094632"><ele>256.000</ele></trkpt>
      <trkpt lat="22.2608777046" lon="114.1426398133"><ele>258.000</ele></trkpt>
      <trkpt lat="22.2608550195" lon="114.1426522538"><ele>260.000</ele></trkpt>
      <trkpt lat="22.2608207582" lon="114.1426572373"><ele>260.000</ele></trkpt>
      <trkpt lat="22.2607911256" lon="114.1426557523"><ele>260.000</ele></trkpt>
      <trkpt lat="22.2607638072" lon="114.1426527737"><ele>260.000</ele></trkpt>
      <trkpt lat="22.2607327849" lon="114.1426473103"><ele>260.000</ele></trkpt>
      <trkpt lat="22.2606786109" lon="114.1426388663"><ele>258.000</ele></trkpt>
      <trkpt lat="22.2605850808" lon="114.1426239665"><ele>254.000</ele></trkpt>
      <trkpt lat="22.2605434079" lon="114.1426150237"><ele>254.000</ele></trkpt>
      <trkpt lat="22.2605059027" lon="114.1426065766"><ele>254.000</ele></trkpt>
      <trkpt lat="22.2604670081" lon="114.1425961400"><ele>254.000</ele></trkpt>
      <trkpt lat="22.2604355219" lon="114.1425876915"><ele>257.000</ele></trkpt>
      <trkpt lat="22.2603748620" lon="114.1425618401"><ele>256.000</ele></trkpt>
      <trkpt lat="22.2603405968" lon="114.1425479204"><ele>258.000</ele></trkpt>
      <trkpt lat="22.2602702139" lon="114.1425195847"><ele>256.000</ele></trkpt>
      <trkpt lat="22.2602225200" lon="114.1425006942"><ele>256.000</ele></trkpt>
      <trkpt lat="22.2601655656" lon="114.1424803137"><ele>256.000</ele></trkpt>
      <trkpt lat="22.2601340786" lon="114.1424683842"><ele>254.000</ele></trkpt>
      <trkpt lat="22.2600224881" lon="114.1424405554"><ele>256.000</ele></trkpt>
      <trkpt lat="22.2599840557" lon="114.1424291244"><ele>256.000</ele></trkpt>
      <trkpt lat="22.2599572005" lon="114.1424256490"><ele>256.000</ele></trkpt>
      <trkpt lat="22.2599326619" lon="114.1424276438"><ele>256.000</ele></trkpt>
      <trkpt lat="22.2599146065" lon="114.1424385919"><ele>250.000</ele></trkpt>
      <trkpt lat="22.2599007213" lon="114.1424614772"><ele>250.000</ele></trkpt>
      <trkpt lat="22.2598933209" lon="114.1424967957"><ele>252.000</ele></trkpt>
      <trkpt lat="22.2598826870" lon="114.1425679284"><ele>258.000</ele></trkpt>
      <trkpt lat="22.2598785335" lon="114.1426350818"><ele>260.000</ele></trkpt>
      <trkpt lat="22.2598831773" lon="114.1427007400"><ele>259.000</ele></trkpt>
      <trkpt lat="22.2598929095" lon="114.1427430183"><ele>259.000</ele></trkpt>
      <trkpt lat="22.2599137531" lon="114.1427818120"><ele>258.000</ele></trkpt>
      <trkpt lat="22.2599549705" lon="114.1428275647"><ele>254.000</ele></trkpt>
      <trkpt lat="22.2600855628" lon="114.1429439295"><ele>258.000</ele></trkpt>
      <trkpt lat="22.2601721588" lon="114.1430095690"><ele>260.000</ele></trkpt>
      <trkpt lat="22.2602068887" lon="114.1430299540"><ele>264.000</ele></trkpt>
      <trkpt lat="22.2602402275" lon="114.1430403920"><ele>268.000</ele></trkpt>
      <trkpt lat="22.2602828264" lon="114.1430508278"><ele>268.000</ele></trkpt>
      <trkpt lat="22.2603226473" lon="114.1430647463"><ele>270.000</ele></trkpt>
      <trkpt lat="22.2603680269" lon="114.1430851298"><ele>266.000</ele></trkpt>
      <trkpt lat="22.2604064620" lon="114.1431139711"><ele>264.000</ele></trkpt>
      <trkpt lat="22.2604564773" lon="114.1431656906"><ele>264.000</ele></trkpt>
      <trkpt lat="22.2604981585" lon="114.1432149256"><ele>264.000</ele></trkpt>
      <trkpt lat="22.2605273360" lon="114.1432557073"><ele>264.000</ele></trkpt>
      <trkpt lat="22.2605421579" lon="114.1432815700"><ele>264.000</ele></trkpt>
      <trkpt lat="22.2605481832" lon="114.1433124081"><ele>259.000</ele></trkpt>
      <trkpt lat="22.2605444846" lon="114.1433402650"><ele>259.000</ele></trkpt>
      <trkpt lat="22.2605356929" lon="114.1433646412"><ele>256.000</ele></trkpt>
      <trkpt lat="22.2605227327" lon="114.1433850377"><ele>256.000</ele></trkpt>
      <trkpt lat="22.2605023638" lon="114.1434014582"><ele>258.000</ele></trkpt>
      <trkpt lat="22.2604792156" lon="114.1434109143"><ele>258.000</ele></trkpt>
      <trkpt lat="22.2604556029" lon="114.1434139042"><ele>259.000</ele></trkpt>
      <trkpt lat="22.2604329148" lon="114.1434124174"><ele>259.000</ele></trkpt>
      <trkpt lat="22.2604042085" lon="114.1434139164"><ele>260.000</ele></trkpt>
      <trkpt lat="22.2602754992" lon="114.1434452850"><ele>260.000</ele></trkpt>
      <trkpt lat="22.2602254970" lon="114.1434572350"><ele>261.000</ele></trkpt>
      <trkpt lat="22.2601935499" lon="114.1434602269"><ele>261.000</ele></trkpt>
      <trkpt lat="22.2601722527" lon="114.1434637139"><ele>261.000</ele></trkpt>
      <trkpt lat="22.2601472519" lon="114.1434706839"><ele>261.000</ele></trkpt>
      <trkpt lat="22.2601291958" lon="114.1434786466"><ele>259.000</ele></trkpt>
      <trkpt lat="22.2601153079" lon="114.1434890959"><ele>259.000</ele></trkpt>
      <trkpt lat="22.2600676254" lon="114.1435259161"><ele>259.000</ele></trkpt>
      <trkpt lat="22.2600208677" lon="114.1435537832"><ele>260.000</ele></trkpt>
      <trkpt lat="22.2599912387" lon="114.1435702048"><ele>259.000</ele></trkpt>
      <trkpt lat="22.2599662389" lon="114.1435821488"><ele>259.000</ele></trkpt>
      <trkpt lat="22.2599398491" lon="114.1435935955"><ele>260.000</ele></trkpt>
      <trkpt lat="22.2599222570" lon="114.1436005636"><ele>260.000</ele></trkpt>
      <trkpt lat="22.2599023496" lon="114.1436125065"><ele>258.000</ele></trkpt>
      <trkpt lat="22.2598838327" lon="114.1436284287"><ele>258.000</ele></trkpt>
      <trkpt lat="22.2598690212" lon="114.1436488264"><ele>258.000</ele></trkpt>
      <trkpt lat="22.2598574499" lon="114.1436692234"><ele>258.000</ele></trkpt>
      <trkpt lat="22.2598500469" lon="114.1436931005"><ele>260.000</ele></trkpt>
      <trkpt lat="22.2598431081" lon="114.1437259322"><ele>260.000</ele></trkpt>
      <trkpt lat="22.2598384860" lon="114.1437647320"><ele>262.000</ele></trkpt>
      <trkpt lat="22.2598352492" lon="114.1437861215"><ele>262.000</ele></trkpt>
      <trkpt lat="22.2598301602" lon="114.1438070146"><ele>262.000</ele></trkpt>
      <trkpt lat="22.2598218304" lon="114.1438254210"><ele>259.000</ele></trkpt>
      <trkpt lat="22.2598097942" lon="114.1438378597"><ele>262.000</ele></trkpt>
      <trkpt lat="22.2597977579" lon="114.1438458209"><ele>262.000</ele></trkpt>
      <trkpt lat="22.2597648875" lon="114.1438602543"><ele>257.000</ele></trkpt>
      <trkpt lat="22.2597371092" lon="114.1438736911"><ele>257.000</ele></trkpt>
      <trkpt lat="22.2596949814" lon="114.1439015559"><ele>260.000</ele></trkpt>
      <trkpt lat="22.2596621127" lon="114.1439249421"><ele>256.000</ele></trkpt>
      <trkpt lat="22.2596329484" lon="114.1439483284"><ele>256.000</ele></trkpt>
      <trkpt lat="22.2596209125" lon="114.1439622583"><ele>256.000</ele></trkpt>
      <trkpt lat="22.2596111923" lon="114.1439776806"><ele>256.000</ele></trkpt>
      <trkpt lat="22.2596047145" lon="114.1439950921"><ele>259.000</ele></trkpt>
      <trkpt lat="22.2596028657" lon="114.1440120048"><ele>259.000</ele></trkpt>
      <trkpt lat="22.2596047244" lon="114.1440443367"><ele>261.000</ele></trkpt>
      <trkpt lat="22.2596102932" lon="114.1441094968"><ele>263.000</ele></trkpt>
      <trkpt lat="22.2596163231" lon="114.1441637142"><ele>263.000</ele></trkpt>
      <trkpt lat="22.2596167900" lon="114.1441821184"><ele>262.000</ele></trkpt>
      <trkpt lat="22.2596130909" lon="114.1442084831"><ele>262.000</ele></trkpt>
      <trkpt lat="22.2596042998" lon="114.1442363401"><ele>261.000</ele></trkpt>
      <trkpt lat="22.2595941181" lon="114.1442607164"><ele>258.000</ele></trkpt>
      <trkpt lat="22.2595820837" lon="114.1442781291"><ele>258.000</ele></trkpt>
      <trkpt lat="22.2595672706" lon="114.1442955415"><ele>258.000</ele></trkpt>
      <trkpt lat="22.2595427360" lon="114.1443179312"><ele>257.000</ele></trkpt>
      <trkpt lat="22.2595242205" lon="114.1443408163"><ele>258.000</ele></trkpt>
      <trkpt lat="22.2595107971" lon="114.1443622091"><ele>258.000</ele></trkpt>
      <trkpt lat="22.2595061723" lon="114.1443880762"><ele>256.000</ele></trkpt>
      <trkpt lat="22.2595080293" lon="114.1444124487"><ele>256.000</ele></trkpt>
      <trkpt lat="22.2595159054" lon="114.1444373175"><ele>259.000</ele></trkpt>
      <trkpt lat="22.2595284109" lon="114.1444592010"><ele>259.000</ele></trkpt>
      <trkpt lat="22.2596145554" lon="114.1445870185"><ele>263.000</ele></trkpt>
      <trkpt lat="22.2596404924" lon="114.1446282978"><ele>263.000</ele></trkpt>
      <trkpt lat="22.2596622630" lon="114.1446755485"><ele>266.000</ele></trkpt>
      <trkpt lat="22.2596659725" lon="114.1447019105"><ele>266.000</ele></trkpt>
      <trkpt lat="22.2596659772" lon="114.1447252890"><ele>268.000</ele></trkpt>
      <trkpt lat="22.2596618135" lon="114.1447456842"><ele>268.000</ele></trkpt>
      <trkpt lat="22.2596525566" lon="114.1447616042"><ele>268.000</ele></trkpt>
      <trkpt lat="22.2596405223" lon="114.1447795136"><ele>266.000</ele></trkpt>
      <trkpt lat="22.2596233933" lon="114.1447904612"><ele>266.000</ele></trkpt>
      <trkpt lat="22.2596039488" lon="114.1448014083"><ele>266.000</ele></trkpt>
      <trkpt lat="22.2595863569" lon="114.1448138481"><ele>264.000</ele></trkpt>
      <trkpt lat="22.2595729330" lon="114.1448287736"><ele>264.000</ele></trkpt>
      <trkpt lat="22.2595595090" lon="114.1448471810"><ele>264.000</ele></trkpt>
      <trkpt lat="22.2595488642" lon="114.1448685721"><ele>262.000</ele></trkpt>
      <trkpt lat="22.2595419236" lon="114.1448889679"><ele>262.000</ele></trkpt>
      <trkpt lat="22.2595396130" lon="114.1449133423"><ele>263.000</ele></trkpt>
      <trkpt lat="22.2595373022" lon="114.1449372191"><ele>263.000</ele></trkpt>
      <trkpt lat="22.2595340673" lon="114.1449640803"><ele>265.000</ele></trkpt>
      <trkpt lat="22.2595257388" lon="114.1449944247"><ele>265.000</ele></trkpt>
      <trkpt lat="22.2595123167" lon="114.1450227804"><ele>267.000</ele></trkpt>
      <trkpt lat="22.2594942655" lon="114.1450516348"><ele>266.000</ele></trkpt>
      <trkpt lat="22.2594308512" lon="114.1451436719"><ele>268.000</ele></trkpt>
      <trkpt lat="22.2594021531" lon="114.1451874510"><ele>268.000</ele></trkpt>
      <trkpt lat="22.2593868778" lon="114.1452063565"><ele>269.000</ele></trkpt>
      <trkpt lat="22.2593720645" lon="114.1452232721"><ele>267.000</ele></trkpt>
      <trkpt lat="22.2593544732" lon="114.1452347164"><ele>267.000</ele></trkpt>
      <trkpt lat="22.2593364172" lon="114.1452436743"><ele>268.000</ele></trkpt>
      <trkpt lat="22.2592535456" lon="114.1452765219"><ele>264.000</ele></trkpt>
      <trkpt lat="22.2591776174" lon="114.1453033993"><ele>261.000</ele></trkpt>
      <trkpt lat="22.2591081711" lon="114.1453282864"><ele>260.000</ele></trkpt>
      <trkpt lat="22.2590794663" lon="114.1453382411"><ele>258.000</ele></trkpt>
      <trkpt lat="22.2590567816" lon="114.1453491888"><ele>256.000</ele></trkpt>
      <trkpt lat="22.2590271523" lon="114.1453646155"><ele>256.000</ele></trkpt>
      <trkpt lat="22.2590003015" lon="114.1453835235"><ele>254.000</ele></trkpt>
      <trkpt lat="22.2589697473" lon="114.1454074064"><ele>256.000</ele></trkpt>
      <trkpt lat="22.2589479908" lon="114.1454317842"><ele>254.000</ele></trkpt>
      <trkpt lat="22.2589280863" lon="114.1454551680"><ele>254.000</ele></trkpt>
      <trkpt lat="22.2588433762" lon="114.1455636228"><ele>258.000</ele></trkpt>
      <trkpt lat="22.2588169915" lon="114.1455979506"><ele>259.000</ele></trkpt>
      <trkpt lat="22.2587994027" lon="114.1456268047"><ele>259.000</ele></trkpt>
      <trkpt lat="22.2587855180" lon="114.1456551603"><ele>258.000</ele></trkpt>
      <trkpt lat="22.2587697817" lon="114.1456860038"><ele>260.000</ele></trkpt>
      <trkpt lat="22.2587447942" lon="114.1457631094"><ele>262.000</ele></trkpt>
      <trkpt lat="22.2587281292" lon="114.1457785321"><ele>260.000</ele></trkpt>
      <trkpt lat="22.2586679458" lon="114.1458188368"><ele>258.000</ele></trkpt>
      <trkpt lat="22.2586535943" lon="114.1458287882"><ele>260.000</ele></trkpt>
      <trkpt lat="22.2586406328" lon="114.1458437134"><ele>257.000</ele></trkpt>
      <trkpt lat="22.2586309124" lon="114.1458591355"><ele>257.000</ele></trkpt>
      <trkpt lat="22.2586040679" lon="114.1459113699"><ele>255.000</ele></trkpt>
      <trkpt lat="22.2585837036" lon="114.1459536547"><ele>256.000</ele></trkpt>
      <trkpt lat="22.2585707448" lon="114.1459780303"><ele>258.000</ele></trkpt>
      <trkpt lat="22.2585573196" lon="114.1459914644"><ele>257.000</ele></trkpt>
      <trkpt lat="22.2585411154" lon="114.1459984309"><ele>257.000</ele></trkpt>
      <trkpt lat="22.2585221327" lon="114.1459969429"><ele>257.000</ele></trkpt>
      <trkpt lat="22.2584841636" lon="114.1459845165"><ele>257.000</ele></trkpt>
      <trkpt lat="22.2584531401" lon="114.1459770617"><ele>257.000</ele></trkpt>
      <trkpt lat="22.2584244335" lon="114.1459725916"><ele>258.000</ele></trkpt>
      <trkpt lat="22.2583957263" lon="114.1459701103"><ele>258.000</ele></trkpt>
      <trkpt lat="22.2583748911" lon="114.1459716070"><ele>258.000</ele></trkpt>
      <trkpt lat="22.2583582234" lon="114.1459726061"><ele>258.000</ele></trkpt>
      <trkpt lat="22.2583410934" lon="114.1459790760"><ele>258.000</ele></trkpt>
      <trkpt lat="22.2583276675" lon="114.1459885295"><ele>258.000</ele></trkpt>
      <trkpt lat="22.2583179468" lon="114.1460019617"><ele>258.000</ele></trkpt>
      <trkpt lat="22.2583119304" lon="114.1460153932"><ele>258.000</ele></trkpt>
      <trkpt lat="22.2583082289" lon="114.1460308139"><ele>260.000</ele></trkpt>
      <trkpt lat="22.2583036036" lon="114.1460556864"><ele>260.000</ele></trkpt>
      <trkpt lat="22.2583012984" lon="114.1461049300"><ele>263.000</ele></trkpt>
      <trkpt lat="22.2583003791" lon="114.1461432318"><ele>266.000</ele></trkpt>
      <trkpt lat="22.2582971422" lon="114.1461656164"><ele>268.000</ele></trkpt>
      <trkpt lat="22.2582906646" lon="114.1461850164"><ele>267.000</ele></trkpt>
      <trkpt lat="22.2582827959" lon="114.1461979506"><ele>267.000</ele></trkpt>
      <trkpt lat="22.2582712233" lon="114.1462133730"><ele>270.000</ele></trkpt>
      <trkpt lat="22.2582582614" lon="114.1462268060"><ele>270.000</ele></trkpt>
      <trkpt lat="22.2582406696" lon="114.1462407376"><ele>268.000</ele></trkpt>
      <trkpt lat="22.2581934482" lon="114.1462691003"><ele>268.000</ele></trkpt>
      <trkpt lat="22.2581712259" lon="114.1462805464"><ele>268.000</ele></trkpt>
      <trkpt lat="22.2581628926" lon="114.1462865167"><ele>268.000</ele></trkpt>
      <trkpt lat="22.2581536350" lon="114.1462949747"><ele>267.000</ele></trkpt>
      <trkpt lat="22.2581443767" lon="114.1463039305"><ele>267.000</ele></trkpt>
      <trkpt lat="22.2581369699" lon="114.1463143779"><ele>268.000</ele></trkpt>
      <trkpt lat="22.2581300275" lon="114.1463263174"><ele>268.000</ele></trkpt>
      <trkpt lat="22.2581198435" lon="114.1463397497"><ele>268.000</ele></trkpt>
      <trkpt lat="22.2581073455" lon="114.1463566645"><ele>267.000</ele></trkpt>
      <trkpt lat="22.2580953099" lon="114.1463686051"><ele>269.000</ele></trkpt>
      <trkpt lat="22.2580832733" lon="114.1463805457"><ele>269.000</ele></trkpt>
      <trkpt lat="22.2580531814" lon="114.1463999508"><ele>267.000</ele></trkpt>
      <trkpt lat="22.2580087386" lon="114.1464278160"><ele>267.000</ele></trkpt>
      <trkpt lat="22.2579851281" lon="114.1464432401"><ele>267.000</ele></trkpt>
      <trkpt lat="22.2579517956" lon="114.1464656311"><ele>267.000</ele></trkpt>
      <trkpt lat="22.2579096679" lon="114.1465014541"><ele>266.000</ele></trkpt>
      <trkpt lat="22.2578601345" lon="114.1465437449"><ele>268.000</ele></trkpt>
      <trkpt lat="22.2578143047" lon="114.1465870292"><ele>269.000</ele></trkpt>
      <trkpt lat="22.2577962514" lon="114.1466054382"><ele>272.000</ele></trkpt>
      <trkpt lat="22.2577860675" lon="114.1466198649"><ele>270.000</ele></trkpt>
      <trkpt lat="22.2577768114" lon="114.1466412553"><ele>270.000</ele></trkpt>
      <trkpt lat="22.2577582974" lon="114.1466740889"><ele>272.000</ele></trkpt>
      <trkpt lat="22.2577365421" lon="114.1467059278"><ele>271.000</ele></trkpt>
      <trkpt lat="22.2577203398" lon="114.1467233410"><ele>271.000</ele></trkpt>
      <trkpt lat="22.2576976551" lon="114.1467397601"><ele>268.000</ele></trkpt>
      <trkpt lat="22.2576717302" lon="114.1467561800"><ele>270.000</ele></trkpt>
      <trkpt lat="22.2576471942" lon="114.1467770769"><ele>267.000</ele></trkpt>
      <trkpt lat="22.2576268266" lon="114.1468024493"><ele>268.000</ele></trkpt>
      <trkpt lat="22.2576092361" lon="114.1468188673"><ele>266.000</ele></trkpt>
      <trkpt lat="22.2575884030" lon="114.1468323018"><ele>266.000</ele></trkpt>
      <trkpt lat="22.2575638656" lon="114.1468457381"><ele>268.000</ele></trkpt>
      <trkpt lat="22.2575328464" lon="114.1468566872"><ele>268.000</ele></trkpt>
      <trkpt lat="22.2575115495" lon="114.1468621635"><ele>267.000</ele></trkpt>
      <trkpt lat="22.2574837694" lon="114.1468671435"><ele>267.000</ele></trkpt>
      <trkpt lat="22.2574513612" lon="114.1468775962"><ele>265.000</ele></trkpt>
      <trkpt lat="22.2574212674" lon="114.1468875507"><ele>264.000</ele></trkpt>
      <trkpt lat="22.2573670996" lon="114.1469114381"><ele>266.000</ele></trkpt>
      <trkpt lat="22.2573138582" lon="114.1469348275"><ele>266.000</ele></trkpt>
      <trkpt lat="22.2572703398" lon="114.1469567228"><ele>268.000</ele></trkpt>
      <trkpt lat="22.2572420981" lon="114.1469656825"><ele>267.000</ele></trkpt>
      <trkpt lat="22.2572277458" lon="114.1469711563"><ele>267.000</ele></trkpt>
      <trkpt lat="22.2572110775" lon="114.1469741450"><ele>267.000</ele></trkpt>
      <trkpt lat="22.2571925585" lon="114.1469801174"><ele>266.000</ele></trkpt>
      <trkpt lat="22.2571768174" lon="114.1469860902"><ele>266.000</ele></trkpt>
      <trkpt lat="22.2571620031" lon="114.1469940516"><ele>266.000</ele></trkpt>
      <trkpt lat="22.2571471891" lon="114.1470079825"><ele>266.000</ele></trkpt>
      <trkpt lat="22.2571342278" lon="114.1470248972"><ele>266.000</ele></trkpt>
      <trkpt lat="22.2571189526" lon="114.1470457910"><ele>269.000</ele></trkpt>
      <trkpt lat="22.2571032132" lon="114.1470612142"><ele>267.000</ele></trkpt>
      <trkpt lat="22.2570893250" lon="114.1470711652"><ele>267.000</ele></trkpt>
      <trkpt lat="22.2570768246" lon="114.1470756451"><ele>267.000</ele></trkpt>
      <trkpt lat="22.2570573783" lon="114.1470771414"><ele>265.000</ele></trkpt>
      <trkpt lat="22.2570342276" lon="114.1470741611"><ele>265.000</ele></trkpt>
      <trkpt lat="22.2570161693" lon="114.1470706839"><ele>265.000</ele></trkpt>
      <trkpt lat="22.2569995011" lon="114.1470691944"><ele>265.000</ele></trkpt>
      <trkpt lat="22.2569754246" lon="114.1470701948"><ele>265.000</ele></trkpt>
      <trkpt lat="22.2569457932" lon="114.1470751751"><ele>265.000</ele></trkpt>
      <trkpt lat="22.2569281997" lon="114.1470801529"><ele>265.000</ele></trkpt>
      <trkpt lat="22.2569082928" lon="114.1470915973"><ele>267.000</ele></trkpt>
      <trkpt lat="22.2568768114" lon="114.1471085159"><ele>266.000</ele></trkpt>
      <trkpt lat="22.2568518120" lon="114.1471244386"><ele>266.000</ele></trkpt>
      <trkpt lat="22.2568133871" lon="114.1471523011"><ele>265.000</ele></trkpt>
      <trkpt lat="22.2567157062" lon="114.1472274309"><ele>264.000</ele></trkpt>
      <trkpt lat="22.2566666347" lon="114.1472682288"><ele>266.000</ele></trkpt>
      <trkpt lat="22.2566263585" lon="114.1472960916"><ele>264.000</ele></trkpt>
      <trkpt lat="22.2566050624" lon="114.1473110191"><ele>260.000</ele></trkpt>
      <trkpt lat="22.2565819143" lon="114.1473219665"><ele>260.000</ele></trkpt>
      <trkpt lat="22.2565596912" lon="114.1473299294"><ele>262.000</ele></trkpt>
      <trkpt lat="22.2565212631" lon="114.1473349114"><ele>262.000</ele></trkpt>
      <trkpt lat="22.2564953344" lon="114.1473359123"><ele>262.000</ele></trkpt>
      <trkpt lat="22.2564555173" lon="114.1473458686"><ele>262.000</ele></trkpt>
      <trkpt lat="22.2564272756" lon="114.1473553249"><ele>260.000</ele></trkpt>
      <trkpt lat="22.2563791268" lon="114.1473752320"><ele>258.000</ele></trkpt>
      <trkpt lat="22.2563601456" lon="114.1473871738"><ele>261.000</ele></trkpt>
      <trkpt lat="22.2563471830" lon="114.1473971246"><ele>260.000</ele></trkpt>
      <trkpt lat="22.2563147793" lon="114.1474324472"><ele>261.000</ele></trkpt>
      <trkpt lat="22.2562907070" lon="114.1474568246"><ele>260.000</ele></trkpt>
      <trkpt lat="22.2562615427" lon="114.1474826961"><ele>262.000</ele></trkpt>
      <trkpt lat="22.2562360805" lon="114.1475016031"><ele>262.000</ele></trkpt>
      <trkpt lat="22.2562106180" lon="114.1475185202"><ele>262.000</ele></trkpt>
      <trkpt lat="22.2561851544" lon="114.1475294680"><ele>263.000</ele></trkpt>
      <trkpt lat="22.2561670982" lon="114.1475329536"><ele>265.000</ele></trkpt>
      <trkpt lat="22.2561439457" lon="114.1475245025"><ele>265.000</ele></trkpt>
      <trkpt lat="22.2561295914" lon="114.1475145575"><ele>264.000</ele></trkpt>
      <trkpt lat="22.2561207919" lon="114.1475041136"><ele>265.000</ele></trkpt>
      <trkpt lat="22.2561073598" lon="114.1474747700"><ele>265.000</ele></trkpt>
      <trkpt lat="22.2560934625" lon="114.1474399539"><ele>263.000</ele></trkpt>
      <trkpt lat="22.2560740096" lon="114.1474001659"><ele>268.000</ele></trkpt>
      <trkpt lat="22.2560457569" lon="114.1473489386"><ele>265.000</ele></trkpt>
      <trkpt lat="22.2560318622" lon="114.1473230761"><ele>265.000</ele></trkpt>
      <trkpt lat="22.2560239873" lon="114.1473021873"><ele>265.000</ele></trkpt>
      <trkpt lat="22.2560184249" lon="114.1472703547"><ele>265.000</ele></trkpt>
      <trkpt lat="22.2560091522" lon="114.1472007195"><ele>265.000</ele></trkpt>
      <trkpt lat="22.2560040484" lon="114.1471435191"><ele>264.000</ele></trkpt>
      <trkpt lat="22.2559994068" lon="114.1470798514"><ele>262.000</ele></trkpt>
      <trkpt lat="22.2559878118" lon="114.1469689327"><ele>259.000</ele></trkpt>
      <trkpt lat="22.2559780762" lon="114.1469017852"><ele>256.000</ele></trkpt>
      <trkpt lat="22.2559600054" lon="114.1468311566"><ele>252.000</ele></trkpt>
      <trkpt lat="22.2559437914" lon="114.1467849019"><ele>252.000</ele></trkpt>
      <trkpt lat="22.2559266544" lon="114.1467535685"><ele>257.000</ele></trkpt>
      <trkpt lat="22.2559095187" lon="114.1467291998"><ele>256.000</ele></trkpt>
      <trkpt lat="22.2558905318" lon="114.1467098046"><ele>256.000</ele></trkpt>
      <trkpt lat="22.2558696943" lon="114.1466943893"><ele>254.000</ele></trkpt>
      <trkpt lat="22.2558479293" lon="114.1466789743"><ele>254.000</ele></trkpt>
      <trkpt lat="22.2558113497" lon="114.1466645578"><ele>254.000</ele></trkpt>
      <trkpt lat="22.2557770839" lon="114.1466506376"><ele>253.000</ele></trkpt>
      <trkpt lat="22.2557386521" lon="114.1466357238"><ele>251.000</ele></trkpt>
      <trkpt lat="22.2556904956" lon="114.1466188224"><ele>250.000</ele></trkpt>
      <trkpt lat="22.2556539164" lon="114.1466063947"><ele>252.000</ele></trkpt>
      <trkpt lat="22.2556247422" lon="114.1465835208"><ele>251.000</ele></trkpt>
      <trkpt lat="22.2555900087" lon="114.1465412489"><ele>250.000</ele></trkpt>
      <trkpt lat="22.2555511084" lon="114.1464984802"><ele>250.000</ele></trkpt>
      <trkpt lat="22.2555177660" lon="114.1464681457"><ele>252.000</ele></trkpt>
      <trkpt lat="22.2554927605" lon="114.1464507417"><ele>250.000</ele></trkpt>
      <trkpt lat="22.2554691450" lon="114.1464398044"><ele>251.000</ele></trkpt>
      <trkpt lat="22.2554492349" lon="114.1464338393"><ele>251.000</ele></trkpt>
      <trkpt lat="22.2554311766" lon="114.1464308590"><ele>252.000</ele></trkpt>
      <trkpt lat="22.2554135823" lon="114.1464313605"><ele>252.000</ele></trkpt>
      <trkpt lat="22.2553441336" lon="114.1464448053"><ele>252.000</ele></trkpt>
      <trkpt lat="22.2553251505" lon="114.1464463015"><ele>252.000</ele></trkpt>
      <trkpt lat="22.2553029269" lon="114.1464463063"><ele>251.000</ele></trkpt>
      <trkpt lat="22.2552644957" lon="114.1464393508"><ele>250.000</ele></trkpt>
      <trkpt lat="22.2551524425" lon="114.1464115209"><ele>248.000</ele></trkpt>
      <trkpt lat="22.2549857523" lon="114.1463707698"><ele>253.000</ele></trkpt>
      <trkpt lat="22.2548797189" lon="114.1463479117"><ele>252.000</ele></trkpt>
      <trkpt lat="22.2547889666" lon="114.1463310197"><ele>254.000</ele></trkpt>
      <trkpt lat="22.2546889546" lon="114.1463161195"><ele>256.000</ele></trkpt>
      <trkpt lat="22.2546565435" lon="114.1463156288"><ele>258.000</ele></trkpt>
      <trkpt lat="22.2546167232" lon="114.1463086737"><ele>255.000</ele></trkpt>
      <trkpt lat="22.2545889400" lon="114.1462922658"><ele>255.000</ele></trkpt>
      <trkpt lat="22.2545620803" lon="114.1462644176"><ele>255.000</ele></trkpt>
      <trkpt lat="22.2545319783" lon="114.1462301032"><ele>252.000</ele></trkpt>
      <trkpt lat="22.2545065060" lon="114.1461947934"><ele>252.000</ele></trkpt>
      <trkpt lat="22.2544981680" lon="114.1461709198"><ele>254.000</ele></trkpt>
      <trkpt lat="22.2544967750" lon="114.1461490345"><ele>255.000</ele></trkpt>
      <trkpt lat="22.2545074152" lon="114.1461027736"><ele>254.000</ele></trkpt>
      <trkpt lat="22.2545189807" lon="114.1460545236"><ele>254.000</ele></trkpt>
      <trkpt lat="22.2545240670" lon="114.1460177151"><ele>254.000</ele></trkpt>
      <trkpt lat="22.2545235984" lon="114.1459848863"><ele>254.000</ele></trkpt>
      <trkpt lat="22.2545166440" lon="114.1459376348"><ele>254.000</ele></trkpt>
      <trkpt lat="22.2545083033" lon="114.1459048077"><ele>254.000</ele></trkpt>
      <trkpt lat="22.2544976490" lon="114.1458764584"><ele>255.000</ele></trkpt>
      <trkpt lat="22.2544763453" lon="114.1458466194"><ele>254.000</ele></trkpt>
      <trkpt lat="22.2544573576" lon="114.1458237426"><ele>252.000</ele></trkpt>
      <trkpt lat="22.2544346660" lon="114.1458033541"><ele>252.000</ele></trkpt>
      <trkpt lat="22.2544045673" lon="114.1457869468"><ele>252.000</ele></trkpt>
      <trkpt lat="22.2543721549" lon="114.1457755140"><ele>250.000</ele></trkpt>
      <trkpt lat="22.2543457617" lon="114.1457695505"><ele>250.000</ele></trkpt>
      <trkpt lat="22.2543198336" lon="114.1457690595"><ele>250.000</ele></trkpt>
      <trkpt lat="22.2542860337" lon="114.1457695637"><ele>250.000</ele></trkpt>
      <trkpt lat="22.2542531609" lon="114.1457725551"><ele>250.000</ele></trkpt>
      <trkpt lat="22.2542138067" lon="114.1457800252"><ele>251.000</ele></trkpt>
      <trkpt lat="22.2541767694" lon="114.1457954528"><ele>249.000</ele></trkpt>
      <trkpt lat="22.2541406579" lon="114.1458113780"><ele>249.000</ele></trkpt>
      <trkpt lat="22.2541082508" lon="114.1458317786"><ele>250.000</ele></trkpt>
      <trkpt lat="22.2540823262" lon="114.1458491926"><ele>248.000</ele></trkpt>
      <trkpt lat="22.2540550120" lon="114.1458680999"><ele>248.000</ele></trkpt>
      <trkpt lat="22.2540332535" lon="114.1458820321"><ele>251.000</ele></trkpt>
      <trkpt lat="22.2540138084" lon="114.1458904922"><ele>251.000</ele></trkpt>
      <trkpt lat="22.2539901965" lon="114.1458979578"><ele>249.000</ele></trkpt>
      <trkpt lat="22.2539670473" lon="114.1459029368"><ele>249.000</ele></trkpt>
      <trkpt lat="22.2539059307" lon="114.1459039456"><ele>245.000</ele></trkpt>
      <trkpt lat="22.2538059211" lon="114.1459069517"><ele>243.000</ele></trkpt>
      <trkpt lat="22.2537711957" lon="114.1459079547"><ele>242.000</ele></trkpt>
      <trkpt lat="22.2537498983" lon="114.1459109435"><ele>242.000</ele></trkpt>
      <trkpt lat="22.2537272119" lon="114.1459179122"><ele>242.000</ele></trkpt>
      <trkpt lat="22.2537073052" lon="114.1459298542"><ele>244.000</ele></trkpt>
      <trkpt lat="22.2536943433" lon="114.1459432867"><ele>244.000</ele></trkpt>
      <trkpt lat="22.2536670331" lon="114.1459781102"><ele>244.000</ele></trkpt>
      <trkpt lat="22.2536429623" lon="114.1460094520"><ele>244.000</ele></trkpt>
      <trkpt lat="22.2536216684" lon="114.1460353207"><ele>244.000</ele></trkpt>
      <trkpt lat="22.2535966706" lon="114.1460592014"><ele>244.000</ele></trkpt>
      <trkpt lat="22.2535730605" lon="114.1460766158"><ele>244.000</ele></trkpt>
      <trkpt lat="22.2535471354" lon="114.1460915432"><ele>243.000</ele></trkpt>
      <trkpt lat="22.2535161163" lon="114.1461074671"><ele>243.000</ele></trkpt>
      <trkpt lat="22.2534749126" lon="114.1461243876"><ele>245.000</ele></trkpt>
      <trkpt lat="22.2534332444" lon="114.1461398151"><ele>242.000</ele></trkpt>
      <trkpt lat="22.2533999097" lon="114.1461507656"><ele>241.000</ele></trkpt>
      <trkpt lat="22.2533508341" lon="114.1461637082"><ele>240.000</ele></trkpt>
      <trkpt lat="22.2532962005" lon="114.1461741656"><ele>241.000</ele></trkpt>
      <trkpt lat="22.2532290663" lon="114.1461821383"><ele>241.000</ele></trkpt>
      <trkpt lat="22.2531892481" lon="114.1461861265"><ele>241.000</ele></trkpt>
      <trkpt lat="22.2531549841" lon="114.1461771805"><ele>240.000</ele></trkpt>
      <trkpt lat="22.2530934000" lon="114.1461563039"><ele>236.000</ele></trkpt>
      <trkpt lat="22.2530507993" lon="114.1461354222"><ele>236.000</ele></trkpt>
      <trkpt lat="22.2530128278" lon="114.1461100633"><ele>236.000</ele></trkpt>
      <trkpt lat="22.2529618899" lon="114.1460697855"><ele>234.000</ele></trkpt>
      <trkpt lat="22.2529322507" lon="114.1460379589"><ele>234.000</ele></trkpt>
      <trkpt lat="22.2528998356" lon="114.1460121011"><ele>233.000</ele></trkpt>
      <trkpt lat="22.2528655678" lon="114.1459832596"><ele>232.000</ele></trkpt>
      <trkpt lat="22.2528609278" lon="114.1459310343"><ele>230.000</ele></trkpt>
      <trkpt lat="22.2528687905" lon="114.1458862665"><ele>230.000</ele></trkpt>
      <trkpt lat="22.2528849811" lon="114.1458126489"><ele>230.000</ele></trkpt>
      <trkpt lat="22.2528942325" lon="114.1457629069"><ele>228.000</ele></trkpt>
      <trkpt lat="22.2529011702" lon="114.1457270937"><ele>228.000</ele></trkpt>
      <trkpt lat="22.2528937573" lon="114.1457007329"><ele>228.000</ele></trkpt>
      <trkpt lat="22.2528604139" lon="114.1456654253"><ele>226.000</ele></trkpt>
      <trkpt lat="22.2528358718" lon="114.1456495137"><ele>226.000</ele></trkpt>
      <trkpt lat="22.2528029954" lon="114.1456390764"><ele>226.000</ele></trkpt>
      <trkpt lat="22.2527548416" lon="114.1456316258"><ele>226.000</ele></trkpt>
      <trkpt lat="22.2527167639" lon="114.1456321542"><ele>226.000</ele></trkpt>
      <trkpt lat="22.2526840084" lon="114.1456302600"><ele>224.000</ele></trkpt>
      <trkpt lat="22.2526565631" lon="114.1456245597"><ele>224.000</ele></trkpt>
      <trkpt lat="22.2526361996" lon="114.1456188579"><ele>224.000</ele></trkpt>
      <trkpt lat="22.2526158366" lon="114.1456103029"><ele>224.000</ele></trkpt>
      <trkpt lat="22.2525945870" lon="114.1455988949"><ele>224.000</ele></trkpt>
      <trkpt lat="22.2525733380" lon="114.1455855855"><ele>224.000</ele></trkpt>
      <trkpt lat="22.2525547429" lon="114.1455665682"><ele>222.000</ele></trkpt>
      <trkpt lat="22.2525396882" lon="114.1455446979"><ele>222.000</ele></trkpt>
      <trkpt lat="22.2525228631" lon="114.1455209256"><ele>222.000</ele></trkpt>
      <trkpt lat="22.2525104650" lon="114.1454981030"><ele>222.000</ele></trkpt>
      <trkpt lat="22.2524954090" lon="114.1454695756"><ele>220.000</ele></trkpt>
      <trkpt lat="22.2524847796" lon="114.1454400956"><ele>220.000</ele></trkpt>
      <trkpt lat="22.2524759197" lon="114.1454030064"><ele>220.000</ele></trkpt>
      <trkpt lat="22.2524679440" lon="114.1453573585"><ele>218.000</ele></trkpt>
      <trkpt lat="22.2524617372" lon="114.1453107585"><ele>218.000</ele></trkpt>
      <trkpt lat="22.2524564164" lon="114.1452641592"><ele>216.000</ele></trkpt>
      <trkpt lat="22.2524484360" lon="114.1451994899"><ele>214.000</ele></trkpt>
      <trkpt lat="22.2524404569" lon="114.1451367230"><ele>210.000</ele></trkpt>
      <trkpt lat="22.2524271595" lon="114.1450454257"><ele>208.000</ele></trkpt>
      <trkpt lat="22.2524085487" lon="114.1449465218"><ele>206.000</ele></trkpt>
      <trkpt lat="22.2523881671" lon="114.1448438134"><ele>204.000</ele></trkpt>
      <trkpt lat="22.2523651327" lon="114.1447620296"><ele>202.000</ele></trkpt>
      <trkpt lat="22.2523430411" lon="114.1446757266"><ele>200.000</ele></trkpt>
      <trkpt lat="22.2523161670" lon="114.1445767519"><ele>198.000</ele></trkpt>
      <trkpt lat="22.2522805015" lon="114.1445051352"><ele>196.000</ele></trkpt>
      <trkpt lat="22.2522596596" lon="114.1444733069"><ele>196.000</ele></trkpt>
      <trkpt lat="22.2522382577" lon="114.1444680964"><ele>194.000</ele></trkpt>
      <trkpt lat="22.2522132498" lon="114.1444536472"><ele>193.000</ele></trkpt>
      <trkpt lat="22.2521945503" lon="114.1444458545"><ele>192.000</ele></trkpt>
      <trkpt lat="22.2521782031" lon="114.1444422077"><ele>192.000</ele></trkpt>
      <trkpt lat="22.2521652929" lon="114.1444421001"><ele>192.000</ele></trkpt>
      <trkpt lat="22.2521401150" lon="114.1444446321"><ele>192.000</ele></trkpt>
      <trkpt lat="22.2521206538" lon="114.1444488081"><ele>192.000</ele></trkpt>
      <trkpt lat="22.2521005789" lon="114.1444545142"><ele>191.000</ele></trkpt>
      <trkpt lat="22.2520822416" lon="114.1444610552"><ele>191.000</ele></trkpt>
      <trkpt lat="22.2520695747" lon="114.1444677549"><ele>194.000</ele></trkpt>
      <trkpt lat="22.2520554932" lon="114.1444770015"><ele>192.000</ele></trkpt>
      <trkpt lat="22.2520465004" lon="114.1444855893"><ele>192.000</ele></trkpt>
      <trkpt lat="22.2520374991" lon="114.1444971359"><ele>192.000</ele></trkpt>
      <trkpt lat="22.2520227202" lon="114.1445098655"><ele>192.000</ele></trkpt>
      <trkpt lat="22.2520115098" lon="114.1445201165"><ele>190.000</ele></trkpt>
      <trkpt lat="22.2520014103" lon="114.1445312045"><ele>190.000</ele></trkpt>
      <trkpt lat="22.2519923233" lon="114.1445433954"><ele>190.000</ele></trkpt>
      <trkpt lat="22.2519863587" lon="114.1445533066"><ele>190.000</ele></trkpt>
      <trkpt lat="22.2519757098" lon="114.1445763584"><ele>192.000</ele></trkpt>
      <trkpt lat="22.2519667642" lon="114.1445998697"><ele>188.000</ele></trkpt>
      <trkpt lat="22.2519580279" lon="114.1446269985"><ele>188.000</ele></trkpt>
      <trkpt lat="22.2519506198" lon="114.1446487874"><ele>188.000</ele></trkpt>
      <trkpt lat="22.2519466052" lon="114.1446642444"><ele>188.000</ele></trkpt>
      <trkpt lat="22.2519439932" lon="114.1446809255"><ele>188.000</ele></trkpt>
      <trkpt lat="22.2519421748" lon="114.1446964712"><ele>188.000</ele></trkpt>
      <trkpt lat="22.2519387578" lon="114.1447157825"><ele>188.000</ele></trkpt>
      <trkpt lat="22.2519346374" lon="114.1447356110"><ele>188.000</ele></trkpt>
      <trkpt lat="22.2519329908" lon="114.1447433016"><ele>188.000</ele></trkpt>
      <trkpt lat="22.2519272055" lon="114.1447651163"><ele>189.000</ele></trkpt>
      <trkpt lat="22.2519232930" lon="114.1447768034"><ele>184.000</ele></trkpt>
      <trkpt lat="22.2519180163" lon="114.1447900760"><ele>184.000</ele></trkpt>
      <trkpt lat="22.2519130445" lon="114.1448061308"><ele>184.000</ele></trkpt>
      <trkpt lat="22.2519077144" lon="114.1448236759"><ele>185.000</ele></trkpt>
      <trkpt lat="22.2519048345" lon="114.1448326105"><ele>185.000</ele></trkpt>
      <trkpt lat="22.2518994205" lon="114.1448456124"><ele>185.000</ele></trkpt>
      <trkpt lat="22.2518873920" lon="114.1448659365"><ele>186.000</ele></trkpt>
      <trkpt lat="22.2518793856" lon="114.1448761567"><ele>181.000</ele></trkpt>
      <trkpt lat="22.2518702926" lon="114.1448897765"><ele>181.000</ele></trkpt>
      <trkpt lat="22.2518632535" lon="114.1449051711"><ele>181.000</ele></trkpt>
      <trkpt lat="22.2518567062" lon="114.1449229454"><ele>181.000</ele></trkpt>
      <trkpt lat="22.2518509762" lon="114.1449414636"><ele>181.000</ele></trkpt>
      <trkpt lat="22.2518439534" lon="114.1449659979"><ele>181.000</ele></trkpt>
      <trkpt lat="22.2518370804" lon="114.1449856746"><ele>181.000</ele></trkpt>
      <trkpt lat="22.2518292001" lon="114.1450082387"><ele>178.000</ele></trkpt>
      <trkpt lat="22.2518273196" lon="114.1450250137"><ele>178.000</ele></trkpt>
      <trkpt lat="22.2518194805" lon="114.1450456977"><ele>178.000</ele></trkpt>
      <trkpt lat="22.2518191760" lon="114.1450722764"><ele>178.000</ele></trkpt>
      <trkpt lat="22.2518190543" lon="114.1450829605"><ele>178.000</ele></trkpt>
      <trkpt lat="22.2518145624" lon="114.1451100863"><ele>177.000</ele></trkpt>
      <trkpt lat="22.2518120462" lon="114.1451277588"><ele>177.000</ele></trkpt>
      <trkpt lat="22.2518104282" lon="114.1451566487"><ele>176.000</ele></trkpt>
      <trkpt lat="22.2518122928" lon="114.1451742677"><ele>176.000</ele></trkpt>
      <trkpt lat="22.2518113491" lon="114.1451882456"><ele>176.000</ele></trkpt>
      <trkpt lat="22.2518093062" lon="114.1452011730"><ele>176.000</ele></trkpt>
      <trkpt lat="22.2518034482" lon="114.1452162696"><ele>176.000</ele></trkpt>
      <trkpt lat="22.2517971113" lon="114.1452296491"><ele>176.000</ele></trkpt>
      <trkpt lat="22.2517949382" lon="114.1452466948"><ele>176.000</ele></trkpt>
      <trkpt lat="22.2517981130" lon="114.1452723249"><ele>176.000</ele></trkpt>
      <trkpt lat="22.2518021822" lon="114.1452864006"><ele>176.000</ele></trkpt>
      <trkpt lat="22.2518072943" lon="114.1453040849"><ele>175.000</ele></trkpt>
      <trkpt lat="22.2518051305" lon="114.1453226052"><ele>175.000</ele></trkpt>
      <trkpt lat="22.2518052446" lon="114.1453383669"><ele>175.000</ele></trkpt>
      <trkpt lat="22.2518049706" lon="114.1453548058"><ele>174.000</ele></trkpt>
      <trkpt lat="22.2518050317" lon="114.1453722080"><ele>174.000</ele></trkpt>
      <trkpt lat="22.2518051525" lon="114.1453897188"><ele>174.000</ele></trkpt>
      <trkpt lat="22.2518013085" lon="114.1454148800"><ele>174.000</ele></trkpt>
      <trkpt lat="22.2517970067" lon="114.1454309443"><ele>174.000</ele></trkpt>
      <trkpt lat="22.2517924662" lon="114.1454453489"><ele>174.000</ele></trkpt>
      <trkpt lat="22.2517885375" lon="114.1454529624"><ele>169.000</ele></trkpt>
      <trkpt lat="22.2517829569" lon="114.1454642385"><ele>169.000</ele></trkpt>
      <trkpt lat="22.2517801739" lon="114.1454704440"><ele>169.000</ele></trkpt>
      <trkpt lat="22.2517777611" lon="114.1454758239"><ele>169.000</ele></trkpt>
      <trkpt lat="22.2517718473" lon="114.1454825289"><ele>169.000</ele></trkpt>
      <trkpt lat="22.2517687977" lon="114.1454875606"><ele>170.000</ele></trkpt>
      <trkpt lat="22.2517650801" lon="114.1454936936"><ele>170.000</ele></trkpt>
      <trkpt lat="22.2517602737" lon="114.1455016236"><ele>170.000</ele></trkpt>
      <trkpt lat="22.2517575657" lon="114.1455083084"><ele>170.000</ele></trkpt>
      <trkpt lat="22.2517537109" lon="114.1455150031"><ele>170.000</ele></trkpt>
      <trkpt lat="22.2517505518" lon="114.1455231723"><ele>170.000</ele></trkpt>
      <trkpt lat="22.2517497150" lon="114.1455343804"><ele>171.000</ele></trkpt>
      <trkpt lat="22.2517494168" lon="114.1455425888"><ele>171.000</ele></trkpt>
      <trkpt lat="22.2517467193" lon="114.1455521432"><ele>171.000</ele></trkpt>
      <trkpt lat="22.2517423506" lon="114.1455632211"><ele>166.000</ele></trkpt>
      <trkpt lat="22.2517405733" lon="114.1455723601"><ele>166.000</ele></trkpt>
      <trkpt lat="22.2517376743" lon="114.1455809183"><ele>166.000</ele></trkpt>
      <trkpt lat="22.2517335969" lon="114.1455946708"><ele>166.000</ele></trkpt>
      <trkpt lat="22.2517305666" lon="114.1456061743"><ele>166.000</ele></trkpt>
      <trkpt lat="22.2517266750" lon="114.1456188615"><ele>166.000</ele></trkpt>
      <trkpt lat="22.2517222855" lon="114.1456298424"><ele>166.000</ele></trkpt>
      <trkpt lat="22.2517183626" lon="114.1456438539"><ele>166.000</ele></trkpt>
      <trkpt lat="22.2517134852" lon="114.1456539288"><ele>166.000</ele></trkpt>
      <trkpt lat="22.2517090872" lon="114.1456630112"><ele>166.000</ele></trkpt>
      <trkpt lat="22.2517041133" lon="114.1456732850"><ele>166.000</ele></trkpt>
      <trkpt lat="22.2517004889" lon="114.1456807713"><ele>166.000</ele></trkpt>
      <trkpt lat="22.2516980252" lon="114.1456894254"><ele>163.000</ele></trkpt>
      <trkpt lat="22.2516973290" lon="114.1456993151"><ele>163.000</ele></trkpt>
      <trkpt lat="22.2516961094" lon="114.1457110675"><ele>163.000</ele></trkpt>
      <trkpt lat="22.2516940584" lon="114.1457287573"><ele>163.000</ele></trkpt>
      <trkpt lat="22.2516924176" lon="114.1457390682"><ele>163.000</ele></trkpt>
      <trkpt lat="22.2516876372" lon="114.1457550395"><ele>163.000</ele></trkpt>
      <trkpt lat="22.2516847916" lon="114.1457645455"><ele>163.000</ele></trkpt>
      <trkpt lat="22.2516782627" lon="114.1457803076"><ele>165.000</ele></trkpt>
      <trkpt lat="22.2516737755" lon="114.1457905386"><ele>165.000</ele></trkpt>
      <trkpt lat="22.2516694281" lon="114.1457997160"><ele>165.000</ele></trkpt>
      <trkpt lat="22.2516647261" lon="114.1458152973"><ele>165.000</ele></trkpt>
      <trkpt lat="22.2516614560" lon="114.1458241524"><ele>165.000</ele></trkpt>
      <trkpt lat="22.2516554925" lon="114.1458402996"><ele>166.000</ele></trkpt>
      <trkpt lat="22.2516508599" lon="114.1458551223"><ele>160.000</ele></trkpt>
      <trkpt lat="22.2516470465" lon="114.1458704541"><ele>160.000</ele></trkpt>
      <trkpt lat="22.2516436381" lon="114.1458885186"><ele>162.000</ele></trkpt>
      <trkpt lat="22.2516413286" lon="114.1459007592"><ele>162.000</ele></trkpt>
      <trkpt lat="22.2516389168" lon="114.1459166175"><ele>162.000</ele></trkpt>
      <trkpt lat="22.2516372560" lon="114.1459305703"><ele>160.000</ele></trkpt>
      <trkpt lat="22.2516364401" lon="114.1459473643"><ele>160.000</ele></trkpt>
      <trkpt lat="22.2516368645" lon="114.1459610770"><ele>160.000</ele></trkpt>
      <trkpt lat="22.2516418315" lon="114.1459810431"><ele>159.000</ele></trkpt>
      <trkpt lat="22.2516444743" lon="114.1459929014"><ele>159.000</ele></trkpt>
      <trkpt lat="22.2516466247" lon="114.1460032755"><ele>159.000</ele></trkpt>
      <trkpt lat="22.2516491050" lon="114.1460152444"><ele>159.000</ele></trkpt>
      <trkpt lat="22.2516394189" lon="114.1460114368"><ele>159.000</ele></trkpt>
      <trkpt lat="22.2516335530" lon="114.1460091311"><ele>159.000</ele></trkpt>
      <trkpt lat="22.2516285587" lon="114.1460071677"><ele>159.000</ele></trkpt>
      <trkpt lat="22.2516162372" lon="114.1459925739"><ele>159.000</ele></trkpt>
      <trkpt lat="22.2516041794" lon="114.1459782923"><ele>156.000</ele></trkpt>
      <trkpt lat="22.2515937024" lon="114.1459661806"><ele>157.000</ele></trkpt>
      <trkpt lat="22.2515827457" lon="114.1459526934"><ele>157.000</ele></trkpt>
      <trkpt lat="22.2515717199" lon="114.1459370680"><ele>157.000</ele></trkpt>
      <trkpt lat="22.2515580248" lon="114.1459179401"><ele>154.000</ele></trkpt>
      <trkpt lat="22.2515650153" lon="114.1459457279"><ele>157.000</ele></trkpt>
      <trkpt lat="22.2515752725" lon="114.1459798315"><ele>156.000</ele></trkpt>
      <trkpt lat="22.2515805738" lon="114.1460049663"><ele>156.000</ele></trkpt>
      <trkpt lat="22.2515845837" lon="114.1460253818"><ele>153.000</ele></trkpt>
      <trkpt lat="22.2515886964" lon="114.1460498621"><ele>153.000</ele></trkpt>
      <trkpt lat="22.2516021377" lon="114.1460697129"><ele>149.000</ele></trkpt>
      <trkpt lat="22.2516363195" lon="114.1460969078"><ele>151.000</ele></trkpt>
      <trkpt lat="22.2516641205" lon="114.1461165498"><ele>148.000</ele></trkpt>
      <trkpt lat="22.2516865077" lon="114.1461319729"><ele>148.000</ele></trkpt>
      <trkpt lat="22.2517110953" lon="114.1461498480"><ele>150.000</ele></trkpt>
      <trkpt lat="22.2517385807" lon="114.1461721288"><ele>146.000</ele></trkpt>
      <trkpt lat="22.2517588010" lon="114.1461899204"><ele>148.000</ele></trkpt>
      <trkpt lat="22.2517705221" lon="114.1462005466"><ele>148.000</ele></trkpt>
      <trkpt lat="22.2517775031" lon="114.1462068752"><ele>148.000</ele></trkpt>
      <trkpt lat="22.2517847749" lon="114.1462181271"><ele>144.000</ele></trkpt>
      <trkpt lat="22.2517632159" lon="114.1462178670"><ele>144.000</ele></trkpt>
      <trkpt lat="22.2517365457" lon="114.1462131153"><ele>146.000</ele></trkpt>
      <trkpt lat="22.2517151431" lon="114.1462087262"><ele>146.000</ele></trkpt>
      <trkpt lat="22.2516978884" lon="114.1462051851"><ele>145.000</ele></trkpt>
      <trkpt lat="22.2517042035" lon="114.1462194543"><ele>144.000</ele></trkpt>
      <trkpt lat="22.2517216916" lon="114.1462443441"><ele>144.000</ele></trkpt>
      <trkpt lat="22.2517419587" lon="114.1462659706"><ele>141.000</ele></trkpt>
      <trkpt lat="22.2517608971" lon="114.1462860977"><ele>142.000</ele></trkpt>
      <trkpt lat="22.2517754001" lon="114.1462991418"><ele>142.000</ele></trkpt>
      <trkpt lat="22.2517859930" lon="114.1463086691"><ele>142.000</ele></trkpt>
      <trkpt lat="22.2518111612" lon="114.1463217061"><ele>138.000</ele></trkpt>
      <trkpt lat="22.2518248372" lon="114.1463258990"><ele>138.000</ele></trkpt>
      <trkpt lat="22.2518388035" lon="114.1463283921"><ele>139.000</ele></trkpt>
      <trkpt lat="22.2518647223" lon="114.1463371312"><ele>139.000</ele></trkpt>
      <trkpt lat="22.2518778322" lon="114.1463424486"><ele>139.000</ele></trkpt>
      <trkpt lat="22.2518916996" lon="114.1463562088"><ele>144.000</ele></trkpt>
      <trkpt lat="22.2519032904" lon="114.1463702917"><ele>141.000</ele></trkpt>
      <trkpt lat="22.2519306509" lon="114.1464348024"><ele>145.000</ele></trkpt>
      <trkpt lat="22.2519501947" lon="114.1464811559"><ele>141.000</ele></trkpt>
      <trkpt lat="22.2519641527" lon="114.1465062647"><ele>137.000</ele></trkpt>
      <trkpt lat="22.2519770353" lon="114.1465177066"><ele>140.000</ele></trkpt>
      <trkpt lat="22.2519846178" lon="114.1465244415"><ele>140.000</ele></trkpt>
      <trkpt lat="22.2520025637" lon="114.1465254001"><ele>140.000</ele></trkpt>
      <trkpt lat="22.2520110852" lon="114.1465310095"><ele>140.000</ele></trkpt>
      <trkpt lat="22.2520205538" lon="114.1465404216"><ele>143.000</ele></trkpt>
      <trkpt lat="22.2520257600" lon="114.1465649444"><ele>138.000</ele></trkpt>
      <trkpt lat="22.2520291735" lon="114.1465739000"><ele>138.000</ele></trkpt>
      <trkpt lat="22.2520364643" lon="114.1465855924"><ele>138.000</ele></trkpt>
      <trkpt lat="22.2520455528" lon="114.1466001666"><ele>138.000</ele></trkpt>
      <trkpt lat="22.2520564539" lon="114.1466059676"><ele>134.000</ele></trkpt>
      <trkpt lat="22.2520699849" lon="114.1466131689"><ele>138.000</ele></trkpt>
      <trkpt lat="22.2520764305" lon="114.1466200351"><ele>138.000</ele></trkpt>
      <trkpt lat="22.2520811623" lon="114.1466281085"><ele>138.000</ele></trkpt>
      <trkpt lat="22.2520869202" lon="114.1466379347"><ele>138.000</ele></trkpt>
      <trkpt lat="22.2520912500" lon="114.1466649122"><ele>134.000</ele></trkpt>
      <trkpt lat="22.2520918688" lon="114.1466802760"><ele>134.000</ele></trkpt>
      <trkpt lat="22.2520919360" lon="114.1467068615"><ele>134.000</ele></trkpt>
      <trkpt lat="22.2520930006" lon="114.1467205179"><ele>134.000</ele></trkpt>
      <trkpt lat="22.2520953534" lon="114.1467372376"><ele>134.000</ele></trkpt>
      <trkpt lat="22.2521004598" lon="114.1467490799"><ele>132.000</ele></trkpt>
      <trkpt lat="22.2521069203" lon="114.1467639535"><ele>137.000</ele></trkpt>
      <trkpt lat="22.2521219331" lon="114.1467846811"><ele>137.000</ele></trkpt>
      <trkpt lat="22.2521340906" lon="114.1468211496"><ele>135.000</ele></trkpt>
      <trkpt lat="22.2521448145" lon="114.1468403424"><ele>135.000</ele></trkpt>
      <trkpt lat="22.2521748408" lon="114.1468810302"><ele>136.000</ele></trkpt>
      <trkpt lat="22.2522109444" lon="114.1469340005"><ele>137.000</ele></trkpt>
      <trkpt lat="22.2522270298" lon="114.1469585676"><ele>135.000</ele></trkpt>
      <trkpt lat="22.2522445510" lon="114.1470119261"><ele>136.000</ele></trkpt>
      <trkpt lat="22.2522742200" lon="114.1470545329"><ele>133.000</ele></trkpt>
      <trkpt lat="22.2522756507" lon="114.1470610587"><ele>133.000</ele></trkpt>
      <trkpt lat="22.2522628984" lon="114.1470602679"><ele>133.000</ele></trkpt>
      <trkpt lat="22.2522416998" lon="114.1470553082"><ele>133.000</ele></trkpt>
      <trkpt lat="22.2522492103" lon="114.1470879380"><ele>130.000</ele></trkpt>
      <trkpt lat="22.2522810194" lon="114.1471098136"><ele>130.000</ele></trkpt>
      <trkpt lat="22.2522650525" lon="114.1471307854"><ele>130.000</ele></trkpt>
      <trkpt lat="22.2522634990" lon="114.1471495714"><ele>128.000</ele></trkpt>
      <trkpt lat="22.2522713803" lon="114.1471608747"><ele>128.000</ele></trkpt>
      <trkpt lat="22.2522436428" lon="114.1471913331"><ele>128.000</ele></trkpt>
      <trkpt lat="22.2522166791" lon="114.1472118076"><ele>124.000</ele></trkpt>
      <trkpt lat="22.2522127820" lon="114.1472146334"><ele>124.000</ele></trkpt>
      <trkpt lat="22.2522242220" lon="114.1472342102"><ele>123.000</ele></trkpt>
      <trkpt lat="22.2522299456" lon="114.1472687603"><ele>123.000</ele></trkpt>
      <trkpt lat="22.2522320943" lon="114.1472952494"><ele>120.000</ele></trkpt>
      <trkpt lat="22.2522378164" lon="114.1473163631"><ele>120.000</ele></trkpt>
      <trkpt lat="22.2522510451" lon="114.1473497601"><ele>121.000</ele></trkpt>
      <trkpt lat="22.2522617689" lon="114.1473689529"><ele>121.000</ele></trkpt>
      <trkpt lat="22.2522710649" lon="114.1473927532"><ele>120.000</ele></trkpt>
      <trkpt lat="22.2522771445" lon="114.1474188563"><ele>120.000</ele></trkpt>
      <trkpt lat="22.2522792949" lon="114.1474495683"><ele>120.000</ele></trkpt>
      <trkpt lat="22.2522796557" lon="114.1474722189"><ele>120.000</ele></trkpt>
      <trkpt lat="22.2522825173" lon="114.1474860388"><ele>118.000</ele></trkpt>
      <trkpt lat="22.2522982492" lon="114.1475286487"><ele>121.000</ele></trkpt>
      <trkpt lat="22.2523100523" lon="114.1475843125"><ele>119.000</ele></trkpt>
      <trkpt lat="22.2523150684" lon="114.1476572529"><ele>119.000</ele></trkpt>
      <trkpt lat="22.2523225830" lon="114.1477133018"><ele>119.000</ele></trkpt>
      <trkpt lat="22.2523265204" lon="114.1477490039"><ele>119.000</ele></trkpt>
      <trkpt lat="22.2523308248" lon="114.1478369165"><ele>117.000</ele></trkpt>
      <trkpt lat="22.2523322697" lon="114.1479232950"><ele>123.000</ele></trkpt>
      <trkpt lat="22.2523333531" lon="114.1479877902"><ele>122.000</ele></trkpt>
      <trkpt lat="22.2523376456" lon="114.1480142789"><ele>119.000</ele></trkpt>
      <trkpt lat="22.2523465840" lon="114.1480338553"><ele>119.000</ele></trkpt>
      <trkpt lat="22.2523598092" lon="114.1480534328"><ele>119.000</ele></trkpt>
      <trkpt lat="22.2523884036" lon="114.1480818354"><ele>119.000</ele></trkpt>
      <trkpt lat="22.2524141392" lon="114.1481125427"><ele>118.000</ele></trkpt>
      <trkpt lat="22.2524334401" lon="114.1481313497"><ele>119.000</ele></trkpt>
      <trkpt lat="22.2524559570" lon="114.1481459340"><ele>119.000</ele></trkpt>
      <trkpt lat="22.2524913378" lon="114.1481585948"><ele>118.000</ele></trkpt>
      <trkpt lat="22.2525420869" lon="114.1481758606"><ele>118.000</ele></trkpt>
      <trkpt lat="22.2525799695" lon="114.1481904408"><ele>118.000</ele></trkpt>
      <trkpt lat="22.2526006977" lon="114.1481961954"><ele>118.000</ele></trkpt>
      <trkpt lat="22.2526199957" lon="114.1481981113"><ele>118.000</ele></trkpt>
      <trkpt lat="22.2526507288" lon="114.1481981051"><ele>119.000</ele></trkpt>
      <trkpt lat="22.2527104081" lon="114.1481934858"><ele>120.000</ele></trkpt>
      <trkpt lat="22.2527507894" lon="114.1481919418"><ele>120.000</ele></trkpt>
      <trkpt lat="22.2527725042" lon="114.1481953290"><ele>120.000</ele></trkpt>
      <trkpt lat="22.2527904594" lon="114.1482026839"><ele>119.000</ele></trkpt>
      <trkpt lat="22.2528076141" lon="114.1482134295"><ele>119.000</ele></trkpt>
      <trkpt lat="22.2528219119" lon="114.1482314702"><ele>119.000</ele></trkpt>
      <trkpt lat="22.2528313725" lon="114.1482472980"><ele>122.000</ele></trkpt>
      <trkpt lat="22.2528376428" lon="114.1482694731"><ele>123.000</ele></trkpt>
      <trkpt lat="22.2528412224" lon="114.1483047922"><ele>120.000</ele></trkpt>
      <trkpt lat="22.2528458738" lon="114.1483335839"><ele>120.000</ele></trkpt>
      <trkpt lat="22.2528533831" lon="114.1483612236"><ele>119.000</ele></trkpt>
      <trkpt lat="22.2528680407" lon="114.1483969236"><ele>118.000</ele></trkpt>
      <trkpt lat="22.2528801944" lon="114.1484134290"><ele>119.000</ele></trkpt>
      <trkpt lat="22.2528969942" lon="114.1484345407"><ele>119.000</ele></trkpt>
      <trkpt lat="22.2529137941" lon="114.1484564197"><ele>118.000</ele></trkpt>
      <trkpt lat="22.2529259478" lon="114.1484782997"><ele>121.000</ele></trkpt>
      <trkpt lat="22.2529345296" lon="114.1485040202"><ele>119.000</ele></trkpt>
      <trkpt lat="22.2529438255" lon="114.1485331943"><ele>119.000</ele></trkpt>
      <trkpt lat="22.2529591985" lon="114.1485650554"><ele>118.000</ele></trkpt>
      <trkpt lat="22.2529849351" lon="114.1486019048"><ele>118.000</ele></trkpt>
      <trkpt lat="22.2530171040" lon="114.1486379865"><ele>120.000</ele></trkpt>
      <trkpt lat="22.2530356897" lon="114.1486567938"><ele>118.000</ele></trkpt>
      <trkpt lat="22.2530725034" lon="114.1486840435"><ele>118.000</ele></trkpt>
      <trkpt lat="22.2531096729" lon="114.1487109099"><ele>118.000</ele></trkpt>
      <trkpt lat="22.2531650712" lon="114.1487458345"><ele>118.000</ele></trkpt>
      <trkpt lat="22.2532058153" lon="114.1487742350"><ele>121.000</ele></trkpt>
      <trkpt lat="22.2532294041" lon="114.1487888183"><ele>121.000</ele></trkpt>
      <trkpt lat="22.2532747942" lon="114.1488214419"><ele>123.000</ele></trkpt>
      <trkpt lat="22.2533259039" lon="114.1488563674"><ele>122.000</ele></trkpt>
      <trkpt lat="22.2533491350" lon="114.1488701835"><ele>122.000</ele></trkpt>
      <trkpt lat="22.2533777249" lon="114.1488793912"><ele>120.000</ele></trkpt>
      <trkpt lat="22.2534027418" lon="114.1488855282"><ele>118.000</ele></trkpt>
      <trkpt lat="22.2534252558" lon="114.1488885952"><ele>118.000</ele></trkpt>
      <trkpt lat="22.2534492005" lon="114.1488931977"><ele>118.000</ele></trkpt>
      <trkpt lat="22.2534688569" lon="114.1488997199"><ele>119.000</ele></trkpt>
      <trkpt lat="22.2534870831" lon="114.1489081624"><ele>119.000</ele></trkpt>
      <trkpt lat="22.2535128164" lon="114.1489265851"><ele>122.000</ele></trkpt>
      <trkpt lat="22.2535274713" lon="114.1489419386"><ele>118.000</ele></trkpt>
      <trkpt lat="22.2535457010" lon="114.1489653532"><ele>118.000</ele></trkpt>
      <trkpt lat="22.2535553528" lon="114.1489849307"><ele>119.000</ele></trkpt>
      <trkpt lat="22.2535625040" lon="114.1490052761"><ele>119.000</ele></trkpt>
      <trkpt lat="22.2535664384" lon="114.1490244706"><ele>119.000</ele></trkpt>
      <trkpt lat="22.2535689431" lon="114.1490436653"><ele>121.000</ele></trkpt>
      <trkpt lat="22.2535693019" lon="114.1490559502"><ele>121.000</ele></trkpt>
      <trkpt lat="22.2535693052" lon="114.1490747622"><ele>121.000</ele></trkpt>
      <trkpt lat="22.2535625212" lon="114.1491058595"><ele>123.000</ele></trkpt>
      <trkpt lat="22.2535471603" lon="114.1491442530"><ele>120.000</ele></trkpt>
      <trkpt lat="22.2535321573" lon="114.1491795759"><ele>122.000</ele></trkpt>
      <trkpt lat="22.2535121526" lon="114.1492221933"><ele>126.000</ele></trkpt>
      <trkpt lat="22.2534992924" lon="114.1492509887"><ele>122.000</ele></trkpt>
      <trkpt lat="22.2534867894" lon="114.1492770967"><ele>125.000</ele></trkpt>
      <trkpt lat="22.2534764295" lon="114.1492989812"><ele>125.000</ele></trkpt>
      <trkpt lat="22.2534646386" lon="114.1493124210"><ele>125.000</ele></trkpt>
      <trkpt lat="22.2534546342" lon="114.1493220205"><ele>124.000</ele></trkpt>
      <trkpt lat="22.2534417703" lon="114.1493289334"><ele>124.000</ele></trkpt>
      <trkpt lat="22.2534274765" lon="114.1493339266"><ele>124.000</ele></trkpt>
      <trkpt lat="22.2534153270" lon="114.1493412234"><ele>121.000</ele></trkpt>
      <trkpt lat="22.2533938880" lon="114.1493561998"><ele>121.000</ele></trkpt>
      <trkpt lat="22.2533799530" lon="114.1493681033"><ele>124.000</ele></trkpt>
      <trkpt lat="22.2533638746" lon="114.1493884541"><ele>119.000</ele></trkpt>
      <trkpt lat="22.2533542292" lon="114.1494061155"><ele>119.000</ele></trkpt>
      <trkpt lat="22.2533495861" lon="114.1494249274"><ele>120.000</ele></trkpt>
      <trkpt lat="22.2533463737" lon="114.1494448916"><ele>120.000</ele></trkpt>
      <trkpt lat="22.2533463771" lon="114.1494652384"><ele>120.000</ele></trkpt>
      <trkpt lat="22.2533470945" lon="114.1494836661"><ele>120.000</ele></trkpt>
      <trkpt lat="22.2533506716" lon="114.1495055479"><ele>120.000</ele></trkpt>
      <trkpt lat="22.2533578242" lon="114.1495339551"><ele>118.000</ele></trkpt>
      <trkpt lat="22.2533714108" lon="114.1495769501"><ele>122.000</ele></trkpt>
      <trkpt lat="22.2533832088" lon="114.1496057406"><ele>122.000</ele></trkpt>
      <trkpt lat="22.2533982259" lon="114.1496491195"><ele>119.000</ele></trkpt>
      <trkpt lat="22.2534171735" lon="114.1496944166"><ele>122.000</ele></trkpt>
      <trkpt lat="22.2534336177" lon="114.1497285819"><ele>118.000</ele></trkpt>
      <trkpt lat="22.2534443419" lon="114.1497466225"><ele>118.000</ele></trkpt>
      <trkpt lat="22.2534591663" lon="114.1497657557"><ele>118.000</ele></trkpt>
      <trkpt lat="22.2534765118" lon="114.1497896139"><ele>119.000</ele></trkpt>
      <trkpt lat="22.2534847345" lon="114.1498130316"><ele>120.000</ele></trkpt>
      <trkpt lat="22.2534871636" lon="114.1498335079"><ele>120.000</ele></trkpt>
      <trkpt lat="22.2534872462" lon="114.1498744556"><ele>120.000</ele></trkpt>
      <trkpt lat="22.2534915417" lon="114.1499155326"><ele>119.000</ele></trkpt>
      <trkpt lat="22.2534979795" lon="114.1499473957"><ele>119.000</ele></trkpt>
      <trkpt lat="22.2535083491" lon="114.1499834810"><ele>124.000</ele></trkpt>
      <trkpt lat="22.2535194322" lon="114.1500149590"><ele>122.000</ele></trkpt>
      <trkpt lat="22.2535315879" lon="114.1500449021"><ele>122.000</ele></trkpt>
      <trkpt lat="22.2535462451" lon="114.1500752279"><ele>118.000</ele></trkpt>
      <trkpt lat="22.2535694789" lon="114.1501116941"><ele>119.000</ele></trkpt>
      <trkpt lat="22.2535923561" lon="114.1501435541"><ele>118.000</ele></trkpt>
      <trkpt lat="22.2536159470" lon="114.1501773338"><ele>120.000</ele></trkpt>
      <trkpt lat="22.2536413275" lon="114.1502199426"><ele>118.000</ele></trkpt>
      <trkpt lat="22.2536538400" lon="114.1502506530"><ele>119.000</ele></trkpt>
      <trkpt lat="22.2536606352" lon="114.1502817477"><ele>119.000</ele></trkpt>
      <trkpt lat="22.2536617123" lon="114.1503132286"><ele>121.000</ele></trkpt>
      <trkpt lat="22.2536638624" lon="114.1503516187"><ele>120.000</ele></trkpt>
      <trkpt lat="22.2536695879" lon="114.1503961511"><ele>120.000</ele></trkpt>
      <trkpt lat="22.2536774558" lon="114.1504318529"><ele>120.000</ele></trkpt>
      <trkpt lat="22.2536860361" lon="114.1504556527"><ele>118.000</ele></trkpt>
      <trkpt lat="22.2536931856" lon="114.1504721603"><ele>119.000</ele></trkpt>
      <trkpt lat="22.2537081996" lon="114.1504974948"><ele>118.000</ele></trkpt>
      <trkpt lat="22.2537303599" lon="114.1505247487"><ele>118.000</ele></trkpt>
      <trkpt lat="22.2537653891" lon="114.1505704272"><ele>119.000</ele></trkpt>
      <trkpt lat="22.2538072094" lon="114.1506222465"><ele>120.000</ele></trkpt>
      <trkpt lat="22.2538493870" lon="114.1506771372"><ele>118.000</ele></trkpt>
      <trkpt lat="22.2538729779" lon="114.1507059267"><ele>120.000</ele></trkpt>
      <trkpt lat="22.2538954959" lon="114.1507343312"><ele>118.000</ele></trkpt>
      <trkpt lat="22.2539151547" lon="114.1507565944"><ele>121.000</ele></trkpt>
      <trkpt lat="22.2539408888" lon="114.1507811595"><ele>118.000</ele></trkpt>
      <trkpt lat="22.2539651915" lon="114.1507938241"><ele>118.000</ele></trkpt>
      <trkpt lat="22.2539834188" lon="114.1508038016"><ele>118.000</ele></trkpt>
      <trkpt lat="22.2540137956" lon="114.1508118589"><ele>118.000</ele></trkpt>
      <trkpt lat="22.2540402425" lon="114.1508214516"><ele>118.000</ele></trkpt>
      <trkpt lat="22.2540581133" lon="114.1508383405"><ele>118.000</ele></trkpt>
      <trkpt lat="22.2540727692" lon="114.1508667466"><ele>118.000</ele></trkpt>
      <trkpt lat="22.2540767029" lon="114.1508832539"><ele>118.000</ele></trkpt>
      <trkpt lat="22.2540781368" lon="114.1509105108"><ele>118.000</ele></trkpt>
      <trkpt lat="22.2540777849" lon="114.1509404564"><ele>118.000</ele></trkpt>
      <trkpt lat="22.2540738587" lon="114.1509711700"><ele>118.000</ele></trkpt>
      <trkpt lat="22.2540724340" lon="114.1510072577"><ele>118.000</ele></trkpt>
      <trkpt lat="22.2540695847" lon="114.1510636926"><ele>118.000</ele></trkpt>
      <trkpt lat="22.2540713771" lon="114.1510963241"><ele>118.000</ele></trkpt>
      <trkpt lat="22.2540735255" lon="114.1511251167"><ele>118.000</ele></trkpt>
      <trkpt lat="22.2540817509" lon="114.1511608185"><ele>118.000</ele></trkpt>
      <trkpt lat="22.2540931938" lon="114.1512080373"><ele>121.000</ele></trkpt>
      <trkpt lat="22.2541099989" lon="114.1512644686"><ele>120.000</ele></trkpt>
      <trkpt lat="22.2541178668" lon="114.1513070818"><ele>119.000</ele></trkpt>
      <trkpt lat="22.2541207322" lon="114.1513473909"><ele>119.000</ele></trkpt>
      <trkpt lat="22.2541171649" lon="114.1513865505"><ele>118.000</ele></trkpt>
      <trkpt lat="22.2541032356" lon="114.1514360771"><ele>119.000</ele></trkpt>
      <trkpt lat="22.2540964509" lon="114.1514710142"><ele>119.000</ele></trkpt>
      <trkpt lat="22.2540928878" lon="114.1515370469"><ele>118.000</ele></trkpt>
      <trkpt lat="22.2540914655" lon="114.1515838838"><ele>118.000</ele></trkpt>
      <trkpt lat="22.2540878990" lon="114.1516284181"><ele>118.000</ele></trkpt>
      <trkpt lat="22.2540864753" lon="114.1516664257"><ele>120.000</ele></trkpt>
      <trkpt lat="22.2540871943" lon="114.1516963701"><ele>122.000</ele></trkpt>
      <trkpt lat="22.2540947041" lon="114.1517251617"><ele>125.000</ele></trkpt>
      <trkpt lat="22.2541075739" lon="114.1517554882"><ele>122.000</ele></trkpt>
      <trkpt lat="22.2541261613" lon="114.1517881177"><ele>122.000</ele></trkpt>
      <trkpt lat="22.2541526118" lon="114.1518211290"><ele>123.000</ele></trkpt>
      <trkpt lat="22.2541890693" lon="114.1518671909"><ele>120.000</ele></trkpt>
      <trkpt lat="22.2542291015" lon="114.1519151731"><ele>121.000</ele></trkpt>
      <trkpt lat="22.2542705629" lon="114.1519608510"><ele>120.000</ele></trkpt>
      <trkpt lat="22.2542955812" lon="114.1519831134"><ele>120.000</ele></trkpt>
      <trkpt lat="22.2543170256" lon="114.1519961620"><ele>120.000</ele></trkpt>
      <trkpt lat="22.2543452597" lon="114.1520118976"><ele>122.000</ele></trkpt>
      <trkpt lat="22.2543845723" lon="114.1520314702"><ele>125.000</ele></trkpt>
      <trkpt lat="22.2544074468" lon="114.1520483575"><ele>121.000</ele></trkpt>
      <trkpt lat="22.2544417563" lon="114.1520675468"><ele>122.000</ele></trkpt>
      <trkpt lat="22.2544624850" lon="114.1520771418"><ele>124.000</ele></trkpt>
      <trkpt lat="22.2544796385" lon="114.1520813609"><ele>124.000</ele></trkpt>
      <trkpt lat="22.2544927492" lon="114.1520812188"><ele>124.000</ele></trkpt>
      <trkpt lat="22.2545096585" lon="114.1520890343"><ele>119.000</ele></trkpt>
      <trkpt lat="22.2545327259" lon="114.1521091191"><ele>119.000</ele></trkpt>
      <trkpt lat="22.2545323143" lon="114.1521283699"><ele>119.000</ele></trkpt>
      <trkpt lat="22.2545581380" lon="114.1521494467"><ele>118.000</ele></trkpt>
      <trkpt lat="22.2545741471" lon="114.1521588747"><ele>118.000</ele></trkpt>
      <trkpt lat="22.2545874514" lon="114.1521665036"><ele>118.000</ele></trkpt>
      <trkpt lat="22.2546001865" lon="114.1521730877"><ele>120.000</ele></trkpt>
      <trkpt lat="22.2546100480" lon="114.1521791116"><ele>120.000</ele></trkpt>
      <trkpt lat="22.2546219206" lon="114.1521848848"><ele>120.000</ele></trkpt>
      <trkpt lat="22.2546388794" lon="114.1521913828"><ele>118.000</ele></trkpt>
      <trkpt lat="22.2546581457" lon="114.1521995326"><ele>118.000</ele></trkpt>
      <trkpt lat="22.2546797260" lon="114.1522091566"><ele>118.000</ele></trkpt>
      <trkpt lat="22.2546938708" lon="114.1522161673"><ele>119.000</ele></trkpt>
      <trkpt lat="22.2547109249" lon="114.1522259337"><ele>119.000</ele></trkpt>
      <trkpt lat="22.2547300507" lon="114.1522363042"><ele>118.000</ele></trkpt>
      <trkpt lat="22.2547432718" lon="114.1522432569"><ele>118.000</ele></trkpt>
      <trkpt lat="22.2547617877" lon="114.1522517415"><ele>118.000</ele></trkpt>
      <trkpt lat="22.2547771102" lon="114.1522587627"><ele>120.000</ele></trkpt>
      <trkpt lat="22.2547843434" lon="114.1522620775"><ele>120.000</ele></trkpt>
      <trkpt lat="22.2547982331" lon="114.1522656539"><ele>120.000</ele></trkpt>
      <trkpt lat="22.2548143353" lon="114.1522693387"><ele>120.000</ele></trkpt>
      <trkpt lat="22.2548376345" lon="114.1522759753"><ele>120.000</ele></trkpt>
      <trkpt lat="22.2548585063" lon="114.1522824474"><ele>118.000</ele></trkpt>
      <trkpt lat="22.2548811712" lon="114.1522867267"><ele>118.000</ele></trkpt>
      <trkpt lat="22.2548947022" lon="114.1522892807"><ele>118.000</ele></trkpt>
      <trkpt lat="22.2549059909" lon="114.1522912714"><ele>118.000</ele></trkpt>
      <trkpt lat="22.2549213557" lon="114.1522919498"><ele>118.000</ele></trkpt>
      <trkpt lat="22.2549439380" lon="114.1522934399"><ele>118.000</ele></trkpt>
      <trkpt lat="22.2549598412" lon="114.1522944887"><ele>118.000</ele></trkpt>
      <trkpt lat="22.2549818494" lon="114.1522974633"><ele>118.000</ele></trkpt>
      <trkpt lat="22.2549972006" lon="114.1523034552"><ele>118.000</ele></trkpt>
      <trkpt lat="22.2550124832" lon="114.1523094199"><ele>118.000</ele></trkpt>
      <trkpt lat="22.2550200154" lon="114.1523137067"><ele>118.000</ele></trkpt>
      <trkpt lat="22.2550328024" lon="114.1523225241"><ele>118.000</ele></trkpt>
      <trkpt lat="22.2550432556" lon="114.1523303999"><ele>118.000</ele></trkpt>
      <trkpt lat="22.2550478060" lon="114.1523347541"><ele>118.000</ele></trkpt>
      <trkpt lat="22.2550607401" lon="114.1523497116"><ele>118.000</ele></trkpt>
      <trkpt lat="22.2550666203" lon="114.1523579181"><ele>118.000</ele></trkpt>
      <trkpt lat="22.2550732596" lon="114.1523695656"><ele>118.000</ele></trkpt>
      <trkpt lat="22.2550806259" lon="114.1523872192"><ele>118.000</ele></trkpt>
      <trkpt lat="22.2550861066" lon="114.1524052679"><ele>118.000</ele></trkpt>
      <trkpt lat="22.2550876863" lon="114.1524191272"><ele>122.000</ele></trkpt>
      <trkpt lat="22.2550886983" lon="114.1524348377"><ele>122.000</ele></trkpt>
      <trkpt lat="22.2550882145" lon="114.1524544135"><ele>122.000</ele></trkpt>
      <trkpt lat="22.2550888907" lon="114.1524711243"><ele>120.000</ele></trkpt>
      <trkpt lat="22.2550981792" lon="114.1524981725"><ele>120.000</ele></trkpt>
      <trkpt lat="22.2551073292" lon="114.1525175371"><ele>120.000</ele></trkpt>
      <trkpt lat="22.2551181013" lon="114.1525374418"><ele>117.000</ele></trkpt>
      <trkpt lat="22.2551249243" lon="114.1525518901"><ele>117.000</ele></trkpt>
      <trkpt lat="22.2551354373" lon="114.1525669237"><ele>122.000</ele></trkpt>
      <trkpt lat="22.2551402500" lon="114.1525746347"><ele>118.000</ele></trkpt>
      <trkpt lat="22.2551474956" lon="114.1525888869"><ele>118.000</ele></trkpt>
      <trkpt lat="22.2551551476" lon="114.1526028859"><ele>118.000</ele></trkpt>
      <trkpt lat="22.2551603244" lon="114.1526120141"><ele>118.000</ele></trkpt>
      <trkpt lat="22.2551659028" lon="114.1526186364"><ele>118.000</ele></trkpt>
      <trkpt lat="22.2551797512" lon="114.1526365984"><ele>121.000</ele></trkpt>
      <trkpt lat="22.2551888127" lon="114.1526494572"><ele>121.000</ele></trkpt>
      <trkpt lat="22.2551966534" lon="114.1526632077"><ele>121.000</ele></trkpt>
      <trkpt lat="22.2552050257" lon="114.1526752508"><ele>118.000</ele></trkpt>
      <trkpt lat="22.2552166974" lon="114.1526906664"><ele>118.000</ele></trkpt>
      <trkpt lat="22.2552245069" lon="114.1527009817"><ele>121.000</ele></trkpt>
      <trkpt lat="22.2552393532" lon="114.1527187136"><ele>118.000</ele></trkpt>
      <trkpt lat="22.2552523116" lon="114.1527331327"><ele>118.000</ele></trkpt>
      <trkpt lat="22.2552623363" lon="114.1527435592"><ele>118.000</ele></trkpt>
      <trkpt lat="22.2552742864" lon="114.1527607968"><ele>121.000</ele></trkpt>
      <trkpt lat="22.2552880696" lon="114.1527770542"><ele>118.000</ele></trkpt>
      <trkpt lat="22.2552988688" lon="114.1527911662"><ele>118.000</ele></trkpt>
      <trkpt lat="22.2553105242" lon="114.1528063975"><ele>118.000</ele></trkpt>
      <trkpt lat="22.2553174792" lon="114.1528154867"><ele>118.000</ele></trkpt>
      <trkpt lat="22.2553266334" lon="114.1528264925"><ele>118.000</ele></trkpt>
      <trkpt lat="22.2553373537" lon="114.1528391599"><ele>118.000</ele></trkpt>
      <trkpt lat="22.2553504260" lon="114.1528538682"><ele>118.000</ele></trkpt>
      <trkpt lat="22.2553671021" lon="114.1528726301"><ele>119.000</ele></trkpt>
      <trkpt lat="22.2553766456" lon="114.1528844362"><ele>119.000</ele></trkpt>
      <trkpt lat="22.2553790518" lon="114.1528874132"><ele>119.000</ele></trkpt>
      <trkpt lat="22.2553903923" lon="114.1528980820"><ele>119.000</ele></trkpt>
      <trkpt lat="22.2554048532" lon="114.1529108187"><ele>118.000</ele></trkpt>
      <trkpt lat="22.2554265072" lon="114.1529250918"><ele>118.000</ele></trkpt>
      <trkpt lat="22.2554435189" lon="114.1529355229"><ele>118.000</ele></trkpt>
      <trkpt lat="22.2554605060" lon="114.1529447210"><ele>121.000</ele></trkpt>
      <trkpt lat="22.2554784893" lon="114.1529544583"><ele>121.000</ele></trkpt>
      <trkpt lat="22.2555010805" lon="114.1529676292"><ele>121.000</ele></trkpt>
      <trkpt lat="22.2555233077" lon="114.1529798407"><ele>121.000</ele></trkpt>
      <trkpt lat="22.2555359635" lon="114.1529878957"><ele>121.000</ele></trkpt>
      <trkpt lat="22.2555571700" lon="114.1530044798"><ele>121.000</ele></trkpt>
      <trkpt lat="22.2555641082" lon="114.1530107080"><ele>121.000</ele></trkpt>
      <trkpt lat="22.2555797998" lon="114.1530224898"><ele>121.000</ele></trkpt>
      <trkpt lat="22.2555880422" lon="114.1530292223"><ele>124.000</ele></trkpt>
      <trkpt lat="22.2556004809" lon="114.1530404362"><ele>124.000</ele></trkpt>
      <trkpt lat="22.2556113874" lon="114.1530542532"><ele>121.000</ele></trkpt>
      <trkpt lat="22.2556238564" lon="114.1530687899"><ele>121.000</ele></trkpt>
      <trkpt lat="22.2556325526" lon="114.1530789275"><ele>126.000</ele></trkpt>
      <trkpt lat="22.2556440947" lon="114.1530915997"><ele>126.000</ele></trkpt>
      <trkpt lat="22.2556561344" lon="114.1531040758"><ele>123.000</ele></trkpt>
      <trkpt lat="22.2556658627" lon="114.1531131588"><ele>123.000</ele></trkpt>
      <trkpt lat="22.2556758688" lon="114.1531261805"><ele>128.000</ele></trkpt>
      <trkpt lat="22.2556839365" lon="114.1531366810"><ele>128.000</ele></trkpt>
      <trkpt lat="22.2556962430" lon="114.1531520715"><ele>125.000</ele></trkpt>
      <trkpt lat="22.2557063057" lon="114.1531632819"><ele>125.000</ele></trkpt>
      <trkpt lat="22.2557193966" lon="114.1531761052"><ele>126.000</ele></trkpt>
      <trkpt lat="22.2557289362" lon="114.1531854491"><ele>126.000</ele></trkpt>
      <trkpt lat="22.2557595872" lon="114.1532169877"><ele>123.000</ele></trkpt>
      <trkpt lat="22.2557711968" lon="114.1532275148"><ele>124.000</ele></trkpt>
      <trkpt lat="22.2557790371" lon="114.1532331618"><ele>124.000</ele></trkpt>
      <trkpt lat="22.2557887431" lon="114.1532382690"><ele>124.000</ele></trkpt>
      <trkpt lat="22.2558050398" lon="114.1532443880"><ele>124.000</ele></trkpt>
      <trkpt lat="22.2558159484" lon="114.1532476973"><ele>122.000</ele></trkpt>
      <trkpt lat="22.2558284211" lon="114.1532508065"><ele>122.000</ele></trkpt>
      <trkpt lat="22.2558417646" lon="114.1532557036"><ele>122.000</ele></trkpt>
      <trkpt lat="22.2558543908" lon="114.1532643262"><ele>124.000</ele></trkpt>
      <trkpt lat="22.2558649485" lon="114.1532707177"><ele>124.000</ele></trkpt>
      <trkpt lat="22.2558805637" lon="114.1532783406"><ele>124.000</ele></trkpt>
      <trkpt lat="22.2558937916" lon="114.1532894447"><ele>124.000</ele></trkpt>
      <trkpt lat="22.2559052447" lon="114.1532984993"><ele>126.000</ele></trkpt>
      <trkpt lat="22.2559154624" lon="114.1533074007"><ele>126.000</ele></trkpt>
      <trkpt lat="22.2559350697" lon="114.1533198077"><ele>126.000</ele></trkpt>
      <trkpt lat="22.2559554737" lon="114.1533331983"><ele>128.000</ele></trkpt>
      <trkpt lat="22.2559800334" lon="114.1533510529"><ele>125.000</ele></trkpt>
      <trkpt lat="22.2560227307" lon="114.1533847336"><ele>127.000</ele></trkpt>
      <trkpt lat="22.2560367118" lon="114.1533956902"><ele>126.000</ele></trkpt>
      <trkpt lat="22.2560843200" lon="114.1534297756"><ele>128.000</ele></trkpt>
      <trkpt lat="22.2561406192" lon="114.1534687308"><ele>127.000</ele></trkpt>
      <trkpt lat="22.2561825600" lon="114.1534979470"><ele>127.000</ele></trkpt>
      <trkpt lat="22.2562063649" lon="114.1535178314"><ele>127.000</ele></trkpt>
      <trkpt lat="22.2562214794" lon="114.1535352821"><ele>128.000</ele></trkpt>
      <trkpt lat="22.2562380366" lon="114.1535631491"><ele>124.000</ele></trkpt>
      <trkpt lat="22.2562490721" lon="114.1536205110"><ele>120.000</ele></trkpt>
      <trkpt lat="22.2562498340" lon="114.1536627226"><ele>118.000</ele></trkpt>
      <trkpt lat="22.2562434146" lon="114.1536915413"><ele>118.000</ele></trkpt>
      <trkpt lat="22.2562317069" lon="114.1537207664"><ele>118.000</ele></trkpt>
      <trkpt lat="22.2562113100" lon="114.1537508049"><ele>117.000</ele></trkpt>
      <trkpt lat="22.2561924217" lon="114.1537715074"><ele>117.000</ele></trkpt>
      <trkpt lat="22.2561727782" lon="114.1537844991"><ele>118.000</ele></trkpt>
      <trkpt lat="22.2561493553" lon="114.1537966784"><ele>118.000</ele></trkpt>
      <trkpt lat="22.2561251767" lon="114.1538039887"><ele>120.000</ele></trkpt>
      <trkpt lat="22.2561017533" lon="114.1538064276"><ele>120.000</ele></trkpt>
      <trkpt lat="22.2560839962" lon="114.1538056185"><ele>120.000</ele></trkpt>
      <trkpt lat="22.2560560373" lon="114.1537995353"><ele>124.000</ele></trkpt>
      <trkpt lat="22.2559971947" lon="114.1537699638"><ele>124.000</ele></trkpt>
      <trkpt lat="22.2558905449" lon="114.1537098634"><ele>120.000</ele></trkpt>
      <trkpt lat="22.2557670381" lon="114.1536412926"><ele>125.000</ele></trkpt>
      <trkpt lat="22.2557138135" lon="114.1536122461"><ele>128.000</ele></trkpt>
      <trkpt lat="22.2556857569" lon="114.1535982815"><ele>128.000</ele></trkpt>
      <trkpt lat="22.2556536407" lon="114.1535824567"><ele>128.000</ele></trkpt>
    </trkseg>
  </trk>
</gpx>
