<?xml version="1.0" encoding="UTF-8"?>
<gpx xmlns:xsi="http://www.w3.org/2001/XMLSchema-instance"
     xsi:schemaLocation="http://www.topografix.com/GPX/1/1 http://www.topografix.com/GPX/1/1/gpx.xsd"
     version="1.1" creator="json3d_batch_to_gpx"
     xmlns="http://www.topografix.com/GPX/1/1">
  <metadata>
    <name>LantauTrail(Section11)CheungShatoPuiO</name>
  </metadata>
  <trk>
    <name>LantauTrail(Section11)CheungShatoPuiO</name>
    <type>hike</type>
    <trkseg>
      <trkpt lat="22.2389074741" lon="113.9460778850"><ele>114.000</ele></trkpt>
      <trkpt lat="22.2389035873" lon="113.9460969623"><ele>114.000</ele></trkpt>
      <trkpt lat="22.2388929854" lon="113.9461345869"><ele>114.000</ele></trkpt>
      <trkpt lat="22.2388904079" lon="113.9461482475"><ele>113.000</ele></trkpt>
      <trkpt lat="22.2388545312" lon="113.9463383884"><ele>112.000</ele></trkpt>
      <trkpt lat="22.2388509550" lon="113.9463746348"><ele>113.000</ele></trkpt>
      <trkpt lat="22.2388546338" lon="113.9464107238"><ele>114.000</ele></trkpt>
      <trkpt lat="22.2388739749" lon="113.9464726871"><ele>114.000</ele></trkpt>
      <trkpt lat="22.2389196489" lon="113.9465742270"><ele>114.000</ele></trkpt>
      <trkpt lat="22.2389982244" lon="113.9467489121"><ele>116.000</ele></trkpt>
      <trkpt lat="22.2390767998" lon="113.9469235974"><ele>116.000</ele></trkpt>
      <trkpt lat="22.2390957727" lon="113.9469539490"><ele>114.000</ele></trkpt>
      <trkpt lat="22.2391186082" lon="113.9469786467"><ele>116.000</ele></trkpt>
      <trkpt lat="22.2391369291" lon="113.9469927924"><ele>114.000</ele></trkpt>
      <trkpt lat="22.2392835861" lon="113.9471060266"><ele>112.000</ele></trkpt>
      <trkpt lat="22.2394302429" lon="113.9472192612"><ele>115.000</ele></trkpt>
      <trkpt lat="22.2394761292" lon="113.9472715831"><ele>114.000</ele></trkpt>
      <trkpt lat="22.2394881175" lon="113.9473010790"><ele>115.000</ele></trkpt>
      <trkpt lat="22.2394953312" lon="113.9473331494"><ele>113.000</ele></trkpt>
      <trkpt lat="22.2395025640" lon="113.9473793357"><ele>112.000</ele></trkpt>
      <trkpt lat="22.2395062153" lon="113.9474268113"><ele>112.000</ele></trkpt>
      <trkpt lat="22.2395049149" lon="113.9475056020"><ele>112.000</ele></trkpt>
      <trkpt lat="22.2394992603" lon="113.9475782507"><ele>112.000</ele></trkpt>
      <trkpt lat="22.2394821984" lon="113.9476497481"><ele>112.000</ele></trkpt>
      <trkpt lat="22.2394438382" lon="113.9477600361"><ele>112.000</ele></trkpt>
      <trkpt lat="22.2393653932" lon="113.9478958074"><ele>112.000</ele></trkpt>
      <trkpt lat="22.2392701521" lon="113.9480606488"><ele>114.000</ele></trkpt>
      <trkpt lat="22.2391749108" lon="113.9482254899"><ele>114.000</ele></trkpt>
      <trkpt lat="22.2391537819" lon="113.9482730677"><ele>116.000</ele></trkpt>
      <trkpt lat="22.2391429606" lon="113.9483219926"><ele>115.000</ele></trkpt>
      <trkpt lat="22.2391455395" lon="113.9483590603"><ele>114.000</ele></trkpt>
      <trkpt lat="22.2391559093" lon="113.9484046382"><ele>114.000</ele></trkpt>
      <trkpt lat="22.2392017128" lon="113.9485531475"><ele>112.000</ele></trkpt>
      <trkpt lat="22.2392585127" lon="113.9487373114"><ele>114.000</ele></trkpt>
      <trkpt lat="22.2392643980" lon="113.9487759347"><ele>114.000</ele></trkpt>
      <trkpt lat="22.2392618345" lon="113.9488199727"><ele>116.000</ele></trkpt>
      <trkpt lat="22.2392502058" lon="113.9488786207"><ele>124.000</ele></trkpt>
      <trkpt lat="22.2392275973" lon="113.9489428214"><ele>126.000</ele></trkpt>
      <trkpt lat="22.2392109436" lon="113.9489941798"><ele>124.000</ele></trkpt>
      <trkpt lat="22.2391979822" lon="113.9490543111"><ele>122.000</ele></trkpt>
      <trkpt lat="22.2391955330" lon="113.9490971683"><ele>123.000</ele></trkpt>
      <trkpt lat="22.2391844664" lon="113.9492908111"><ele>126.000</ele></trkpt>
      <trkpt lat="22.2391733996" lon="113.9494844540"><ele>115.000</ele></trkpt>
      <trkpt lat="22.2391662714" lon="113.9495126974"><ele>114.000</ele></trkpt>
      <trkpt lat="22.2391555555" lon="113.9495383809"><ele>114.000</ele></trkpt>
      <trkpt lat="22.2391460172" lon="113.9495525123"><ele>117.000</ele></trkpt>
      <trkpt lat="22.2391345060" lon="113.9495642072"><ele>117.000</ele></trkpt>
      <trkpt lat="22.2391090365" lon="113.9495910698"><ele>116.000</ele></trkpt>
      <trkpt lat="22.2390780053" lon="113.9496129360"><ele>121.000</ele></trkpt>
      <trkpt lat="22.2389682094" lon="113.9496952431"><ele>116.000</ele></trkpt>
      <trkpt lat="22.2389013760" lon="113.9497441155"><ele>114.000</ele></trkpt>
      <trkpt lat="22.2388025076" lon="113.9498144670"><ele>114.000</ele></trkpt>
      <trkpt lat="22.2386519358" lon="113.9499216088"><ele>120.000</ele></trkpt>
      <trkpt lat="22.2386280739" lon="113.9499447466"><ele>125.000</ele></trkpt>
      <trkpt lat="22.2386101921" lon="113.9499717239"><ele>125.000</ele></trkpt>
      <trkpt lat="22.2385698646" lon="113.9500783331"><ele>122.000</ele></trkpt>
      <trkpt lat="22.2385018752" lon="113.9502580688"><ele>114.000</ele></trkpt>
      <trkpt lat="22.2384792366" lon="113.9503017373"><ele>114.000</ele></trkpt>
      <trkpt lat="22.2384529388" lon="113.9503356482"><ele>114.000</ele></trkpt>
      <trkpt lat="22.2384100511" lon="113.9503775614"><ele>112.000</ele></trkpt>
      <trkpt lat="22.2383904516" lon="113.9503931710"><ele>114.000</ele></trkpt>
      <trkpt lat="22.2382453677" lon="113.9505087192"><ele>114.000</ele></trkpt>
      <trkpt lat="22.2381932857" lon="113.9505530712"><ele>114.000</ele></trkpt>
      <trkpt lat="22.2381678305" lon="113.9505922567"><ele>114.000</ele></trkpt>
      <trkpt lat="22.2381484734" lon="113.9506358091"><ele>114.000</ele></trkpt>
      <trkpt lat="22.2381404788" lon="113.9506834136"><ele>114.000</ele></trkpt>
      <trkpt lat="22.2381417521" lon="113.9507398751"><ele>115.000</ele></trkpt>
      <trkpt lat="22.2381849530" lon="113.9508783990"><ele>114.000</ele></trkpt>
      <trkpt lat="22.2382137500" lon="113.9509681826"><ele>116.000</ele></trkpt>
      <trkpt lat="22.2382714435" lon="113.9510823584"><ele>116.000</ele></trkpt>
      <trkpt lat="22.2383576022" lon="113.9512528672"><ele>121.000</ele></trkpt>
      <trkpt lat="22.2384437606" lon="113.9514233763"><ele>114.000</ele></trkpt>
      <trkpt lat="22.2384713056" lon="113.9514720968"><ele>114.000</ele></trkpt>
      <trkpt lat="22.2384892847" lon="113.9515144158"><ele>114.000</ele></trkpt>
      <trkpt lat="22.2384988898" lon="113.9515490491"><ele>115.000</ele></trkpt>
      <trkpt lat="22.2385013646" lon="113.9516106423"><ele>115.000</ele></trkpt>
      <trkpt lat="22.2384908704" lon="113.9517967347"><ele>117.000</ele></trkpt>
      <trkpt lat="22.2384869621" lon="113.9518353424"><ele>114.000</ele></trkpt>
      <trkpt lat="22.2384660856" lon="113.9519212887"><ele>114.000</ele></trkpt>
      <trkpt lat="22.2384481283" lon="113.9519892934"><ele>116.000</ele></trkpt>
      <trkpt lat="22.2384290913" lon="113.9520457884"><ele>115.000</ele></trkpt>
      <trkpt lat="22.2384254118" lon="113.9520568923"><ele>115.000</ele></trkpt>
      <trkpt lat="22.2383648461" lon="113.9522396655"><ele>114.000</ele></trkpt>
      <trkpt lat="22.2383517704" lon="113.9522871675"><ele>116.000</ele></trkpt>
      <trkpt lat="22.2383434789" lon="113.9523385119"><ele>115.000</ele></trkpt>
      <trkpt lat="22.2383375849" lon="113.9523962682"><ele>114.000</ele></trkpt>
      <trkpt lat="22.2383424205" lon="113.9524373249"><ele>115.000</ele></trkpt>
      <trkpt lat="22.2383712963" lon="113.9525848558"><ele>114.000</ele></trkpt>
      <trkpt lat="22.2383880962" lon="113.9526387270"><ele>114.000</ele></trkpt>
      <trkpt lat="22.2384048926" lon="113.9526900305"><ele>114.000</ele></trkpt>
      <trkpt lat="22.2384992005" lon="113.9528329903"><ele>116.000</ele></trkpt>
      <trkpt lat="22.2386036239" lon="113.9529912845"><ele>124.000</ele></trkpt>
      <trkpt lat="22.2386251744" lon="113.9530246155"><ele>124.000</ele></trkpt>
      <trkpt lat="22.2386395758" lon="113.9530720739"><ele>124.000</ele></trkpt>
      <trkpt lat="22.2386468229" lon="113.9531298105"><ele>122.000</ele></trkpt>
      <trkpt lat="22.2386564374" lon="113.9531708597"><ele>123.000</ele></trkpt>
      <trkpt lat="22.2386653655" lon="113.9532059976"><ele>122.000</ele></trkpt>
      <trkpt lat="22.2386899839" lon="113.9532401038"><ele>120.000</ele></trkpt>
      <trkpt lat="22.2387174957" lon="113.9532657253"><ele>120.000</ele></trkpt>
      <trkpt lat="22.2387868688" lon="113.9533246458"><ele>120.000</ele></trkpt>
      <trkpt lat="22.2388067766" lon="113.9533573316"><ele>120.000</ele></trkpt>
      <trkpt lat="22.2388204046" lon="113.9533861899"><ele>122.000</ele></trkpt>
      <trkpt lat="22.2388261193" lon="113.9534158620"><ele>122.000</ele></trkpt>
      <trkpt lat="22.2388341846" lon="113.9535175076"><ele>120.000</ele></trkpt>
      <trkpt lat="22.2388495226" lon="113.9537108137"><ele>116.000</ele></trkpt>
      <trkpt lat="22.2388603238" lon="113.9537467287"><ele>114.000</ele></trkpt>
      <trkpt lat="22.2388747039" lon="113.9537787879"><ele>114.000</ele></trkpt>
      <trkpt lat="22.2389236042" lon="113.9538654551"><ele>126.000</ele></trkpt>
      <trkpt lat="22.2390172176" lon="113.9540313686"><ele>119.000</ele></trkpt>
      <trkpt lat="22.2390268310" lon="113.9540724179"><ele>122.000</ele></trkpt>
      <trkpt lat="22.2390316644" lon="113.9541121925"><ele>122.000</ele></trkpt>
      <trkpt lat="22.2390246031" lon="113.9541904837"><ele>122.000</ele></trkpt>
      <trkpt lat="22.2390057023" lon="113.9543470736"><ele>120.000</ele></trkpt>
      <trkpt lat="22.2390045655" lon="113.9543894233"><ele>120.000</ele></trkpt>
      <trkpt lat="22.2390070059" lon="113.9544266350"><ele>123.000</ele></trkpt>
      <trkpt lat="22.2390178096" lon="113.9544638334"><ele>124.000</ele></trkpt>
      <trkpt lat="22.2390354474" lon="113.9544949583"><ele>124.000</ele></trkpt>
      <trkpt lat="22.2390972615" lon="113.9545793406"><ele>122.000</ele></trkpt>
      <trkpt lat="22.2392089495" lon="113.9547318062"><ele>114.000</ele></trkpt>
      <trkpt lat="22.2393206375" lon="113.9548842720"><ele>117.000</ele></trkpt>
      <trkpt lat="22.2393386139" lon="113.9549253093"><ele>119.000</ele></trkpt>
      <trkpt lat="22.2393434577" lon="113.9549727832"><ele>120.000</ele></trkpt>
      <trkpt lat="22.2393387277" lon="113.9550087228"><ele>120.000</ele></trkpt>
      <trkpt lat="22.2393280292" lon="113.9550485210"><ele>120.000</ele></trkpt>
      <trkpt lat="22.2393029902" lon="113.9550844926"><ele>121.000</ele></trkpt>
      <trkpt lat="22.2392767600" lon="113.9551230318"><ele>124.000</ele></trkpt>
      <trkpt lat="22.2391610776" lon="113.9552707915"><ele>127.000</ele></trkpt>
      <trkpt lat="22.2391432080" lon="113.9553080350"><ele>127.000</ele></trkpt>
      <trkpt lat="22.2391328886" lon="113.9553490489"><ele>126.000</ele></trkpt>
      <trkpt lat="22.2391266047" lon="113.9553978905"><ele>126.000</ele></trkpt>
      <trkpt lat="22.2391298328" lon="113.9554592888"><ele>126.000</ele></trkpt>
      <trkpt lat="22.2391524322" lon="113.9555557042"><ele>128.000</ele></trkpt>
      <trkpt lat="22.2391802497" lon="113.9556417701"><ele>126.000</ele></trkpt>
      <trkpt lat="22.2392394863" lon="113.9558250462"><ele>116.000</ele></trkpt>
      <trkpt lat="22.2392658370" lon="113.9558750530"><ele>117.000</ele></trkpt>
      <trkpt lat="22.2392933615" lon="113.9559096587"><ele>116.000</ele></trkpt>
      <trkpt lat="22.2393268406" lon="113.9559301391"><ele>115.000</ele></trkpt>
      <trkpt lat="22.2393734506" lon="113.9559428986"><ele>117.000</ele></trkpt>
      <trkpt lat="22.2394140764" lon="113.9559479675"><ele>119.000</ele></trkpt>
      <trkpt lat="22.2394830122" lon="113.9559509907"><ele>118.000</ele></trkpt>
      <trkpt lat="22.2395270648" lon="113.9559515969"><ele>118.000</ele></trkpt>
      <trkpt lat="22.2397076625" lon="113.9559540822"><ele>117.000</ele></trkpt>
      <trkpt lat="22.2397474014" lon="113.9559551452"><ele>115.000</ele></trkpt>
      <trkpt lat="22.2397847033" lon="113.9559677458"><ele>115.000</ele></trkpt>
      <trkpt lat="22.2398095649" lon="113.9559845633"><ele>115.000</ele></trkpt>
      <trkpt lat="22.2398618233" lon="113.9560330640"><ele>115.000</ele></trkpt>
      <trkpt lat="22.2399220063" lon="113.9560883340"><ele>114.000</ele></trkpt>
      <trkpt lat="22.2399411640" lon="113.9561203862"><ele>114.000</ele></trkpt>
      <trkpt lat="22.2399531559" lon="113.9561537321"><ele>118.000</ele></trkpt>
      <trkpt lat="22.2399579924" lon="113.9561960737"><ele>117.000</ele></trkpt>
      <trkpt lat="22.2399484893" lon="113.9562358701"><ele>119.000</ele></trkpt>
      <trkpt lat="22.2399327473" lon="113.9562706426"><ele>115.000</ele></trkpt>
      <trkpt lat="22.2398898883" lon="113.9563446106"><ele>116.000</ele></trkpt>
      <trkpt lat="22.2397944503" lon="113.9565093212"><ele>126.000</ele></trkpt>
      <trkpt lat="22.2396990122" lon="113.9566740317"><ele>124.000</ele></trkpt>
      <trkpt lat="22.2396923849" lon="113.9567062668"><ele>124.000</ele></trkpt>
      <trkpt lat="22.2396911185" lon="113.9567380387"><ele>124.000</ele></trkpt>
      <trkpt lat="22.2396923636" lon="113.9567752514"><ele>124.000</ele></trkpt>
      <trkpt lat="22.2397024229" lon="113.9568186887"><ele>121.000</ele></trkpt>
      <trkpt lat="22.2397059333" lon="113.9568350646"><ele>121.000</ele></trkpt>
      <trkpt lat="22.2397464614" lon="113.9570241253"><ele>114.000</ele></trkpt>
      <trkpt lat="22.2397626199" lon="113.9570902623"><ele>114.000</ele></trkpt>
      <trkpt lat="22.2398084672" lon="113.9572779159"><ele>119.000</ele></trkpt>
      <trkpt lat="22.2398233152" lon="113.9573165946"><ele>122.000</ele></trkpt>
      <trkpt lat="22.2398438653" lon="113.9573433192"><ele>122.000</ele></trkpt>
      <trkpt lat="22.2398711753" lon="113.9573704185"><ele>122.000</ele></trkpt>
      <trkpt lat="22.2399466774" lon="113.9574223826"><ele>120.000</ele></trkpt>
      <trkpt lat="22.2400078058" lon="113.9574664923"><ele>120.000</ele></trkpt>
      <trkpt lat="22.2401577306" lon="113.9575746770"><ele>115.000</ele></trkpt>
      <trkpt lat="22.2403076553" lon="113.9576828619"><ele>116.000</ele></trkpt>
      <trkpt lat="22.2404331962" lon="113.9577570974"><ele>119.000</ele></trkpt>
      <trkpt lat="22.2404666751" lon="113.9577775783"><ele>116.000</ele></trkpt>
      <trkpt lat="22.2404941837" lon="113.9578006353"><ele>116.000</ele></trkpt>
      <trkpt lat="22.2405097526" lon="113.9578288433"><ele>116.000</ele></trkpt>
      <trkpt lat="22.2405181478" lon="113.9578532134"><ele>116.000</ele></trkpt>
      <trkpt lat="22.2405217735" lon="113.9578840068"><ele>116.000</ele></trkpt>
      <trkpt lat="22.2405182359" lon="113.9579186604"><ele>116.000</ele></trkpt>
      <trkpt lat="22.2405039430" lon="113.9579507650"><ele>116.000</ele></trkpt>
      <trkpt lat="22.2404800912" lon="113.9579816020"><ele>123.000</ele></trkpt>
      <trkpt lat="22.2404383364" lon="113.9580252986"><ele>126.000</ele></trkpt>
      <trkpt lat="22.2403773882" lon="113.9580837516"><ele>126.000</ele></trkpt>
      <trkpt lat="22.2402426611" lon="113.9582129629"><ele>124.000</ele></trkpt>
      <trkpt lat="22.2401788898" lon="113.9582797252"><ele>122.000</ele></trkpt>
      <trkpt lat="22.2401615494" lon="113.9583067689"><ele>125.000</ele></trkpt>
      <trkpt lat="22.2401468737" lon="113.9583383462"><ele>125.000</ele></trkpt>
      <trkpt lat="22.2401353692" lon="113.9583838068"><ele>125.000</ele></trkpt>
      <trkpt lat="22.2401330393" lon="113.9584274430"><ele>124.000</ele></trkpt>
      <trkpt lat="22.2401390690" lon="113.9584697819"><ele>121.000</ele></trkpt>
      <trkpt lat="22.2401535119" lon="113.9585002170"><ele>121.000</ele></trkpt>
      <trkpt lat="22.2401856946" lon="113.9585656161"><ele>118.000</ele></trkpt>
      <trkpt lat="22.2402499954" lon="113.9586550808"><ele>122.000</ele></trkpt>
      <trkpt lat="22.2402648068" lon="113.9586903133"><ele>124.000</ele></trkpt>
      <trkpt lat="22.2402732243" lon="113.9587313652"><ele>118.000</ele></trkpt>
      <trkpt lat="22.2402721001" lon="113.9587839822"><ele>118.000</ele></trkpt>
      <trkpt lat="22.2402598530" lon="113.9588272972"><ele>119.000</ele></trkpt>
      <trkpt lat="22.2402477194" lon="113.9589059826"><ele>116.000</ele></trkpt>
      <trkpt lat="22.2402182044" lon="113.9590973835"><ele>126.000</ele></trkpt>
      <trkpt lat="22.2402068627" lon="113.9591344218"><ele>126.000</ele></trkpt>
      <trkpt lat="22.2401901818" lon="113.9591678133"><ele>126.000</ele></trkpt>
      <trkpt lat="22.2401509887" lon="113.9592318192"><ele>126.000</ele></trkpt>
      <trkpt lat="22.2401203558" lon="113.9592730768"><ele>124.000</ele></trkpt>
      <trkpt lat="22.2400077392" lon="113.9594247532"><ele>122.000</ele></trkpt>
      <trkpt lat="22.2399898909" lon="113.9594786783"><ele>119.000</ele></trkpt>
      <trkpt lat="22.2399851865" lon="113.9595338675"><ele>118.000</ele></trkpt>
      <trkpt lat="22.2399876386" lon="113.9595813454"><ele>119.000</ele></trkpt>
      <trkpt lat="22.2400070961" lon="113.9596247346"><ele>120.000</ele></trkpt>
      <trkpt lat="22.2400521201" lon="113.9596970014"><ele>122.000</ele></trkpt>
      <trkpt lat="22.2400977721" lon="113.9597480029"><ele>124.000</ele></trkpt>
      <trkpt lat="22.2401468193" lon="113.9597966925"><ele>124.000</ele></trkpt>
      <trkpt lat="22.2402706022" lon="113.9598826710"><ele>124.000</ele></trkpt>
      <trkpt lat="22.2402924792" lon="113.9598958605"><ele>124.000</ele></trkpt>
      <trkpt lat="22.2404499797" lon="113.9599908167"><ele>124.000</ele></trkpt>
      <trkpt lat="22.2406074803" lon="113.9600857731"><ele>119.000</ele></trkpt>
      <trkpt lat="22.2407649808" lon="113.9601807297"><ele>122.000</ele></trkpt>
      <trkpt lat="22.2408426709" lon="113.9602075602"><ele>118.000</ele></trkpt>
      <trkpt lat="22.2408911022" lon="113.9602235076"><ele>122.000</ele></trkpt>
      <trkpt lat="22.2410637836" lon="113.9602803680"><ele>120.000</ele></trkpt>
      <trkpt lat="22.2411044315" lon="113.9603021220"><ele>120.000</ele></trkpt>
      <trkpt lat="22.2411379169" lon="113.9603277362"><ele>123.000</ele></trkpt>
      <trkpt lat="22.2411602050" lon="113.9603532124"><ele>123.000</ele></trkpt>
      <trkpt lat="22.2411810004" lon="113.9603841348"><ele>118.000</ele></trkpt>
      <trkpt lat="22.2411942049" lon="113.9604315966"><ele>119.000</ele></trkpt>
      <trkpt lat="22.2412004498" lon="113.9604812634"><ele>122.000</ele></trkpt>
      <trkpt lat="22.2412051104" lon="113.9605470772"><ele>122.000</ele></trkpt>
      <trkpt lat="22.2412111474" lon="113.9605945501"><ele>122.000</ele></trkpt>
      <trkpt lat="22.2412243467" lon="113.9606381618"><ele>119.000</ele></trkpt>
      <trkpt lat="22.2412566646" lon="113.9606843120"><ele>116.000</ele></trkpt>
      <trkpt lat="22.2412901533" lon="113.9607124930"><ele>119.000</ele></trkpt>
      <trkpt lat="22.2414226215" lon="113.9607706104"><ele>124.000</ele></trkpt>
      <trkpt lat="22.2414527079" lon="113.9607712754"><ele>124.000</ele></trkpt>
      <trkpt lat="22.2414754047" lon="113.9607699572"><ele>124.000</ele></trkpt>
      <trkpt lat="22.2414933318" lon="113.9607750632"><ele>120.000</ele></trkpt>
      <trkpt lat="22.2415208229" lon="113.9607852872"><ele>120.000</ele></trkpt>
      <trkpt lat="22.2415921050" lon="113.9608157886"><ele>116.000</ele></trkpt>
      <trkpt lat="22.2417598949" lon="113.9608875855"><ele>127.000</ele></trkpt>
      <trkpt lat="22.2417921838" lon="113.9609119184"><ele>125.000</ele></trkpt>
      <trkpt lat="22.2418089340" lon="113.9609311426"><ele>121.000</ele></trkpt>
      <trkpt lat="22.2418304625" lon="113.9609490760"><ele>128.000</ele></trkpt>
      <trkpt lat="22.2418519858" lon="113.9609631593"><ele>125.000</ele></trkpt>
      <trkpt lat="22.2418938233" lon="113.9609810616"><ele>125.000</ele></trkpt>
      <trkpt lat="22.2419034377" lon="113.9609854704"><ele>126.000</ele></trkpt>
      <trkpt lat="22.2420695480" lon="113.9610616410"><ele>118.000</ele></trkpt>
      <trkpt lat="22.2421174534" lon="113.9610810675"><ele>123.000</ele></trkpt>
      <trkpt lat="22.2422864261" lon="113.9611495892"><ele>126.000</ele></trkpt>
      <trkpt lat="22.2423241558" lon="113.9611677657"><ele>126.000</ele></trkpt>
      <trkpt lat="22.2423564463" lon="113.9611933821"><ele>127.000</ele></trkpt>
      <trkpt lat="22.2423887410" lon="113.9612228497"><ele>127.000</ele></trkpt>
      <trkpt lat="22.2424262519" lon="113.9612687508"><ele>127.000</ele></trkpt>
      <trkpt lat="22.2424738087" lon="113.9614075161"><ele>130.000</ele></trkpt>
      <trkpt lat="22.2425193782" lon="113.9615370612"><ele>132.000</ele></trkpt>
      <trkpt lat="22.2425326056" lon="113.9616027258"><ele>132.000</ele></trkpt>
      <trkpt lat="22.2425314675" lon="113.9616448408"><ele>130.000</ele></trkpt>
      <trkpt lat="22.2425279308" lon="113.9616807793"><ele>130.000</ele></trkpt>
      <trkpt lat="22.2425196143" lon="113.9617154416"><ele>130.000</ele></trkpt>
      <trkpt lat="22.2424957949" lon="113.9617719433"><ele>130.000</ele></trkpt>
      <trkpt lat="22.2424612856" lon="113.9618746614"><ele>129.000</ele></trkpt>
      <trkpt lat="22.2424517921" lon="113.9619234408"><ele>128.000</ele></trkpt>
      <trkpt lat="22.2424494636" lon="113.9619696445"><ele>126.000</ele></trkpt>
      <trkpt lat="22.2424578795" lon="113.9620094139"><ele>128.000</ele></trkpt>
      <trkpt lat="22.2424746542" lon="113.9620466047"><ele>128.000</ele></trkpt>
      <trkpt lat="22.2425021876" lon="113.9620889117"><ele>128.000</ele></trkpt>
      <trkpt lat="22.2425572086" lon="113.9621388772"><ele>128.000</ele></trkpt>
      <trkpt lat="22.2426240738" lon="113.9621761728"><ele>130.000</ele></trkpt>
      <trkpt lat="22.2427843653" lon="113.9622655793"><ele>131.000</ele></trkpt>
      <trkpt lat="22.2428489519" lon="113.9623219465"><ele>129.000</ele></trkpt>
      <trkpt lat="22.2429123530" lon="113.9623847324"><ele>128.000</ele></trkpt>
      <trkpt lat="22.2429590251" lon="113.9624449780"><ele>131.000</ele></trkpt>
      <trkpt lat="22.2430032881" lon="113.9625095030"><ele>128.000</ele></trkpt>
      <trkpt lat="22.2431104305" lon="113.9626656915"><ele>130.000</ele></trkpt>
      <trkpt lat="22.2432175728" lon="113.9628218803"><ele>128.000</ele></trkpt>
      <trkpt lat="22.2432692490" lon="113.9629071260"><ele>126.000</ele></trkpt>
      <trkpt lat="22.2432799496" lon="113.9629394886"><ele>123.000</ele></trkpt>
      <trkpt lat="22.2432853627" lon="113.9629670720"><ele>123.000</ele></trkpt>
      <trkpt lat="22.2432836140" lon="113.9630004411"><ele>126.000</ele></trkpt>
      <trkpt lat="22.2432764869" lon="113.9630312515"><ele>132.000</ele></trkpt>
      <trkpt lat="22.2432645960" lon="113.9630736188"><ele>134.000</ele></trkpt>
      <trkpt lat="22.2432300648" lon="113.9631609374"><ele>132.000</ele></trkpt>
      <trkpt lat="22.2431943438" lon="113.9632521069"><ele>122.000</ele></trkpt>
      <trkpt lat="22.2431693527" lon="113.9633259358"><ele>119.000</ele></trkpt>
      <trkpt lat="22.2431407799" lon="113.9634016947"><ele>125.000</ele></trkpt>
      <trkpt lat="22.2431271065" lon="113.9634517649"><ele>128.000</ele></trkpt>
      <trkpt lat="22.2431211824" lon="113.9634889905"><ele>126.000</ele></trkpt>
      <trkpt lat="22.2431230187" lon="113.9635229953"><ele>125.000</ele></trkpt>
      <trkpt lat="22.2431290455" lon="113.9635634107"><ele>124.000</ele></trkpt>
      <trkpt lat="22.2431410367" lon="113.9635974002"><ele>124.000</ele></trkpt>
      <trkpt lat="22.2431542159" lon="113.9636262552"><ele>123.000</ele></trkpt>
      <trkpt lat="22.2431739616" lon="113.9636518914"><ele>118.000</ele></trkpt>
      <trkpt lat="22.2432212293" lon="113.9637114944"><ele>118.000</ele></trkpt>
      <trkpt lat="22.2432481612" lon="113.9637505949"><ele>118.000</ele></trkpt>
      <trkpt lat="22.2432786865" lon="113.9637967482"><ele>118.000</ele></trkpt>
      <trkpt lat="22.2433211844" lon="113.9638634168"><ele>119.000</ele></trkpt>
      <trkpt lat="22.2433576977" lon="113.9639211107"><ele>120.000</ele></trkpt>
      <trkpt lat="22.2433876419" lon="113.9639800989"><ele>120.000</ele></trkpt>
      <trkpt lat="22.2434020427" lon="113.9640294846"><ele>120.000</ele></trkpt>
      <trkpt lat="22.2434110826" lon="113.9640904291"><ele>118.000</ele></trkpt>
      <trkpt lat="22.2434135594" lon="113.9641571582"><ele>118.000</ele></trkpt>
      <trkpt lat="22.2434023281" lon="113.9642476485"><ele>120.000</ele></trkpt>
      <trkpt lat="22.2433863068" lon="113.9643291642"><ele>120.000</ele></trkpt>
      <trkpt lat="22.2433637115" lon="113.9644087641"><ele>118.000</ele></trkpt>
      <trkpt lat="22.2433404940" lon="113.9644684728"><ele>121.000</ele></trkpt>
      <trkpt lat="22.2433011311" lon="113.9645160160"><ele>121.000</ele></trkpt>
      <trkpt lat="22.2432486092" lon="113.9645501027"><ele>130.000</ele></trkpt>
      <trkpt lat="22.2431859115" lon="113.9645675216"><ele>130.000</ele></trkpt>
      <trkpt lat="22.2431435177" lon="113.9645804195"><ele>129.000</ele></trkpt>
      <trkpt lat="22.2431047157" lon="113.9645997269"><ele>128.000</ele></trkpt>
      <trkpt lat="22.2430790559" lon="113.9646196577"><ele>128.000</ele></trkpt>
      <trkpt lat="22.2430516195" lon="113.9646511398"><ele>126.000</ele></trkpt>
      <trkpt lat="22.2430206290" lon="113.9647057274"><ele>126.000</ele></trkpt>
      <trkpt lat="22.2430033776" lon="113.9647602943"><ele>126.000</ele></trkpt>
      <trkpt lat="22.2429950746" lon="113.9648065062"><ele>128.000</ele></trkpt>
      <trkpt lat="22.2429927605" lon="113.9648636174"><ele>125.000</ele></trkpt>
      <trkpt lat="22.2429958531" lon="113.9649451040"><ele>122.000</ele></trkpt>
      <trkpt lat="22.2429977317" lon="113.9650118329"><ele>122.000</ele></trkpt>
      <trkpt lat="22.2429935907" lon="113.9650426387"><ele>122.000</ele></trkpt>
      <trkpt lat="22.2429757531" lon="113.9651061902"><ele>120.000</ele></trkpt>
      <trkpt lat="22.2429549198" lon="113.9651626870"><ele>122.000</ele></trkpt>
      <trkpt lat="22.2429299371" lon="113.9652435736"><ele>124.000</ele></trkpt>
      <trkpt lat="22.2429132774" lon="113.9652942903"><ele>120.000</ele></trkpt>
      <trkpt lat="22.2428990031" lon="113.9653417944"><ele>120.000</ele></trkpt>
      <trkpt lat="22.2428906916" lon="113.9653815892"><ele>119.000</ele></trkpt>
      <trkpt lat="22.2428865480" lon="113.9654104704"><ele>119.000</ele></trkpt>
      <trkpt lat="22.2428865830" lon="113.9654374197"><ele>119.000</ele></trkpt>
      <trkpt lat="22.2428896070" lon="113.9654656479"><ele>121.000</ele></trkpt>
      <trkpt lat="22.2429081927" lon="113.9655182363"><ele>120.000</ele></trkpt>
      <trkpt lat="22.2429219702" lon="113.9655483739"><ele>121.000</ele></trkpt>
      <trkpt lat="22.2429453073" lon="113.9655797797"><ele>120.000</ele></trkpt>
      <trkpt lat="22.2429812114" lon="113.9656284920"><ele>124.000</ele></trkpt>
      <trkpt lat="22.2430129184" lon="113.9656656610"><ele>126.000</ele></trkpt>
      <trkpt lat="22.2430404483" lon="113.9657060443"><ele>128.000</ele></trkpt>
      <trkpt lat="22.2430572147" lon="113.9657374600"><ele>127.000</ele></trkpt>
      <trkpt lat="22.2430751842" lon="113.9657752908"><ele>127.000</ele></trkpt>
      <trkpt lat="22.2430859777" lon="113.9658073576"><ele>126.000</ele></trkpt>
      <trkpt lat="22.2430925826" lon="113.9658336559"><ele>128.000</ele></trkpt>
      <trkpt lat="22.2431021847" lon="113.9658676501"><ele>128.000</ele></trkpt>
      <trkpt lat="22.2431057980" lon="113.9658907439"><ele>128.000</ele></trkpt>
      <trkpt lat="22.2431195938" lon="113.9659343558"><ele>126.000</ele></trkpt>
      <trkpt lat="22.2431339790" lon="113.9659721921"><ele>125.000</ele></trkpt>
      <trkpt lat="22.2431465492" lon="113.9659920655"><ele>124.000</ele></trkpt>
      <trkpt lat="22.2431764603" lon="113.9660260283"><ele>123.000</ele></trkpt>
      <trkpt lat="22.2432069633" lon="113.9660561411"><ele>123.000</ele></trkpt>
      <trkpt lat="22.2432500132" lon="113.9660881597"><ele>125.000</ele></trkpt>
      <trkpt lat="22.2432691424" lon="113.9660990395"><ele>122.000</ele></trkpt>
      <trkpt lat="22.2432882708" lon="113.9661092771"><ele>122.000</ele></trkpt>
      <trkpt lat="22.2433091859" lon="113.9661156618"><ele>120.000</ele></trkpt>
      <trkpt lat="22.2433378664" lon="113.9661220359"><ele>125.000</ele></trkpt>
      <trkpt lat="22.2433653489" lon="113.9661258450"><ele>123.000</ele></trkpt>
      <trkpt lat="22.2433916274" lon="113.9661225977"><ele>123.000</ele></trkpt>
      <trkpt lat="22.2434626952" lon="113.9661102996"><ele>124.000</ele></trkpt>
      <trkpt lat="22.2435713871" lon="113.9660915283"><ele>128.000</ele></trkpt>
      <trkpt lat="22.2436119951" lon="113.9660831259"><ele>127.000</ele></trkpt>
      <trkpt lat="22.2436334938" lon="113.9660792445"><ele>126.000</ele></trkpt>
      <trkpt lat="22.2436538053" lon="113.9660804966"><ele>126.000</ele></trkpt>
      <trkpt lat="22.2436699406" lon="113.9660862482"><ele>128.000</ele></trkpt>
      <trkpt lat="22.2436950469" lon="113.9660996849"><ele>128.000</ele></trkpt>
      <trkpt lat="22.2437177603" lon="113.9661112016"><ele>128.000</ele></trkpt>
      <trkpt lat="22.2437518276" lon="113.9661259083"><ele>129.000</ele></trkpt>
      <trkpt lat="22.2437775200" lon="113.9661310035"><ele>130.000</ele></trkpt>
      <trkpt lat="22.2438044039" lon="113.9661335301"><ele>129.000</ele></trkpt>
      <trkpt lat="22.2438276993" lon="113.9661334953"><ele>129.000</ele></trkpt>
      <trkpt lat="22.2438844401" lon="113.9661282768"><ele>129.000</ele></trkpt>
      <trkpt lat="22.2439149090" lon="113.9661314393"><ele>130.000</ele></trkpt>
      <trkpt lat="22.2439507547" lon="113.9661358780"><ele>130.000</ele></trkpt>
      <trkpt lat="22.2439782446" lon="113.9661454620"><ele>130.000</ele></trkpt>
      <trkpt lat="22.2440099274" lon="113.9661633803"><ele>129.000</ele></trkpt>
      <trkpt lat="22.2440320547" lon="113.9661832396"><ele>128.000</ele></trkpt>
      <trkpt lat="22.2440589743" lon="113.9662133569"><ele>128.000</ele></trkpt>
      <trkpt lat="22.2441080261" lon="113.9662678250"><ele>126.000</ele></trkpt>
      <trkpt lat="22.2441319568" lon="113.9662960232"><ele>121.000</ele></trkpt>
      <trkpt lat="22.2441445269" lon="113.9663165369"><ele>120.000</ele></trkpt>
      <trkpt lat="22.2441523181" lon="113.9663364166"><ele>120.000</ele></trkpt>
      <trkpt lat="22.2441607162" lon="113.9663633547"><ele>122.000</ele></trkpt>
      <trkpt lat="22.2441763318" lon="113.9664287812"><ele>127.000</ele></trkpt>
      <trkpt lat="22.2441961368" lon="113.9665006175"><ele>128.000</ele></trkpt>
      <trkpt lat="22.2442063532" lon="113.9665480855"><ele>122.000</ele></trkpt>
      <trkpt lat="22.2442153540" lon="113.9665795140"><ele>123.000</ele></trkpt>
      <trkpt lat="22.2442243441" lon="113.9666026000"><ele>123.000</ele></trkpt>
      <trkpt lat="22.2442363106" lon="113.9666179821"><ele>130.000</ele></trkpt>
      <trkpt lat="22.2442524574" lon="113.9666327167"><ele>124.000</ele></trkpt>
      <trkpt lat="22.2442811661" lon="113.9666609069"><ele>126.000</ele></trkpt>
      <trkpt lat="22.2443104718" lon="113.9666884550"><ele>119.000</ele></trkpt>
      <trkpt lat="22.2443439586" lon="113.9667166381"><ele>118.000</ele></trkpt>
      <trkpt lat="22.2443738604" lon="113.9667435431"><ele>118.000</ele></trkpt>
      <trkpt lat="22.2444073556" lon="113.9667775020"><ele>120.000</ele></trkpt>
      <trkpt lat="22.2444247129" lon="113.9668044258"><ele>123.000</ele></trkpt>
      <trkpt lat="22.2444402761" lon="113.9668294276"><ele>120.000</ele></trkpt>
      <trkpt lat="22.2444486717" lon="113.9668544401"><ele>120.000</ele></trkpt>
      <trkpt lat="22.2444522990" lon="113.9668878014"><ele>120.000</ele></trkpt>
      <trkpt lat="22.2444541329" lon="113.9669205232"><ele>120.000</ele></trkpt>
      <trkpt lat="22.2444541735" lon="113.9669519652"><ele>122.000</ele></trkpt>
      <trkpt lat="22.2444542133" lon="113.9669827650"><ele>122.000</ele></trkpt>
      <trkpt lat="22.2444542555" lon="113.9670154895"><ele>120.000</ele></trkpt>
      <trkpt lat="22.2444525135" lon="113.9670539924"><ele>118.000</ele></trkpt>
      <trkpt lat="22.2444521716" lon="113.9670619912"><ele>118.000</ele></trkpt>
      <trkpt lat="22.2444514015" lon="113.9670663247"><ele>118.000</ele></trkpt>
      <trkpt lat="22.2444497016" lon="113.9670709923"><ele>118.000</ele></trkpt>
      <trkpt lat="22.2444476888" lon="113.9670738270"><ele>118.000</ele></trkpt>
      <trkpt lat="22.2444462939" lon="113.9670748292"><ele>118.000</ele></trkpt>
      <trkpt lat="22.2444450112" lon="113.9670752599"><ele>118.000</ele></trkpt>
      <trkpt lat="22.2443588245" lon="113.9670856021"><ele>122.000</ele></trkpt>
      <trkpt lat="22.2443522679" lon="113.9670874249"><ele>122.000</ele></trkpt>
      <trkpt lat="22.2443456640" lon="113.9670890393"><ele>122.000</ele></trkpt>
      <trkpt lat="22.2443390184" lon="113.9670904441"><ele>121.000</ele></trkpt>
      <trkpt lat="22.2443323373" lon="113.9670916385"><ele>121.000</ele></trkpt>
      <trkpt lat="22.2443256270" lon="113.9670926205"><ele>121.000</ele></trkpt>
      <trkpt lat="22.2443188920" lon="113.9670933911"><ele>121.000</ele></trkpt>
      <trkpt lat="22.2443121396" lon="113.9670939483"><ele>121.000</ele></trkpt>
      <trkpt lat="22.2443053743" lon="113.9670942911"><ele>121.000</ele></trkpt>
      <trkpt lat="22.2442986024" lon="113.9670944205"><ele>121.000</ele></trkpt>
      <trkpt lat="22.2442918302" lon="113.9670943365"><ele>121.000</ele></trkpt>
      <trkpt lat="22.2442850632" lon="113.9670940371"><ele>121.000</ele></trkpt>
      <trkpt lat="22.2442783076" lon="113.9670935252"><ele>121.000</ele></trkpt>
      <trkpt lat="22.2442715689" lon="113.9670927999"><ele>121.000</ele></trkpt>
      <trkpt lat="22.2442648525" lon="113.9670918612"><ele>121.000</ele></trkpt>
      <trkpt lat="22.2442582652" lon="113.9670901909"><ele>122.000</ele></trkpt>
      <trkpt lat="22.2442515355" lon="113.9670894054"><ele>122.000</ele></trkpt>
      <trkpt lat="22.2442447681" lon="113.9670895174"><ele>122.000</ele></trkpt>
      <trkpt lat="22.2442380651" lon="113.9670905255"><ele>121.000</ele></trkpt>
      <trkpt lat="22.2442315284" lon="113.9670924143"><ele>121.000</ele></trkpt>
      <trkpt lat="22.2442253345" lon="113.9670953560"><ele>121.000</ele></trkpt>
      <trkpt lat="22.2442192873" lon="113.9670986313"><ele>121.000</ele></trkpt>
      <trkpt lat="22.2442134030" lon="113.9671022312"><ele>121.000</ele></trkpt>
      <trkpt lat="22.2442076953" lon="113.9671061482"><ele>121.000</ele></trkpt>
      <trkpt lat="22.2442021812" lon="113.9671103704"><ele>122.000</ele></trkpt>
      <trkpt lat="22.2441968725" lon="113.9671148881"><ele>122.000</ele></trkpt>
      <trkpt lat="22.2441917846" lon="113.9671196889"><ele>122.000</ele></trkpt>
      <trkpt lat="22.2441869299" lon="113.9671247608"><ele>122.000</ele></trkpt>
      <trkpt lat="22.2441823212" lon="113.9671300915"><ele>122.000</ele></trkpt>
      <trkpt lat="22.2441779693" lon="113.9671356652"><ele>122.000</ele></trkpt>
      <trkpt lat="22.2441738868" lon="113.9671414704"><ele>124.000</ele></trkpt>
      <trkpt lat="22.2441700837" lon="113.9671474895"><ele>124.000</ele></trkpt>
      <trkpt lat="22.2441665697" lon="113.9671537081"><ele>124.000</ele></trkpt>
      <trkpt lat="22.2441633541" lon="113.9671601105"><ele>124.000</ele></trkpt>
      <trkpt lat="22.2441604520" lon="113.9671666841"><ele>122.000</ele></trkpt>
      <trkpt lat="22.2441553324" lon="113.9671757115"><ele>122.000</ele></trkpt>
      <trkpt lat="22.2441450911" lon="113.9671962437"><ele>124.000</ele></trkpt>
      <trkpt lat="22.2441373416" lon="113.9672093610"><ele>124.000</ele></trkpt>
      <trkpt lat="22.2441325459" lon="113.9672160422"><ele>124.000</ele></trkpt>
      <trkpt lat="22.2441229915" lon="113.9672370682"><ele>124.000</ele></trkpt>
      <trkpt lat="22.2441207263" lon="113.9672452202"><ele>124.000</ele></trkpt>
      <trkpt lat="22.2441178114" lon="113.9672607748"><ele>124.000</ele></trkpt>
      <trkpt lat="22.2441173785" lon="113.9672681868"><ele>124.000</ele></trkpt>
      <trkpt lat="22.2441136073" lon="113.9672990504"><ele>124.000</ele></trkpt>
      <trkpt lat="22.2441146585" lon="113.9673298874"><ele>124.000</ele></trkpt>
      <trkpt lat="22.2441153827" lon="113.9673382678"><ele>124.000</ele></trkpt>
      <trkpt lat="22.2441175069" lon="113.9673538052"><ele>125.000</ele></trkpt>
      <trkpt lat="22.2441203777" lon="113.9673699255"><ele>125.000</ele></trkpt>
      <trkpt lat="22.2441211403" lon="113.9673835190"><ele>125.000</ele></trkpt>
      <trkpt lat="22.2441213591" lon="113.9673907893"><ele>125.000</ele></trkpt>
      <trkpt lat="22.2441219528" lon="113.9673980368"><ele>125.000</ele></trkpt>
      <trkpt lat="22.2441229175" lon="113.9674052372"><ele>125.000</ele></trkpt>
      <trkpt lat="22.2441242515" lon="113.9674123691"><ele>125.000</ele></trkpt>
      <trkpt lat="22.2441259511" lon="113.9674194103"><ele>125.000</ele></trkpt>
      <trkpt lat="22.2441280099" lon="113.9674263404"><ele>125.000</ele></trkpt>
      <trkpt lat="22.2441304235" lon="113.9674331379"><ele>124.000</ele></trkpt>
      <trkpt lat="22.2441331819" lon="113.9674397818"><ele>124.000</ele></trkpt>
      <trkpt lat="22.2441362787" lon="113.9674462504"><ele>124.000</ele></trkpt>
      <trkpt lat="22.2441397040" lon="113.9674525266"><ele>124.000</ele></trkpt>
      <trkpt lat="22.2441434469" lon="113.9674585888"><ele>124.000</ele></trkpt>
      <trkpt lat="22.2441474965" lon="113.9674644197"><ele>124.000</ele></trkpt>
      <trkpt lat="22.2441518393" lon="113.9674700009"><ele>124.000</ele></trkpt>
      <trkpt lat="22.2441564635" lon="113.9674753158"><ele>124.000</ele></trkpt>
      <trkpt lat="22.2441613538" lon="113.9674803481"><ele>124.000</ele></trkpt>
      <trkpt lat="22.2441664965" lon="113.9674850822"><ele>124.000</ele></trkpt>
      <trkpt lat="22.2441718745" lon="113.9674895036"><ele>124.000</ele></trkpt>
      <trkpt lat="22.2441774715" lon="113.9674935986"><ele>124.000</ele></trkpt>
      <trkpt lat="22.2442440966" lon="113.9675494875"><ele>125.000</ele></trkpt>
      <trkpt lat="22.2442480649" lon="113.9675560179"><ele>125.000</ele></trkpt>
      <trkpt lat="22.2442528658" lon="113.9675611318"><ele>126.000</ele></trkpt>
      <trkpt lat="22.2442585304" lon="113.9675650978"><ele>126.000</ele></trkpt>
      <trkpt lat="22.2442648246" lon="113.9675677503"><ele>126.000</ele></trkpt>
      <trkpt lat="22.2442714881" lon="113.9675689802"><ele>126.000</ele></trkpt>
      <trkpt lat="22.2442782454" lon="113.9675687373"><ele>126.000</ele></trkpt>
      <trkpt lat="22.2442848175" lon="113.9675670309"><ele>126.000</ele></trkpt>
      <trkpt lat="22.2442915114" lon="113.9675659209"><ele>126.000</ele></trkpt>
      <trkpt lat="22.2442982153" lon="113.9675648846"><ele>127.000</ele></trkpt>
      <trkpt lat="22.2443049283" lon="113.9675639210"><ele>127.000</ele></trkpt>
      <trkpt lat="22.2443116505" lon="113.9675630312"><ele>127.000</ele></trkpt>
      <trkpt lat="22.2443183809" lon="113.9675622151"><ele>127.000</ele></trkpt>
      <trkpt lat="22.2443251186" lon="113.9675614727"><ele>127.000</ele></trkpt>
      <trkpt lat="22.2443318627" lon="113.9675608040"><ele>127.000</ele></trkpt>
      <trkpt lat="22.2443386132" lon="113.9675602080"><ele>127.000</ele></trkpt>
      <trkpt lat="22.2443453684" lon="113.9675596867"><ele>128.000</ele></trkpt>
      <trkpt lat="22.2443521281" lon="113.9675592392"><ele>128.000</ele></trkpt>
      <trkpt lat="22.2443588925" lon="113.9675588664"><ele>128.000</ele></trkpt>
      <trkpt lat="22.2443656578" lon="113.9675585274"><ele>128.000</ele></trkpt>
      <trkpt lat="22.2443724259" lon="113.9675582322"><ele>128.000</ele></trkpt>
      <trkpt lat="22.2443791949" lon="113.9675579816"><ele>128.000</ele></trkpt>
      <trkpt lat="22.2443859649" lon="113.9675577756"><ele>128.000</ele></trkpt>
      <trkpt lat="22.2443927359" lon="113.9675576132"><ele>130.000</ele></trkpt>
      <trkpt lat="22.2443995078" lon="113.9675574945"><ele>130.000</ele></trkpt>
      <trkpt lat="22.2444062807" lon="113.9675574204"><ele>130.000</ele></trkpt>
      <trkpt lat="22.2444130536" lon="113.9675573909"><ele>130.000</ele></trkpt>
      <trkpt lat="22.2444198266" lon="113.9675574051"><ele>130.000</ele></trkpt>
      <trkpt lat="22.2444265997" lon="113.9675574639"><ele>130.000</ele></trkpt>
      <trkpt lat="22.2444332766" lon="113.9675586530"><ele>130.000</ele></trkpt>
      <trkpt lat="22.2444397660" lon="113.9675607213"><ele>130.000</ele></trkpt>
      <trkpt lat="22.2444459666" lon="113.9675636349"><ele>130.000</ele></trkpt>
      <trkpt lat="22.2444517853" lon="113.9675673514"><ele>130.000</ele></trkpt>
      <trkpt lat="22.2444571299" lon="113.9675718116"><ele>130.000</ele></trkpt>
      <trkpt lat="22.2444619210" lon="113.9675769478"><ele>130.000</ele></trkpt>
      <trkpt lat="22.2444660834" lon="113.9675826816"><ele>130.000</ele></trkpt>
      <trkpt lat="22.2444702289" lon="113.9675879905"><ele>130.000</ele></trkpt>
      <trkpt lat="22.2444723245" lon="113.9675953890"><ele>130.000</ele></trkpt>
      <trkpt lat="22.2444712428" lon="113.9676109312"><ele>130.000</ele></trkpt>
      <trkpt lat="22.2444656002" lon="113.9676331737"><ele>130.000</ele></trkpt>
      <trkpt lat="22.2444654026" lon="113.9676410704"><ele>130.000</ele></trkpt>
      <trkpt lat="22.2444659187" lon="113.9676561155"><ele>130.000</ele></trkpt>
      <trkpt lat="22.2444715285" lon="113.9676785450"><ele>130.000</ele></trkpt>
      <trkpt lat="22.2444749961" lon="113.9676854371"><ele>130.000</ele></trkpt>
      <trkpt lat="22.2444830853" lon="113.9676977354"><ele>132.000</ele></trkpt>
      <trkpt lat="22.2444879336" lon="113.9677038785"><ele>132.000</ele></trkpt>
      <trkpt lat="22.2444937040" lon="113.9677107574"><ele>132.000</ele></trkpt>
      <trkpt lat="22.2445096104" lon="113.9677274676"><ele>132.000</ele></trkpt>
      <trkpt lat="22.2445190706" lon="113.9677385221"><ele>132.000</ele></trkpt>
      <trkpt lat="22.2445246040" lon="113.9677436747"><ele>134.000</ele></trkpt>
      <trkpt lat="22.2445386772" lon="113.9677603877"><ele>134.000</ele></trkpt>
      <trkpt lat="22.2445423786" lon="113.9677665421"><ele>134.000</ele></trkpt>
      <trkpt lat="22.2445516134" lon="113.9677778492"><ele>134.000</ele></trkpt>
      <trkpt lat="22.2445608498" lon="113.9677903883"><ele>134.000</ele></trkpt>
      <trkpt lat="22.2445643168" lon="113.9677967856"><ele>134.000</ele></trkpt>
      <trkpt lat="22.2445703245" lon="113.9678056335"><ele>137.000</ele></trkpt>
      <trkpt lat="22.2445752010" lon="113.9678196827"><ele>137.000</ele></trkpt>
      <trkpt lat="22.2445834064" lon="113.9678591235"><ele>137.000</ele></trkpt>
      <trkpt lat="22.2445919039" lon="113.9679150940"><ele>137.000</ele></trkpt>
      <trkpt lat="22.2445968174" lon="113.9679367873"><ele>137.000</ele></trkpt>
      <trkpt lat="22.2445975403" lon="113.9679441782"><ele>137.000</ele></trkpt>
      <trkpt lat="22.2445973427" lon="113.9679520846"><ele>137.000</ele></trkpt>
      <trkpt lat="22.2445962237" lon="113.9679597305"><ele>137.000</ele></trkpt>
      <trkpt lat="22.2445944181" lon="113.9679671445"><ele>135.000</ele></trkpt>
      <trkpt lat="22.2445842154" lon="113.9679968052"><ele>135.000</ele></trkpt>
      <trkpt lat="22.2445687569" lon="113.9680334000"><ele>134.000</ele></trkpt>
      <trkpt lat="22.2445585057" lon="113.9680534375"><ele>134.000</ele></trkpt>
      <trkpt lat="22.2445498727" lon="113.9680747047"><ele>139.000</ele></trkpt>
      <trkpt lat="22.2445391610" lon="113.9680947429"><ele>139.000</ele></trkpt>
      <trkpt lat="22.2445332447" lon="113.9681078477"><ele>139.000</ele></trkpt>
      <trkpt lat="22.2445305260" lon="113.9681145258"><ele>142.000</ele></trkpt>
      <trkpt lat="22.2445097591" lon="113.9681454729"><ele>139.000</ele></trkpt>
      <trkpt lat="22.2445065705" lon="113.9681518995"><ele>139.000</ele></trkpt>
      <trkpt lat="22.2444981356" lon="113.9681657550"><ele>141.000</ele></trkpt>
      <trkpt lat="22.2444915340" lon="113.9681796077"><ele>141.000</ele></trkpt>
      <trkpt lat="22.2444871979" lon="113.9681855510"><ele>141.000</ele></trkpt>
      <trkpt lat="22.2444817052" lon="113.9681910110"><ele>141.000</ele></trkpt>
      <trkpt lat="22.2444723460" lon="113.9682024038"><ele>138.000</ele></trkpt>
      <trkpt lat="22.2444657337" lon="113.9682150246"><ele>138.000</ele></trkpt>
      <trkpt lat="22.2444611719" lon="113.9682209682"><ele>138.000</ele></trkpt>
      <trkpt lat="22.2444559143" lon="113.9682266606"><ele>138.000</ele></trkpt>
      <trkpt lat="22.2444447007" lon="113.9682356019"><ele>138.000</ele></trkpt>
      <trkpt lat="22.2444389820" lon="113.9682408100"><ele>138.000</ele></trkpt>
      <trkpt lat="22.2444236693" lon="113.9682574209"><ele>135.000</ele></trkpt>
      <trkpt lat="22.2444152331" lon="113.9682702869"><ele>135.000</ele></trkpt>
      <trkpt lat="22.2444124951" lon="113.9682759756"><ele>135.000</ele></trkpt>
      <trkpt lat="22.2444038238" lon="113.9682886091"><ele>135.000</ele></trkpt>
      <trkpt lat="22.2443844117" lon="113.9683126375"><ele>130.000</ele></trkpt>
      <trkpt lat="22.2443718652" lon="113.9683314464"><ele>130.000</ele></trkpt>
      <trkpt lat="22.2443650284" lon="113.9683450570"><ele>130.000</ele></trkpt>
      <trkpt lat="22.2443620752" lon="113.9683519780"><ele>130.000</ele></trkpt>
      <trkpt lat="22.2443543520" lon="113.9683715073"><ele>130.000</ele></trkpt>
      <trkpt lat="22.2443500443" lon="113.9683855991"><ele>130.000</ele></trkpt>
      <trkpt lat="22.2443468651" lon="113.9683922780"><ele>130.000</ele></trkpt>
      <trkpt lat="22.2443355049" lon="113.9684207082"><ele>132.000</ele></trkpt>
      <trkpt lat="22.2443341473" lon="113.9684254054"><ele>132.000</ele></trkpt>
      <trkpt lat="22.2443341751" lon="113.9684330496"><ele>132.000</ele></trkpt>
      <trkpt lat="22.2443355844" lon="113.9684404491"><ele>132.000</ele></trkpt>
      <trkpt lat="22.2443388265" lon="113.9684475841"><ele>132.000</ele></trkpt>
      <trkpt lat="22.2443476013" lon="113.9684593866"><ele>132.000</ele></trkpt>
      <trkpt lat="22.2443522139" lon="113.9684647928"><ele>132.000</ele></trkpt>
      <trkpt lat="22.2443745339" lon="113.9684760321"><ele>132.000</ele></trkpt>
      <trkpt lat="22.2444002956" lon="113.9684880035"><ele>134.000</ele></trkpt>
      <trkpt lat="22.2444127312" lon="113.9684953480"><ele>134.000</ele></trkpt>
      <trkpt lat="22.2444196259" lon="113.9684987621"><ele>133.000</ele></trkpt>
      <trkpt lat="22.2444256183" lon="113.9685026821"><ele>133.000</ele></trkpt>
      <trkpt lat="22.2444384951" lon="113.9685090364"><ele>134.000</ele></trkpt>
      <trkpt lat="22.2444502353" lon="113.9685163819"><ele>134.000</ele></trkpt>
      <trkpt lat="22.2444603806" lon="113.9685264557"><ele>134.000</ele></trkpt>
      <trkpt lat="22.2444728190" lon="113.9685360120"><ele>134.000</ele></trkpt>
      <trkpt lat="22.2444854809" lon="113.9685438509"><ele>137.000</ele></trkpt>
      <trkpt lat="22.2444983674" lon="113.9685507000"><ele>138.000</ele></trkpt>
      <trkpt lat="22.2445048115" lon="113.9685548617"><ele>138.000</ele></trkpt>
      <trkpt lat="22.2445165633" lon="113.9685641765"><ele>138.000</ele></trkpt>
      <trkpt lat="22.2445202535" lon="113.9685686043"><ele>138.000</ele></trkpt>
      <trkpt lat="22.2445262467" lon="113.9685732615"><ele>140.000</ele></trkpt>
      <trkpt lat="22.2445387252" lon="113.9685929453"><ele>140.000</ele></trkpt>
      <trkpt lat="22.2445433381" lon="113.9685985940"><ele>140.000</ele></trkpt>
      <trkpt lat="22.2445488711" lon="113.9686035041"><ele>140.000</ele></trkpt>
      <trkpt lat="22.2445790330" lon="113.9686243356"><ele>142.000</ele></trkpt>
      <trkpt lat="22.2445864002" lon="113.9686299705"><ele>142.000</ele></trkpt>
      <trkpt lat="22.2445928534" lon="113.9686341323"><ele>142.000</ele></trkpt>
      <trkpt lat="22.2445997478" lon="113.9686373137"><ele>142.000</ele></trkpt>
      <trkpt lat="22.2446261933" lon="113.9686472955"><ele>144.000</ele></trkpt>
      <trkpt lat="22.2446399890" lon="113.9686519218"><ele>144.000</ele></trkpt>
      <trkpt lat="22.2446468918" lon="113.9686545987"><ele>144.000</ele></trkpt>
      <trkpt lat="22.2446537956" lon="113.9686580226"><ele>144.000</ele></trkpt>
      <trkpt lat="22.2446590935" lon="113.9686626808"><ele>144.000</ele></trkpt>
      <trkpt lat="22.2446680935" lon="113.9686739883"><ele>146.000</ele></trkpt>
      <trkpt lat="22.2446734020" lon="113.9686798882"><ele>146.000</ele></trkpt>
      <trkpt lat="22.2446847211" lon="113.9686968575"><ele>145.000</ele></trkpt>
      <trkpt lat="22.2446872765" lon="113.9687037607"><ele>145.000</ele></trkpt>
      <trkpt lat="22.2446937589" lon="113.9687165561"><ele>145.000</ele></trkpt>
      <trkpt lat="22.2447013890" lon="113.9687300871"><ele>145.000</ele></trkpt>
      <trkpt lat="22.2447120624" lon="113.9687576798"><ele>145.000</ele></trkpt>
      <trkpt lat="22.2447215717" lon="113.9687788522"><ele>145.000</ele></trkpt>
      <trkpt lat="22.2447430616" lon="113.9688118128"><ele>142.000</ele></trkpt>
      <trkpt lat="22.2447467543" lon="113.9688182098"><ele>142.000</ele></trkpt>
      <trkpt lat="22.2447625117" lon="113.9688526825"><ele>140.000</ele></trkpt>
      <trkpt lat="22.2447699157" lon="113.9688659713"><ele>140.000</ele></trkpt>
      <trkpt lat="22.2447724581" lon="113.9688696539"><ele>140.000</ele></trkpt>
      <trkpt lat="22.2447816925" lon="113.9688807185"><ele>140.000</ele></trkpt>
      <trkpt lat="22.2447969115" lon="113.9688966830"><ele>142.000</ele></trkpt>
      <trkpt lat="22.2448054624" lon="113.9689099701"><ele>142.000</ele></trkpt>
      <trkpt lat="22.2448124065" lon="113.9689237544"><ele>142.000</ele></trkpt>
      <trkpt lat="22.2448142669" lon="113.9689309011"><ele>142.000</ele></trkpt>
      <trkpt lat="22.2448143035" lon="113.9689383027"><ele>140.000</ele></trkpt>
      <trkpt lat="22.2448131698" lon="113.9689415153"><ele>140.000</ele></trkpt>
      <trkpt lat="22.2448143445" lon="113.9689491578"><ele>140.000</ele></trkpt>
      <trkpt lat="22.2448130638" lon="113.9689716170"><ele>140.000</ele></trkpt>
      <trkpt lat="22.2448089909" lon="113.9689856989"><ele>140.000</ele></trkpt>
      <trkpt lat="22.2448071855" lon="113.9689933651"><ele>140.000</ele></trkpt>
      <trkpt lat="22.2448060662" lon="113.9690007685"><ele>140.000</ele></trkpt>
      <trkpt lat="22.2447990789" lon="113.9690309094"><ele>142.000</ele></trkpt>
      <trkpt lat="22.2447932016" lon="113.9690533947"><ele>139.000</ele></trkpt>
      <trkpt lat="22.2447884811" lon="113.9690766059"><ele>139.000</ele></trkpt>
      <trkpt lat="22.2447846346" lon="113.9690911822"><ele>139.000</ele></trkpt>
      <trkpt lat="22.2447839758" lon="113.9690985946"><ele>139.000</ele></trkpt>
      <trkpt lat="22.2447842384" lon="113.9691062384"><ele>139.000</ele></trkpt>
      <trkpt lat="22.2447826685" lon="113.9691143893"><ele>139.000</ele></trkpt>
      <trkpt lat="22.2447820378" lon="113.9691296884"><ele>141.000</ele></trkpt>
      <trkpt lat="22.2447797700" lon="113.9691358711"><ele>141.000</ele></trkpt>
      <trkpt lat="22.2447811792" lon="113.9691432707"><ele>141.000</ele></trkpt>
      <trkpt lat="22.2447801620" lon="113.9691741207"><ele>141.000</ele></trkpt>
      <trkpt lat="22.2447736647" lon="113.9692131371"><ele>141.000</ele></trkpt>
      <trkpt lat="22.2447712383" lon="113.9692365874"><ele>141.000</ele></trkpt>
      <trkpt lat="22.2447647018" lon="113.9692662329"><ele>141.000</ele></trkpt>
      <trkpt lat="22.2447585994" lon="113.9692892133"><ele>142.000</ele></trkpt>
      <trkpt lat="22.2447579406" lon="113.9692966160"><ele>142.000</ele></trkpt>
      <trkpt lat="22.2447565954" lon="113.9693040294"><ele>142.000</ele></trkpt>
      <trkpt lat="22.2447547897" lon="113.9693114337"><ele>142.000</ele></trkpt>
      <trkpt lat="22.2447480000" lon="113.9693336779"><ele>140.000</ele></trkpt>
      <trkpt lat="22.2447466836" lon="113.9693494727"><ele>140.000</ele></trkpt>
      <trkpt lat="22.2447467477" lon="113.9693642857"><ele>140.000</ele></trkpt>
      <trkpt lat="22.2447477344" lon="113.9693803196"><ele>140.000</ele></trkpt>
      <trkpt lat="22.2447486836" lon="113.9693882049"><ele>140.000</ele></trkpt>
      <trkpt lat="22.2447566157" lon="113.9694190126"><ele>142.000</ele></trkpt>
      <trkpt lat="22.2447589457" lon="113.9694261586"><ele>142.000</ele></trkpt>
      <trkpt lat="22.2447603555" lon="113.9694340433"><ele>142.000</ele></trkpt>
      <trkpt lat="22.2447617932" lon="113.9694495818"><ele>142.000</ele></trkpt>
      <trkpt lat="22.2447692631" lon="113.9694791581"><ele>140.000</ele></trkpt>
      <trkpt lat="22.2447725045" lon="113.9694858081"><ele>140.000</ele></trkpt>
      <trkpt lat="22.2447764413" lon="113.9694924474"><ele>140.000</ele></trkpt>
      <trkpt lat="22.2447808290" lon="113.9694986009"><ele>140.000</ele></trkpt>
      <trkpt lat="22.2447886936" lon="113.9695118891"><ele>140.000</ele></trkpt>
      <trkpt lat="22.2448018573" lon="113.9695308250"><ele>142.000</ele></trkpt>
      <trkpt lat="22.2448046382" lon="113.9695374757"><ele>142.000</ele></trkpt>
      <trkpt lat="22.2448057995" lon="113.9695416647"><ele>142.000</ele></trkpt>
      <trkpt lat="22.2448008813" lon="113.9695727726"><ele>144.000</ele></trkpt>
      <trkpt lat="22.2447963859" lon="113.9695954984"><ele>142.000</ele></trkpt>
      <trkpt lat="22.2447925500" lon="113.9696113066"><ele>142.000</ele></trkpt>
      <trkpt lat="22.2447884774" lon="113.9696256407"><ele>146.000</ele></trkpt>
      <trkpt lat="22.2447839442" lon="113.9696399754"><ele>146.000</ele></trkpt>
      <trkpt lat="22.2447798441" lon="113.9696469078"><ele>146.000</ele></trkpt>
      <trkpt lat="22.2447702504" lon="113.9696585434"><ele>146.000</ele></trkpt>
      <trkpt lat="22.2447601851" lon="113.9696687149"><ele>147.000</ele></trkpt>
      <trkpt lat="22.2447485205" lon="113.9696781515"><ele>146.000</ele></trkpt>
      <trkpt lat="22.2447373081" lon="113.9696880725"><ele>146.000</ele></trkpt>
      <trkpt lat="22.2447311275" lon="113.9696922917"><ele>146.000</ele></trkpt>
      <trkpt lat="22.2447251736" lon="113.9696972575"><ele>146.000</ele></trkpt>
      <trkpt lat="22.2447148916" lon="113.9697074294"><ele>146.000</ele></trkpt>
      <trkpt lat="22.2446963527" lon="113.9697223182"><ele>146.000</ele></trkpt>
      <trkpt lat="22.2446839802" lon="113.9697290396"><ele>146.000</ele></trkpt>
      <trkpt lat="22.2446773369" lon="113.9697315425"><ele>146.000</ele></trkpt>
      <trkpt lat="22.2446706832" lon="113.9697330559"><ele>146.000</ele></trkpt>
      <trkpt lat="22.2446585203" lon="113.9697341020"><ele>144.000</ele></trkpt>
      <trkpt lat="22.2446518679" lon="113.9697366049"><ele>144.000</ele></trkpt>
      <trkpt lat="22.2446328524" lon="113.9697460717"><ele>144.000</ele></trkpt>
      <trkpt lat="22.2446266712" lon="113.9697498059"><ele>144.000</ele></trkpt>
      <trkpt lat="22.2446214133" lon="113.9697552557"><ele>144.000</ele></trkpt>
      <trkpt lat="22.2446170777" lon="113.9697616937"><ele>144.000</ele></trkpt>
      <trkpt lat="22.2446138891" lon="113.9697681203"><ele>143.000</ele></trkpt>
      <trkpt lat="22.2445515770" lon="113.9697839459"><ele>140.000</ele></trkpt>
      <trkpt lat="22.2443758102" lon="113.9698285857"><ele>134.000</ele></trkpt>
      <trkpt lat="22.2443503489" lon="113.9698181842"><ele>134.000</ele></trkpt>
      <trkpt lat="22.2441815324" lon="113.9697492184"><ele>124.000</ele></trkpt>
      <trkpt lat="22.2441407750" lon="113.9697617244"><ele>119.000</ele></trkpt>
      <trkpt lat="22.2441243968" lon="113.9697714201"><ele>119.000</ele></trkpt>
      <trkpt lat="22.2440995300" lon="113.9697884620"><ele>118.000</ele></trkpt>
      <trkpt lat="22.2440805345" lon="113.9698064751"><ele>118.000</ele></trkpt>
      <trkpt lat="22.2440553115" lon="113.9698345375"><ele>116.000</ele></trkpt>
      <trkpt lat="22.2440225829" lon="113.9698616409"><ele>116.000</ele></trkpt>
      <trkpt lat="22.2439851316" lon="113.9698890422"><ele>116.000</ele></trkpt>
      <trkpt lat="22.2439541110" lon="113.9699100219"><ele>116.000</ele></trkpt>
      <trkpt lat="22.2439196002" lon="113.9699134000"><ele>116.000</ele></trkpt>
      <trkpt lat="22.2438856295" lon="113.9699083279"><ele>116.000</ele></trkpt>
      <trkpt lat="22.2438580475" lon="113.9699135001"><ele>116.000</ele></trkpt>
      <trkpt lat="22.2438346553" lon="113.9699325284"><ele>115.000</ele></trkpt>
      <trkpt lat="22.2438191568" lon="113.9699594318"><ele>112.000</ele></trkpt>
      <trkpt lat="22.2438194709" lon="113.9699621253"><ele>112.000</ele></trkpt>
      <trkpt lat="22.2438219284" lon="113.9699659078"><ele>112.000</ele></trkpt>
      <trkpt lat="22.2438228235" lon="113.9699667602"><ele>112.000</ele></trkpt>
      <trkpt lat="22.2438309248" lon="113.9699744991"><ele>112.000</ele></trkpt>
      <trkpt lat="22.2438410735" lon="113.9699872795"><ele>112.000</ele></trkpt>
      <trkpt lat="22.2438500715" lon="113.9699971125"><ele>114.000</ele></trkpt>
      <trkpt lat="22.2438754595" lon="113.9700278265"><ele>110.000</ele></trkpt>
      <trkpt lat="22.2438856060" lon="113.9700388801"><ele>110.000</ele></trkpt>
      <trkpt lat="22.2439172165" lon="113.9700769769"><ele>108.000</ele></trkpt>
      <trkpt lat="22.2439269011" lon="113.9700870514"><ele>108.000</ele></trkpt>
      <trkpt lat="22.2439460471" lon="113.9701091604"><ele>109.000</ele></trkpt>
      <trkpt lat="22.2439635843" lon="113.9701303016"><ele>109.000</ele></trkpt>
      <trkpt lat="22.2439933713" lon="113.9701688959"><ele>108.000</ele></trkpt>
      <trkpt lat="22.2440028214" lon="113.9701792133"><ele>108.000</ele></trkpt>
      <trkpt lat="22.2440314006" lon="113.9702054797"><ele>108.000</ele></trkpt>
      <trkpt lat="22.2440599661" lon="113.9702280405"><ele>108.000</ele></trkpt>
      <trkpt lat="22.2440694022" lon="113.9702344098"><ele>108.000</ele></trkpt>
      <trkpt lat="22.2440788367" lon="113.9702395470"><ele>109.000</ele></trkpt>
      <trkpt lat="22.2441073885" lon="113.9702584119"><ele>108.000</ele></trkpt>
      <trkpt lat="22.2441168339" lon="113.9702650236"><ele>108.000</ele></trkpt>
      <trkpt lat="22.2441255846" lon="113.9702721408"><ele>109.000</ele></trkpt>
      <trkpt lat="22.2441359561" lon="113.9702826994"><ele>109.000</ele></trkpt>
      <trkpt lat="22.2441438075" lon="113.9702927767"><ele>108.000</ele></trkpt>
      <trkpt lat="22.2441549006" lon="113.9703097561"><ele>108.000</ele></trkpt>
      <trkpt lat="22.2441724900" lon="113.9703434695"><ele>108.000</ele></trkpt>
      <trkpt lat="22.2441771277" lon="113.9703545506"><ele>108.000</ele></trkpt>
      <trkpt lat="22.2441806074" lon="113.9703639164"><ele>108.000</ele></trkpt>
      <trkpt lat="22.2441880510" lon="113.9703870708"><ele>108.000</ele></trkpt>
      <trkpt lat="22.2441913023" lon="113.9703944580"><ele>108.000</ele></trkpt>
      <trkpt lat="22.2442061645" lon="113.9704353540"><ele>108.000</ele></trkpt>
      <trkpt lat="22.2442161241" lon="113.9704557788"><ele>108.000</ele></trkpt>
      <trkpt lat="22.2442279179" lon="113.9704769480"><ele>108.000</ele></trkpt>
      <trkpt lat="22.2442311708" lon="113.9704855672"><ele>108.000</ele></trkpt>
      <trkpt lat="22.2442429649" lon="113.9705069788"><ele>108.000</ele></trkpt>
      <trkpt lat="22.2442478269" lon="113.9705168276"><ele>108.000</ele></trkpt>
      <trkpt lat="22.2442538853" lon="113.9705372776"><ele>107.000</ele></trkpt>
      <trkpt lat="22.2442559945" lon="113.9705483722"><ele>107.000</ele></trkpt>
      <trkpt lat="22.2442564949" lon="113.9705583923"><ele>110.000</ele></trkpt>
      <trkpt lat="22.2442595282" lon="113.9705718525"><ele>110.000</ele></trkpt>
      <trkpt lat="22.2442595619" lon="113.9705913315"><ele>110.000</ele></trkpt>
      <trkpt lat="22.2442584500" lon="113.9706117823"><ele>110.000</ele></trkpt>
      <trkpt lat="22.2442575838" lon="113.9706480158"><ele>108.000</ele></trkpt>
      <trkpt lat="22.2442589958" lon="113.9706719164"><ele>108.000</ele></trkpt>
      <trkpt lat="22.2442601543" lon="113.9706810334"><ele>108.000</ele></trkpt>
      <trkpt lat="22.2442654681" lon="113.9707054230"><ele>108.000</ele></trkpt>
      <trkpt lat="22.2442726039" lon="113.9707209337"><ele>108.000</ele></trkpt>
      <trkpt lat="22.2442785832" lon="113.9707288117"><ele>106.000</ele></trkpt>
      <trkpt lat="22.2442852466" lon="113.9707349619"><ele>106.000</ele></trkpt>
      <trkpt lat="22.2442930559" lon="113.9707403635"><ele>106.000</ele></trkpt>
      <trkpt lat="22.2442997058" lon="113.9707430603"><ele>106.000</ele></trkpt>
      <trkpt lat="22.2443127862" lon="113.9707462424"><ele>106.000</ele></trkpt>
      <trkpt lat="22.2443196707" lon="113.9707486866"><ele>106.000</ele></trkpt>
      <trkpt lat="22.2443405629" lon="113.9707592395"><ele>106.000</ele></trkpt>
      <trkpt lat="22.2443465381" lon="113.9707639162"><ele>106.000</ele></trkpt>
      <trkpt lat="22.2443573359" lon="113.9707759682"><ele>106.000</ele></trkpt>
      <trkpt lat="22.2443642238" lon="113.9707811286"><ele>106.000</ele></trkpt>
      <trkpt lat="22.2443734058" lon="113.9707865282"><ele>106.000</ele></trkpt>
      <trkpt lat="22.2443809772" lon="113.9707894759"><ele>106.000</ele></trkpt>
      <trkpt lat="22.2443977339" lon="113.9707933801"><ele>106.000</ele></trkpt>
      <trkpt lat="22.2444156273" lon="113.9707963030"><ele>106.000</ele></trkpt>
      <trkpt lat="22.2444275602" lon="113.9707989921"><ele>106.000</ele></trkpt>
      <trkpt lat="22.2444358173" lon="113.9708014343"><ele>106.000</ele></trkpt>
      <trkpt lat="22.2444431608" lon="113.9708026556"><ele>105.000</ele></trkpt>
      <trkpt lat="22.2444509641" lon="113.9708033717"><ele>105.000</ele></trkpt>
      <trkpt lat="22.2444585315" lon="113.9708031181"><ele>105.000</ele></trkpt>
      <trkpt lat="22.2444619712" lon="113.9708023661"><ele>105.000</ele></trkpt>
      <trkpt lat="22.2444699994" lon="113.9708023544"><ele>105.000</ele></trkpt>
      <trkpt lat="22.2444826186" lon="113.9708050327"><ele>104.000</ele></trkpt>
      <trkpt lat="22.2444862869" lon="113.9708065116"><ele>104.000</ele></trkpt>
      <trkpt lat="22.2444924857" lon="113.9708094515"><ele>104.000</ele></trkpt>
      <trkpt lat="22.2444989239" lon="113.9708160969"><ele>104.000</ele></trkpt>
      <trkpt lat="22.2445090357" lon="113.9708283923"><ele>102.000</ele></trkpt>
      <trkpt lat="22.2445182271" lon="113.9708411936"><ele>102.000</ele></trkpt>
      <trkpt lat="22.2445258225" lon="113.9708559664"><ele>102.000</ele></trkpt>
      <trkpt lat="22.2445384751" lon="113.9708778717"><ele>104.000</ele></trkpt>
      <trkpt lat="22.2445453733" lon="113.9708911613"><ele>104.000</ele></trkpt>
      <trkpt lat="22.2445552740" lon="113.9709150495"><ele>104.000</ele></trkpt>
      <trkpt lat="22.2445637843" lon="113.9709320425"><ele>106.000</ele></trkpt>
      <trkpt lat="22.2445667837" lon="113.9709401673"><ele>106.000</ele></trkpt>
      <trkpt lat="22.2445693142" lon="113.9709487876"><ele>106.000</ele></trkpt>
      <trkpt lat="22.2445737072" lon="113.9709662814"><ele>110.000</ele></trkpt>
      <trkpt lat="22.2445815614" lon="113.9710071683"><ele>108.000</ele></trkpt>
      <trkpt lat="22.2445845852" lon="113.9710345200"><ele>106.000</ele></trkpt>
      <trkpt lat="22.2445910836" lon="113.9710815786"><ele>103.000</ele></trkpt>
      <trkpt lat="22.2445924924" lon="113.9711030250"><ele>103.000</ele></trkpt>
      <trkpt lat="22.2445936599" lon="113.9711121420"><ele>103.000</ele></trkpt>
      <trkpt lat="22.2445943743" lon="113.9711343169"><ele>100.000</ele></trkpt>
      <trkpt lat="22.2445962393" lon="113.9711523091"><ele>100.000</ele></trkpt>
      <trkpt lat="22.2445967304" lon="113.9711693138"><ele>98.000</ele></trkpt>
      <trkpt lat="22.2445990472" lon="113.9711875478"><ele>98.000</ele></trkpt>
      <trkpt lat="22.2446039029" lon="113.9712139074"><ele>96.000</ele></trkpt>
      <trkpt lat="22.2446075999" lon="113.9712309075"><ele>96.000</ele></trkpt>
      <trkpt lat="22.2446159068" lon="113.9712584843"><ele>96.000</ele></trkpt>
      <trkpt lat="22.2446230575" lon="113.9712858300"><ele>98.000</ele></trkpt>
      <trkpt lat="22.2446244592" lon="113.9713016014"><ele>98.000</ele></trkpt>
      <trkpt lat="22.2446237965" lon="113.9713203346"><ele>96.000</ele></trkpt>
      <trkpt lat="22.2446249914" lon="113.9713511424"><ele>96.000</ele></trkpt>
      <trkpt lat="22.2446245641" lon="113.9713703603"><ele>95.000</ele></trkpt>
      <trkpt lat="22.2446213932" lon="113.9713979733"><ele>95.000</ele></trkpt>
      <trkpt lat="22.2446186865" lon="113.9714285443"><ele>92.000</ele></trkpt>
      <trkpt lat="22.2446168660" lon="113.9714386455"><ele>90.000</ele></trkpt>
      <trkpt lat="22.2446130239" lon="113.9714711874"><ele>89.000</ele></trkpt>
      <trkpt lat="22.2446109681" lon="113.9714808039"><ele>89.000</ele></trkpt>
      <trkpt lat="22.2446043443" lon="113.9714988085"><ele>89.000</ele></trkpt>
      <trkpt lat="22.2446002285" lon="113.9715076907"><ele>88.000</ele></trkpt>
      <trkpt lat="22.2445949608" lon="113.9715126263"><ele>88.000</ele></trkpt>
      <trkpt lat="22.2445520997" lon="113.9715326820"><ele>86.000</ele></trkpt>
      <trkpt lat="22.2445328498" lon="113.9715425855"><ele>86.000</ele></trkpt>
      <trkpt lat="22.2445133705" lon="113.9715566702"><ele>84.000</ele></trkpt>
      <trkpt lat="22.2444753478" lon="113.9715895239"><ele>82.000</ele></trkpt>
      <trkpt lat="22.2444684730" lon="113.9715947141"><ele>82.000</ele></trkpt>
      <trkpt lat="22.2444606858" lon="113.9715996631"><ele>82.000</ele></trkpt>
      <trkpt lat="22.2444322715" lon="113.9716179613"><ele>79.000</ele></trkpt>
      <trkpt lat="22.2444109567" lon="113.9716303220"><ele>79.000</ele></trkpt>
      <trkpt lat="22.2443976624" lon="113.9716365111"><ele>79.000</ele></trkpt>
      <trkpt lat="22.2443774942" lon="113.9716486373"><ele>78.000</ele></trkpt>
      <trkpt lat="22.2443758893" lon="113.9716506089"><ele>76.000</ele></trkpt>
      <trkpt lat="22.2443726927" lon="113.9716580055"><ele>76.000</ele></trkpt>
      <trkpt lat="22.2443710943" lon="113.9716651573"><ele>76.000</ele></trkpt>
      <trkpt lat="22.2443706534" lon="113.9716735393"><ele>76.000</ele></trkpt>
      <trkpt lat="22.2443741456" lon="113.9717072929"><ele>74.000</ele></trkpt>
      <trkpt lat="22.2443769227" lon="113.9717252837"><ele>74.000</ele></trkpt>
      <trkpt lat="22.2443781010" lon="113.9717430246"><ele>74.000</ele></trkpt>
      <trkpt lat="22.2443778964" lon="113.9717597878"><ele>74.000</ele></trkpt>
      <trkpt lat="22.2443767594" lon="113.9717676762"><ele>74.000</ele></trkpt>
      <trkpt lat="22.2443722020" lon="113.9717844457"><ele>74.000</ele></trkpt>
      <trkpt lat="22.2443696822" lon="113.9717913466"><ele>74.000</ele></trkpt>
      <trkpt lat="22.2443632888" lon="113.9718059070"><ele>74.000</ele></trkpt>
      <trkpt lat="22.2443626105" lon="113.9718123105"><ele>74.000</ele></trkpt>
      <trkpt lat="22.2443642397" lon="113.9718295658"><ele>74.000</ele></trkpt>
      <trkpt lat="22.2443681652" lon="113.9718487773"><ele>74.000</ele></trkpt>
      <trkpt lat="22.2443723227" lon="113.9718657766"><ele>74.000</ele></trkpt>
      <trkpt lat="22.2443755587" lon="113.9718825251"><ele>74.000</ele></trkpt>
      <trkpt lat="22.2443794910" lon="113.9719000195"><ele>74.000</ele></trkpt>
      <trkpt lat="22.2443822571" lon="113.9719093767"><ele>74.000</ele></trkpt>
      <trkpt lat="22.2443965645" lon="113.9719689864"><ele>74.000</ele></trkpt>
      <trkpt lat="22.2443993301" lon="113.9719778586"><ele>74.000</ele></trkpt>
      <trkpt lat="22.2444023297" lon="113.9719862260"><ele>74.000</ele></trkpt>
      <trkpt lat="22.2444060155" lon="113.9719943595"><ele>72.000</ele></trkpt>
      <trkpt lat="22.2444267123" lon="113.9720290678"><ele>72.000</ele></trkpt>
      <trkpt lat="22.2444437277" lon="113.9720590960"><ele>74.000</ele></trkpt>
      <trkpt lat="22.2444589186" lon="113.9720888844"><ele>74.000</ele></trkpt>
      <trkpt lat="22.2444621335" lon="113.9720960291"><ele>74.000</ele></trkpt>
      <trkpt lat="22.2444734238" lon="113.9721263179"><ele>74.000</ele></trkpt>
      <trkpt lat="22.2444768747" lon="113.9721344421"><ele>74.000</ele></trkpt>
      <trkpt lat="22.2444798744" lon="113.9721428192"><ele>74.000</ele></trkpt>
      <trkpt lat="22.2444812570" lon="113.9721507039"><ele>74.000</ele></trkpt>
      <trkpt lat="22.2444831209" lon="113.9721679491"><ele>74.000</ele></trkpt>
      <trkpt lat="22.2444833753" lon="113.9721834797"><ele>72.000</ele></trkpt>
      <trkpt lat="22.2444829252" lon="113.9721918521"><ele>72.000</ele></trkpt>
      <trkpt lat="22.2444742824" lon="113.9722345091"><ele>72.000</ele></trkpt>
      <trkpt lat="22.2444715482" lon="113.9722505388"><ele>72.000</ele></trkpt>
      <trkpt lat="22.2444656324" lon="113.9722786407"><ele>72.000</ele></trkpt>
      <trkpt lat="22.2444606163" lon="113.9722968951"><ele>72.000</ele></trkpt>
      <trkpt lat="22.2444544458" lon="113.9723163735"><ele>72.000</ele></trkpt>
      <trkpt lat="22.2444476057" lon="113.9723420225"><ele>72.000</ele></trkpt>
      <trkpt lat="22.2444451070" lon="113.9723585368"><ele>72.000</ele></trkpt>
      <trkpt lat="22.2444455784" lon="113.9723671601"><ele>72.000</ele></trkpt>
      <trkpt lat="22.2444469703" lon="113.9723752970"><ele>72.000</ele></trkpt>
      <trkpt lat="22.2444495075" lon="113.9723821906"><ele>70.000</ele></trkpt>
      <trkpt lat="22.2444538690" lon="113.9723890815"><ele>70.000</ele></trkpt>
      <trkpt lat="22.2444589236" lon="113.9723942446"><ele>70.000</ele></trkpt>
      <trkpt lat="22.2444662729" lon="113.9724001514"><ele>70.000</ele></trkpt>
      <trkpt lat="22.2444722493" lon="113.9724058080"><ele>70.000</ele></trkpt>
      <trkpt lat="22.2444770787" lon="113.9724114662"><ele>70.000</ele></trkpt>
      <trkpt lat="22.2444841930" lon="113.9724171114"><ele>70.000</ele></trkpt>
      <trkpt lat="22.2444922277" lon="113.9724222703"><ele>73.000</ele></trkpt>
      <trkpt lat="22.2445078434" lon="113.9724308716"><ele>71.000</ele></trkpt>
      <trkpt lat="22.2445147316" lon="113.9724362746"><ele>71.000</ele></trkpt>
      <trkpt lat="22.2445206989" lon="113.9724419312"><ele>71.000</ele></trkpt>
      <trkpt lat="22.2445259892" lon="113.9724478410"><ele>71.000</ele></trkpt>
      <trkpt lat="22.2445303609" lon="113.9724557117"><ele>74.000</ele></trkpt>
      <trkpt lat="22.2445365733" lon="113.9724695069"><ele>74.000</ele></trkpt>
      <trkpt lat="22.2445386503" lon="113.9724766436"><ele>72.000</ele></trkpt>
      <trkpt lat="22.2445412005" lon="113.9724938975"><ele>72.000</ele></trkpt>
      <trkpt lat="22.2445418986" lon="113.9725032578"><ele>72.000</ele></trkpt>
      <trkpt lat="22.2445419089" lon="113.9725113870"><ele>72.000</ele></trkpt>
      <trkpt lat="22.2445433119" lon="113.9725283904"><ele>72.000</ele></trkpt>
      <trkpt lat="22.2445442436" lon="113.9725367705"><ele>72.000</ele></trkpt>
      <trkpt lat="22.2445458612" lon="113.9725448974"><ele>72.000</ele></trkpt>
      <trkpt lat="22.2445550773" lon="113.9725702709"><ele>72.000</ele></trkpt>
      <trkpt lat="22.2445603831" lon="113.9725884909"><ele>70.000</ele></trkpt>
      <trkpt lat="22.2445633731" lon="113.9725963733"><ele>70.000</ele></trkpt>
      <trkpt lat="22.2445686870" lon="113.9726210055"><ele>70.000</ele></trkpt>
      <trkpt lat="22.2445716984" lon="113.9726387439"><ele>70.000</ele></trkpt>
      <trkpt lat="22.2445747305" lon="113.9726730026"><ele>70.000</ele></trkpt>
      <trkpt lat="22.2445761246" lon="113.9726828565"><ele>71.000</ele></trkpt>
      <trkpt lat="22.2445765982" lon="113.9726932065"><ele>71.000</ele></trkpt>
      <trkpt lat="22.2445766397" lon="113.9727190784"><ele>72.000</ele></trkpt>
      <trkpt lat="22.2445753172" lon="113.9727518689"><ele>72.000</ele></trkpt>
      <trkpt lat="22.2445721466" lon="113.9727799669"><ele>72.000</ele></trkpt>
      <trkpt lat="22.2445705509" lon="113.9727893401"><ele>72.000</ele></trkpt>
      <trkpt lat="22.2445678174" lon="113.9727987053"><ele>72.000</ele></trkpt>
      <trkpt lat="22.2445648574" lon="113.9728147353"><ele>72.000</ele></trkpt>
      <trkpt lat="22.2445623483" lon="113.9728231204"><ele>72.000</ele></trkpt>
      <trkpt lat="22.2445545942" lon="113.9728544359"><ele>72.000</ele></trkpt>
      <trkpt lat="22.2445532305" lon="113.9728615874"><ele>72.000</ele></trkpt>
      <trkpt lat="22.2445514286" lon="113.9728793327"><ele>72.000</ele></trkpt>
      <trkpt lat="22.2445448241" lon="113.9729128681"><ele>72.000</ele></trkpt>
      <trkpt lat="22.2445405032" lon="113.9729382612"><ele>72.000</ele></trkpt>
      <trkpt lat="22.2445359457" lon="113.9729550307"><ele>72.000</ele></trkpt>
      <trkpt lat="22.2445291111" lon="113.9729851129"><ele>70.000</ele></trkpt>
      <trkpt lat="22.2445261517" lon="113.9730016279"><ele>70.000</ele></trkpt>
      <trkpt lat="22.2445188627" lon="113.9730366388"><ele>70.000</ele></trkpt>
      <trkpt lat="22.2445158940" lon="113.9730457618"><ele>70.000</ele></trkpt>
      <trkpt lat="22.2445090412" lon="113.9730613026"><ele>68.000</ele></trkpt>
      <trkpt lat="22.2445015001" lon="113.9730825194"><ele>68.000</ele></trkpt>
      <trkpt lat="22.2445001364" lon="113.9730896708"><ele>68.000</ele></trkpt>
      <trkpt lat="22.2444996941" lon="113.9730970634"><ele>68.000</ele></trkpt>
      <trkpt lat="22.2444983220" lon="113.9731047096"><ele>68.000</ele></trkpt>
      <trkpt lat="22.2444942235" lon="113.9731202367"><ele>68.000</ele></trkpt>
      <trkpt lat="22.2444891946" lon="113.9731355324"><ele>68.000</ele></trkpt>
      <trkpt lat="22.2444853122" lon="113.9731434247"><ele>68.000</ele></trkpt>
      <trkpt lat="22.2444747818" lon="113.9731572538"><ele>66.000</ele></trkpt>
      <trkpt lat="22.2444706622" lon="113.9731631772"><ele>66.000</ele></trkpt>
      <trkpt lat="22.2444660845" lon="113.9731710706"><ele>66.000</ele></trkpt>
      <trkpt lat="22.2444553373" lon="113.9731920397"><ele>66.000</ele></trkpt>
      <trkpt lat="22.2444468729" lon="113.9732043816"><ele>65.000</ele></trkpt>
      <trkpt lat="22.2444413714" lon="113.9732100645"><ele>65.000</ele></trkpt>
      <trkpt lat="22.2444370257" lon="113.9732157360"><ele>64.000</ele></trkpt>
      <trkpt lat="22.2444187290" lon="113.9732512672"><ele>62.000</ele></trkpt>
      <trkpt lat="22.2444125402" lon="113.9732562041"><ele>62.000</ele></trkpt>
      <trkpt lat="22.2444058970" lon="113.9732589300"><ele>62.000</ele></trkpt>
      <trkpt lat="22.2443990175" lon="113.9732604241"><ele>62.000</ele></trkpt>
      <trkpt lat="22.2443919042" lon="113.9732626558"><ele>62.000</ele></trkpt>
      <trkpt lat="22.2443857219" lon="113.9732656235"><ele>62.000</ele></trkpt>
      <trkpt lat="22.2443799927" lon="113.9732698322"><ele>62.000</ele></trkpt>
      <trkpt lat="22.2443410566" lon="113.9733090989"><ele>60.000</ele></trkpt>
      <trkpt lat="22.2443348672" lon="113.9733135411"><ele>60.000</ele></trkpt>
      <trkpt lat="22.2443275377" lon="113.9733162678"><ele>60.000</ele></trkpt>
      <trkpt lat="22.2443135434" lon="113.9733187618"><ele>60.000</ele></trkpt>
      <trkpt lat="22.2442890084" lon="113.9733198061"><ele>60.000</ele></trkpt>
      <trkpt lat="22.2442612508" lon="113.9733218348"><ele>60.000</ele></trkpt>
      <trkpt lat="22.2442422170" lon="113.9733240838"><ele>60.000</ele></trkpt>
      <trkpt lat="22.2442261640" lon="113.9733268329"><ele>60.000</ele></trkpt>
      <trkpt lat="22.2442188243" lon="113.9733285702"><ele>60.000</ele></trkpt>
      <trkpt lat="22.2442034694" lon="113.9733335301"><ele>58.000</ele></trkpt>
      <trkpt lat="22.2441890303" lon="113.9733414473"><ele>58.000</ele></trkpt>
      <trkpt lat="22.2441764284" lon="113.9733525632"><ele>58.000</ele></trkpt>
      <trkpt lat="22.2441711616" lon="113.9733582457"><ele>58.000</ele></trkpt>
      <trkpt lat="22.2441656706" lon="113.9733651605"><ele>56.000</ele></trkpt>
      <trkpt lat="22.2441452972" lon="113.9733937877"><ele>56.000</ele></trkpt>
      <trkpt lat="22.2441333956" lon="113.9734088507"><ele>56.000</ele></trkpt>
      <trkpt lat="22.2441230884" lon="113.9734207005"><ele>54.000</ele></trkpt>
      <trkpt lat="22.2441175949" lon="113.9734256364"><ele>54.000</ele></trkpt>
      <trkpt lat="22.2441116312" lon="113.9734300880"><ele>54.000</ele></trkpt>
      <trkpt lat="22.2441052151" lon="113.9734337932"><ele>54.000</ele></trkpt>
      <trkpt lat="22.2440978859" lon="113.9734367722"><ele>54.000</ele></trkpt>
      <trkpt lat="22.2440738105" lon="113.9734442086"><ele>54.000</ele></trkpt>
      <trkpt lat="22.2440527177" lon="113.9734536197"><ele>52.000</ele></trkpt>
      <trkpt lat="22.2440254475" lon="113.9734699465"><ele>52.000</ele></trkpt>
      <trkpt lat="22.2440036799" lon="113.9734813278"><ele>52.000</ele></trkpt>
      <trkpt lat="22.2439892414" lon="113.9734897301"><ele>52.000</ele></trkpt>
      <trkpt lat="22.2439748007" lon="113.9734964153"><ele>48.000</ele></trkpt>
      <trkpt lat="22.2439440735" lon="113.9735068297"><ele>48.000</ele></trkpt>
      <trkpt lat="22.2439273344" lon="113.9735098223"><ele>46.000</ele></trkpt>
      <trkpt lat="22.2439188466" lon="113.9735105815"><ele>46.000</ele></trkpt>
      <trkpt lat="22.2439108177" lon="113.9735101080"><ele>46.000</ele></trkpt>
      <trkpt lat="22.2438814487" lon="113.9735017884"><ele>46.000</ele></trkpt>
      <trkpt lat="22.2438729587" lon="113.9735008209"><ele>46.000</ele></trkpt>
      <trkpt lat="22.2438647066" lon="113.9735023170"><ele>46.000</ele></trkpt>
      <trkpt lat="22.2438580553" lon="113.9735057800"><ele>46.000</ele></trkpt>
      <trkpt lat="22.2438449991" lon="113.9735146750"><ele>43.000</ele></trkpt>
      <trkpt lat="22.2438376622" lon="113.9735186338"><ele>43.000</ele></trkpt>
      <trkpt lat="22.2438170997" lon="113.9735267975"><ele>43.000</ele></trkpt>
      <trkpt lat="22.2437948736" lon="113.9735326879"><ele>40.000</ele></trkpt>
      <trkpt lat="22.2437882765" lon="113.9735115236"><ele>40.000</ele></trkpt>
      <trkpt lat="22.2437792882" lon="113.9734890775"><ele>41.000</ele></trkpt>
      <trkpt lat="22.2437679184" lon="113.9734730529"><ele>41.000</ele></trkpt>
      <trkpt lat="22.2437511768" lon="113.9734602440"><ele>38.000</ele></trkpt>
      <trkpt lat="22.2437356355" lon="113.9734519248"><ele>38.000</ele></trkpt>
      <trkpt lat="22.2437159154" lon="113.9734455362"><ele>39.000</ele></trkpt>
      <trkpt lat="22.2436955983" lon="113.9734397907"><ele>41.000</ele></trkpt>
      <trkpt lat="22.2436711042" lon="113.9734366180"><ele>40.000</ele></trkpt>
      <trkpt lat="22.2436346664" lon="113.9734373119"><ele>40.000</ele></trkpt>
      <trkpt lat="22.2435910668" lon="113.9734418662"><ele>37.000</ele></trkpt>
      <trkpt lat="22.2435480633" lon="113.9734457785"><ele>34.000</ele></trkpt>
      <trkpt lat="22.2435044627" lon="113.9734503329"><ele>32.000</ele></trkpt>
      <trkpt lat="22.2434763980" lon="113.9734580738"><ele>34.000</ele></trkpt>
      <trkpt lat="22.2434511167" lon="113.9734732589"><ele>34.000</ele></trkpt>
      <trkpt lat="22.2434470376" lon="113.9734935004"><ele>34.000</ele></trkpt>
      <trkpt lat="22.2434383582" lon="113.9735287943"><ele>30.000</ele></trkpt>
      <trkpt lat="22.2434290427" lon="113.9735609655"><ele>30.000</ele></trkpt>
      <trkpt lat="22.2434164323" lon="113.9735941794"><ele>31.000</ele></trkpt>
      <trkpt lat="22.2434018068" lon="113.9736264358"><ele>30.000</ele></trkpt>
      <trkpt lat="22.2433862026" lon="113.9736558902"><ele>30.000</ele></trkpt>
      <trkpt lat="22.2433678627" lon="113.9736858724"><ele>30.000</ele></trkpt>
      <trkpt lat="22.2433458466" lon="113.9737152681"><ele>29.000</ele></trkpt>
      <trkpt lat="22.2433224472" lon="113.9737434046"><ele>31.000</ele></trkpt>
      <trkpt lat="22.2432977368" lon="113.9737702044"><ele>28.000</ele></trkpt>
      <trkpt lat="22.2432717603" lon="113.9737956091"><ele>34.000</ele></trkpt>
      <trkpt lat="22.2432213804" lon="113.9738406249"><ele>38.000</ele></trkpt>
      <trkpt lat="22.2431760623" lon="113.9738821702"><ele>39.000</ele></trkpt>
      <trkpt lat="22.2431592651" lon="113.9738964350"><ele>36.000</ele></trkpt>
      <trkpt lat="22.2431406928" lon="113.9739139423"><ele>36.000</ele></trkpt>
      <trkpt lat="22.2431253427" lon="113.9739299705"><ele>28.000</ele></trkpt>
      <trkpt lat="22.2431085429" lon="113.9739494251"><ele>34.000</ele></trkpt>
      <trkpt lat="22.2430974733" lon="113.9739654666"><ele>34.000</ele></trkpt>
      <trkpt lat="22.2430879025" lon="113.9739812730"><ele>38.000</ele></trkpt>
      <trkpt lat="22.2430792083" lon="113.9739976603"><ele>28.000</ele></trkpt>
      <trkpt lat="22.2430714360" lon="113.9740145700"><ele>28.000</ele></trkpt>
      <trkpt lat="22.2430642345" lon="113.9740329825"><ele>33.000</ele></trkpt>
      <trkpt lat="22.2430581171" lon="113.9740518397"><ele>33.000</ele></trkpt>
      <trkpt lat="22.2430531111" lon="113.9740710639"><ele>33.000</ele></trkpt>
      <trkpt lat="22.2430492342" lon="113.9740905969"><ele>34.000</ele></trkpt>
      <trkpt lat="22.2430458870" lon="113.9741076652"><ele>34.000</ele></trkpt>
      <trkpt lat="22.2430434233" lon="113.9741234323"><ele>34.000</ele></trkpt>
      <trkpt lat="22.2430402299" lon="113.9741552162"><ele>32.000</ele></trkpt>
      <trkpt lat="22.2430393577" lon="113.9741871714"><ele>30.000</ele></trkpt>
      <trkpt lat="22.2430398670" lon="113.9742046028"><ele>30.000</ele></trkpt>
      <trkpt lat="22.2430410717" lon="113.9742219943"><ele>30.000</ele></trkpt>
      <trkpt lat="22.2430431914" lon="113.9742416739"><ele>32.000</ele></trkpt>
      <trkpt lat="22.2430466601" lon="113.9742642132"><ele>32.000</ele></trkpt>
      <trkpt lat="22.2430505494" lon="113.9742835799"><ele>33.000</ele></trkpt>
      <trkpt lat="22.2430560314" lon="113.9743056604"><ele>33.000</ele></trkpt>
      <trkpt lat="22.2430621072" lon="113.9743259648"><ele>27.000</ele></trkpt>
      <trkpt lat="22.2430690947" lon="113.9743459284"><ele>27.000</ele></trkpt>
      <trkpt lat="22.2430763780" lon="113.9743641261"><ele>27.000</ele></trkpt>
      <trkpt lat="22.2430850713" lon="113.9743833015"><ele>21.000</ele></trkpt>
      <trkpt lat="22.2431064452" lon="113.9744255366"><ele>22.000</ele></trkpt>
      <trkpt lat="22.2431628133" lon="113.9745189409"><ele>19.000</ele></trkpt>
      <trkpt lat="22.2431793064" lon="113.9745505123"><ele>24.000</ele></trkpt>
      <trkpt lat="22.2432035873" lon="113.9745993591"><ele>19.000</ele></trkpt>
      <trkpt lat="22.2432255697" lon="113.9746516432"><ele>21.000</ele></trkpt>
      <trkpt lat="22.2432356430" lon="113.9746768020"><ele>19.000</ele></trkpt>
      <trkpt lat="22.2432488555" lon="113.9747136262"><ele>17.000</ele></trkpt>
      <trkpt lat="22.2432626507" lon="113.9747542716"><ele>17.000</ele></trkpt>
      <trkpt lat="22.2432738414" lon="113.9747920688"><ele>18.000</ele></trkpt>
      <trkpt lat="22.2432840415" lon="113.9748320501"><ele>16.000</ele></trkpt>
      <trkpt lat="22.2432923345" lon="113.9748706954"><ele>14.000</ele></trkpt>
      <trkpt lat="22.2433012862" lon="113.9749161884"><ele>14.000</ele></trkpt>
      <trkpt lat="22.2433083148" lon="113.9749620722"><ele>12.000</ele></trkpt>
      <trkpt lat="22.2433120411" lon="113.9749957107"><ele>12.000</ele></trkpt>
      <trkpt lat="22.2433134293" lon="113.9750082401"><ele>12.000</ele></trkpt>
      <trkpt lat="22.2433164174" lon="113.9750510449"><ele>12.000</ele></trkpt>
      <trkpt lat="22.2433182596" lon="113.9750800958"><ele>12.000</ele></trkpt>
      <trkpt lat="22.2433192658" lon="113.9751050348"><ele>12.000</ele></trkpt>
      <trkpt lat="22.2433196645" lon="113.9751570201"><ele>10.000</ele></trkpt>
      <trkpt lat="22.2433183999" lon="113.9753298529"><ele>10.000</ele></trkpt>
      <trkpt lat="22.2433169802" lon="113.9755238603"><ele>10.000</ele></trkpt>
      <trkpt lat="22.2433155603" lon="113.9757178676"><ele>10.000</ele></trkpt>
      <trkpt lat="22.2433155286" lon="113.9757221408"><ele>10.000</ele></trkpt>
      <trkpt lat="22.2433146981" lon="113.9758355992"><ele>10.000</ele></trkpt>
      <trkpt lat="22.2433142156" lon="113.9758543998"><ele>8.000</ele></trkpt>
      <trkpt lat="22.2433143732" lon="113.9758723167"><ele>8.000</ele></trkpt>
      <trkpt lat="22.2433151268" lon="113.9758902037"><ele>10.000</ele></trkpt>
      <trkpt lat="22.2433161026" lon="113.9759030353"><ele>10.000</ele></trkpt>
      <trkpt lat="22.2433418525" lon="113.9759811909"><ele>8.000</ele></trkpt>
      <trkpt lat="22.2433421272" lon="113.9760492844"><ele>8.000</ele></trkpt>
      <trkpt lat="22.2433238385" lon="113.9761152411"><ele>8.000</ele></trkpt>
      <trkpt lat="22.2433102537" lon="113.9761708317"><ele>8.000</ele></trkpt>
      <trkpt lat="22.2433096963" lon="113.9762021560"><ele>8.000</ele></trkpt>
      <trkpt lat="22.2433097659" lon="113.9762366224"><ele>8.000</ele></trkpt>
      <trkpt lat="22.2433104457" lon="113.9762679449"><ele>8.000</ele></trkpt>
      <trkpt lat="22.2433117215" lon="113.9762992472"><ele>8.000</ele></trkpt>
      <trkpt lat="22.2433139289" lon="113.9764488479"><ele>8.000</ele></trkpt>
      <trkpt lat="22.2433181521" lon="113.9765342757"><ele>8.000</ele></trkpt>
      <trkpt lat="22.2433205236" lon="113.9766120039"><ele>8.000</ele></trkpt>
      <trkpt lat="22.2433217786" lon="113.9766323764"><ele>8.000</ele></trkpt>
    </trkseg>
  </trk>
</gpx>
