<?xml version="1.0" encoding="UTF-8"?>
<gpx xmlns:xsi="http://www.w3.org/2001/XMLSchema-instance"
     xsi:schemaLocation="http://www.topografix.com/GPX/1/1 http://www.topografix.com/GPX/1/1/gpx.xsd"
     version="1.1" creator="json3d_batch_to_gpx"
     xmlns="http://www.topografix.com/GPX/1/1">
  <metadata>
    <name>LantauTrail(Section8)KauLingChungtoShekPik</name>
  </metadata>
  <trk>
    <name>LantauTrail(Section8)KauLingChungtoShekPik</name>
    <type>hike</type>
    <trkseg>
      <trkpt lat="22.2073034769" lon="113.8671827853"><ele>100.000</ele></trkpt>
      <trkpt lat="22.2072994659" lon="113.8672494989"><ele>100.000</ele></trkpt>
      <trkpt lat="22.2073043622" lon="113.8673182867"><ele>100.000</ele></trkpt>
      <trkpt lat="22.2073166320" lon="113.8673671569"><ele>100.000</ele></trkpt>
      <trkpt lat="22.2073278326" lon="113.8674103443"><ele>100.000</ele></trkpt>
      <trkpt lat="22.2073501626" lon="113.8674597627"><ele>100.000</ele></trkpt>
      <trkpt lat="22.2073725466" lon="113.8674933720"><ele>100.000</ele></trkpt>
      <trkpt lat="22.2073787110" lon="113.8675002549"><ele>102.000</ele></trkpt>
      <trkpt lat="22.2075039137" lon="113.8676400499"><ele>100.000</ele></trkpt>
      <trkpt lat="22.2076106698" lon="113.8677487882"><ele>100.000</ele></trkpt>
      <trkpt lat="22.2077417143" lon="113.8678822660"><ele>100.000</ele></trkpt>
      <trkpt lat="22.2078727586" lon="113.8680157441"><ele>100.000</ele></trkpt>
      <trkpt lat="22.2080038028" lon="113.8681492224"><ele>100.000</ele></trkpt>
      <trkpt lat="22.2081348469" lon="113.8682827010"><ele>100.000</ele></trkpt>
      <trkpt lat="22.2082658909" lon="113.8684161798"><ele>100.000</ele></trkpt>
      <trkpt lat="22.2082990505" lon="113.8684452912"><ele>100.000</ele></trkpt>
      <trkpt lat="22.2083330835" lon="113.8684773412"><ele>100.000</ele></trkpt>
      <trkpt lat="22.2083679706" lon="113.8685012118"><ele>100.000</ele></trkpt>
      <trkpt lat="22.2084042361" lon="113.8685175963"><ele>101.000</ele></trkpt>
      <trkpt lat="22.2084432866" lon="113.8685324782"><ele>104.000</ele></trkpt>
      <trkpt lat="22.2084767482" lon="113.8685398883"><ele>109.000</ele></trkpt>
      <trkpt lat="22.2085185713" lon="113.8685472801"><ele>110.000</ele></trkpt>
      <trkpt lat="22.2085561942" lon="113.8685442051"><ele>110.000</ele></trkpt>
      <trkpt lat="22.2086425969" lon="113.8685425189"><ele>108.000</ele></trkpt>
      <trkpt lat="22.2087485140" lon="113.8685422876"><ele>108.000</ele></trkpt>
      <trkpt lat="22.2088878728" lon="113.8685389903"><ele>101.000</ele></trkpt>
      <trkpt lat="22.2089882124" lon="113.8685372747"><ele>100.000</ele></trkpt>
      <trkpt lat="22.2090537074" lon="113.8685341378"><ele>100.000</ele></trkpt>
      <trkpt lat="22.2090927322" lon="113.8685355490"><ele>99.000</ele></trkpt>
      <trkpt lat="22.2091303751" lon="113.8685429509"><ele>99.000</ele></trkpt>
      <trkpt lat="22.2091638565" lon="113.8685608370"><ele>98.000</ele></trkpt>
      <trkpt lat="22.2091973692" lon="113.8685951878"><ele>100.000</ele></trkpt>
      <trkpt lat="22.2092350829" lon="113.8686400065"><ele>100.000</ele></trkpt>
      <trkpt lat="22.2093356737" lon="113.8687714944"><ele>106.000</ele></trkpt>
      <trkpt lat="22.2093449713" lon="113.8687845956"><ele>106.000</ele></trkpt>
      <trkpt lat="22.2094544513" lon="113.8689388642"><ele>102.000</ele></trkpt>
      <trkpt lat="22.2095662279" lon="113.8690897858"><ele>101.000</ele></trkpt>
      <trkpt lat="22.2096598371" lon="113.8692138072"><ele>101.000</ele></trkpt>
      <trkpt lat="22.2097296716" lon="113.8692944758"><ele>106.000</ele></trkpt>
      <trkpt lat="22.2097967193" lon="113.8693751506"><ele>100.000</ele></trkpt>
      <trkpt lat="22.2098637781" lon="113.8694618132"><ele>100.000</ele></trkpt>
      <trkpt lat="22.2099224379" lon="113.8695290364"><ele>100.000</ele></trkpt>
      <trkpt lat="22.2099880864" lon="113.8696067216"><ele>101.000</ele></trkpt>
      <trkpt lat="22.2100397471" lon="113.8696574962"><ele>100.000</ele></trkpt>
      <trkpt lat="22.2100857964" lon="113.8696888264"><ele>100.000</ele></trkpt>
      <trkpt lat="22.2101415874" lon="113.8697126521"><ele>99.000</ele></trkpt>
      <trkpt lat="22.2101848104" lon="113.8697230352"><ele>102.000</ele></trkpt>
      <trkpt lat="22.2102433628" lon="113.8697333849"><ele>100.000</ele></trkpt>
      <trkpt lat="22.2102907500" lon="113.8697347782"><ele>100.000</ele></trkpt>
      <trkpt lat="22.2103367259" lon="113.8697271949"><ele>100.000</ele></trkpt>
      <trkpt lat="22.2103882764" lon="113.8697195995"><ele>98.000</ele></trkpt>
      <trkpt lat="22.2104273070" lon="113.8697240039"><ele>98.000</ele></trkpt>
      <trkpt lat="22.2104579958" lon="113.8697389046"><ele>98.000</ele></trkpt>
      <trkpt lat="22.2104817243" lon="113.8697583098"><ele>98.000</ele></trkpt>
      <trkpt lat="22.2105054612" lon="113.8697822054"><ele>98.000</ele></trkpt>
      <trkpt lat="22.2105292235" lon="113.8698195709"><ele>100.000</ele></trkpt>
      <trkpt lat="22.2105557735" lon="113.8698569304"><ele>99.000</ele></trkpt>
      <trkpt lat="22.2105920925" lon="113.8699017529"><ele>99.000</ele></trkpt>
      <trkpt lat="22.2106242143" lon="113.8699376039"><ele>98.000</ele></trkpt>
      <trkpt lat="22.2106758608" lon="113.8699808957"><ele>99.000</ele></trkpt>
      <trkpt lat="22.2107149421" lon="113.8700122412"><ele>102.000</ele></trkpt>
      <trkpt lat="22.2107665660" lon="113.8700435595"><ele>100.000</ele></trkpt>
      <trkpt lat="22.2108153861" lon="113.8700659041"><ele>102.000</ele></trkpt>
      <trkpt lat="22.2108642081" lon="113.8700897453"><ele>100.000</ele></trkpt>
      <trkpt lat="22.2109004800" lon="113.8701091234"><ele>102.000</ele></trkpt>
      <trkpt lat="22.2109451302" lon="113.8701374639"><ele>100.000</ele></trkpt>
      <trkpt lat="22.2109758407" lon="113.8701643374"><ele>100.000</ele></trkpt>
      <trkpt lat="22.2109954142" lon="113.8701972228"><ele>100.000</ele></trkpt>
      <trkpt lat="22.2110108178" lon="113.8702361032"><ele>99.000</ele></trkpt>
      <trkpt lat="22.2110262402" lon="113.8702854607"><ele>98.000</ele></trkpt>
      <trkpt lat="22.2110458532" lon="113.8703392995"><ele>99.000</ele></trkpt>
      <trkpt lat="22.2110696548" lon="113.8703976196"><ele>98.000</ele></trkpt>
      <trkpt lat="22.2110948301" lon="113.8704454595"><ele>99.000</ele></trkpt>
      <trkpt lat="22.2111297593" lon="113.8704917818"><ele>98.000</ele></trkpt>
      <trkpt lat="22.2111562942" lon="113.8705216584"><ele>98.000</ele></trkpt>
      <trkpt lat="22.2112023499" lon="113.8705559819"><ele>99.000</ele></trkpt>
      <trkpt lat="22.2112553727" lon="113.8705902914"><ele>98.000</ele></trkpt>
      <trkpt lat="22.2112888962" lon="113.8706306300"><ele>98.000</ele></trkpt>
      <trkpt lat="22.2113098743" lon="113.8706694984"><ele>99.000</ele></trkpt>
      <trkpt lat="22.2113183174" lon="113.8707128844"><ele>102.000</ele></trkpt>
      <trkpt lat="22.2113197924" lon="113.8707562855"><ele>102.000</ele></trkpt>
      <trkpt lat="22.2113143051" lon="113.8708026956"><ele>98.000</ele></trkpt>
      <trkpt lat="22.2113018497" lon="113.8708491208"><ele>99.000</ele></trkpt>
      <trkpt lat="22.2112852076" lon="113.8708925612"><ele>102.000</ele></trkpt>
      <trkpt lat="22.2112671636" lon="113.8709315142"><ele>100.000</ele></trkpt>
      <trkpt lat="22.2112505158" lon="113.8709719616"><ele>100.000</ele></trkpt>
      <trkpt lat="22.2112464077" lon="113.8710108854"><ele>100.000</ele></trkpt>
      <trkpt lat="22.2112395381" lon="113.8710632843"><ele>103.000</ele></trkpt>
      <trkpt lat="22.2112340985" lon="113.8711351381"><ele>104.000</ele></trkpt>
      <trkpt lat="22.2112342222" lon="113.8712009929"><ele>104.000</ele></trkpt>
      <trkpt lat="22.2112302208" lon="113.8712967909"><ele>106.000</ele></trkpt>
      <trkpt lat="22.2112275604" lon="113.8713641482"><ele>104.000</ele></trkpt>
      <trkpt lat="22.2112220701" lon="113.8714090608"><ele>102.000</ele></trkpt>
      <trkpt lat="22.2112082006" lon="113.8714450118"><ele>102.000</ele></trkpt>
      <trkpt lat="22.2111804091" lon="113.8714884772"><ele>102.000</ele></trkpt>
      <trkpt lat="22.2111470038" lon="113.8715109993"><ele>102.000</ele></trkpt>
      <trkpt lat="22.2111080154" lon="113.8715290441"><ele>103.000</ele></trkpt>
      <trkpt lat="22.2110704270" lon="113.8715500798"><ele>104.000</ele></trkpt>
      <trkpt lat="22.2110453802" lon="113.8715710874"><ele>102.000</ele></trkpt>
      <trkpt lat="22.2110231380" lon="113.8716010696"><ele>102.000</ele></trkpt>
      <trkpt lat="22.2110078647" lon="113.8716310367"><ele>103.000</ele></trkpt>
      <trkpt lat="22.2110051359" lon="113.8716624732"><ele>105.000</ele></trkpt>
      <trkpt lat="22.2110093956" lon="113.8717043717"><ele>105.000</ele></trkpt>
      <trkpt lat="22.2110275885" lon="113.8717447437"><ele>104.000</ele></trkpt>
      <trkpt lat="22.2110499654" lon="113.8717866031"><ele>106.000</ele></trkpt>
      <trkpt lat="22.2110695498" lon="113.8718254746"><ele>104.000</ele></trkpt>
      <trkpt lat="22.2110905492" lon="113.8718763177"><ele>104.000</ele></trkpt>
      <trkpt lat="22.2111073907" lon="113.8719391425"><ele>106.000</ele></trkpt>
      <trkpt lat="22.2111158483" lon="113.8719900117"><ele>105.000</ele></trkpt>
      <trkpt lat="22.2111270843" lon="113.8720363856"><ele>105.000</ele></trkpt>
      <trkpt lat="22.2111438894" lon="113.8720797536"><ele>106.000</ele></trkpt>
      <trkpt lat="22.2111634672" lon="113.8721156323"><ele>106.000</ele></trkpt>
      <trkpt lat="22.2111900111" lon="113.8721499994"><ele>106.000</ele></trkpt>
      <trkpt lat="22.2112193391" lon="113.8721828632"><ele>106.000</ele></trkpt>
      <trkpt lat="22.2112472456" lon="113.8722007634"><ele>105.000</ele></trkpt>
      <trkpt lat="22.2112793276" lon="113.8722156618"><ele>106.000</ele></trkpt>
      <trkpt lat="22.2113127863" lon="113.8722215764"><ele>106.000</ele></trkpt>
      <trkpt lat="22.2113420554" lon="113.8722230097"><ele>106.000</ele></trkpt>
      <trkpt lat="22.2113824541" lon="113.8722139427"><ele>106.000</ele></trkpt>
      <trkpt lat="22.2114214538" lon="113.8722018848"><ele>106.000</ele></trkpt>
      <trkpt lat="22.2114702064" lon="113.8721883085"><ele>106.000</ele></trkpt>
      <trkpt lat="22.2115008521" lon="113.8721807590"><ele>106.000</ele></trkpt>
      <trkpt lat="22.2115342940" lon="113.8721776939"><ele>106.000</ele></trkpt>
      <trkpt lat="22.2115565979" lon="113.8721806387"><ele>106.000</ele></trkpt>
      <trkpt lat="22.2115761337" lon="113.8721940667"><ele>106.000</ele></trkpt>
      <trkpt lat="22.2116138323" lon="113.8722314038"><ele>106.000</ele></trkpt>
      <trkpt lat="22.2116487489" lon="113.8722717389"><ele>107.000</ele></trkpt>
      <trkpt lat="22.2116878549" lon="113.8723165564"><ele>107.000</ele></trkpt>
      <trkpt lat="22.2117185688" lon="113.8723449269"><ele>104.000</ele></trkpt>
      <trkpt lat="22.2117506527" lon="113.8723613218"><ele>106.000</ele></trkpt>
      <trkpt lat="22.2117827292" lon="113.8723732263"><ele>106.000</ele></trkpt>
      <trkpt lat="22.2118259436" lon="113.8723791199"><ele>106.000</ele></trkpt>
      <trkpt lat="22.2118593883" lon="113.8723775513"><ele>106.000</ele></trkpt>
      <trkpt lat="22.2118997926" lon="113.8723714773"><ele>106.000</ele></trkpt>
      <trkpt lat="22.2119360045" lon="113.8723594254"><ele>106.000</ele></trkpt>
      <trkpt lat="22.2119749985" lon="113.8723443737"><ele>104.000</ele></trkpt>
      <trkpt lat="22.2120028378" lon="113.8723263530"><ele>106.000</ele></trkpt>
      <trkpt lat="22.2120292753" lon="113.8723038460"><ele>106.000</ele></trkpt>
      <trkpt lat="22.2120710226" lon="113.8722708276"><ele>106.000</ele></trkpt>
      <trkpt lat="22.2120988591" lon="113.8722513105"><ele>106.000</ele></trkpt>
      <trkpt lat="22.2121420399" lon="113.8722392435"><ele>106.000</ele></trkpt>
      <trkpt lat="22.2121838544" lon="113.8722421472"><ele>106.000</ele></trkpt>
      <trkpt lat="22.2122159252" lon="113.8722510578"><ele>106.000</ele></trkpt>
      <trkpt lat="22.2122507941" lon="113.8722659502"><ele>106.000</ele></trkpt>
      <trkpt lat="22.2122801109" lon="113.8722928274"><ele>106.000</ele></trkpt>
      <trkpt lat="22.2123010830" lon="113.8723287034"><ele>106.000</ele></trkpt>
      <trkpt lat="22.2123095237" lon="113.8723705933"><ele>106.000</ele></trkpt>
      <trkpt lat="22.2123124057" lon="113.8724214750"><ele>106.000</ele></trkpt>
      <trkpt lat="22.2123041507" lon="113.8724783686"><ele>106.000</ele></trkpt>
      <trkpt lat="22.2122875445" lon="113.8725412662"><ele>107.000</ele></trkpt>
      <trkpt lat="22.2122640616" lon="113.8726535709"><ele>106.000</ele></trkpt>
      <trkpt lat="22.2122472575" lon="113.8727222103"><ele>106.000</ele></trkpt>
      <trkpt lat="22.2122389997" lon="113.8727786810"><ele>108.000</ele></trkpt>
      <trkpt lat="22.2122414923" lon="113.8728338455"><ele>108.000</ele></trkpt>
      <trkpt lat="22.2122523615" lon="113.8728966915"><ele>107.000</ele></trkpt>
      <trkpt lat="22.2122751925" lon="113.8729672085"><ele>108.000</ele></trkpt>
      <trkpt lat="22.2123003906" lon="113.8730261734"><ele>106.000</ele></trkpt>
      <trkpt lat="22.2123291465" lon="113.8730710184"><ele>107.000</ele></trkpt>
      <trkpt lat="22.2123638665" lon="113.8731107172"><ele>106.000</ele></trkpt>
      <trkpt lat="22.2124153088" lon="113.8731490979"><ele>108.000</ele></trkpt>
      <trkpt lat="22.2124691272" lon="113.8731797738"><ele>107.000</ele></trkpt>
      <trkpt lat="22.2125181569" lon="113.8732053296"><ele>108.000</ele></trkpt>
      <trkpt lat="22.2125647891" lon="113.8732270412"><ele>106.000</ele></trkpt>
      <trkpt lat="22.2126114054" lon="113.8732397711"><ele>108.000</ele></trkpt>
      <trkpt lat="22.2126592069" lon="113.8732473659"><ele>108.000</ele></trkpt>
      <trkpt lat="22.2127105879" lon="113.8732523879"><ele>108.000</ele></trkpt>
      <trkpt lat="22.2127715274" lon="113.8732586723"><ele>108.000</ele></trkpt>
      <trkpt lat="22.2128205260" lon="113.8732675477"><ele>108.000</ele></trkpt>
      <trkpt lat="22.2128599547" lon="113.8732700292"><ele>106.000</ele></trkpt>
      <trkpt lat="22.2129006006" lon="113.8732840550"><ele>106.000</ele></trkpt>
      <trkpt lat="22.2129472313" lon="113.8733044836"><ele>107.000</ele></trkpt>
      <trkpt lat="22.2129867198" lon="113.8733390408"><ele>106.000</ele></trkpt>
      <trkpt lat="22.2130238260" lon="113.8733774516"><ele>106.000</ele></trkpt>
      <trkpt lat="22.2130633226" lon="113.8734158582"><ele>106.000</ele></trkpt>
      <trkpt lat="22.2131087767" lon="113.8734465534"><ele>106.000</ele></trkpt>
      <trkpt lat="22.2131685783" lon="113.8734823502"><ele>106.000</ele></trkpt>
      <trkpt lat="22.2132319623" lon="113.8735181383"><ele>106.000</ele></trkpt>
      <trkpt lat="22.2133025085" lon="113.8735500627"><ele>106.000</ele></trkpt>
      <trkpt lat="22.2133778447" lon="113.8735883925"><ele>108.000</ele></trkpt>
      <trkpt lat="22.2134184968" lon="113.8736062678"><ele>106.000</ele></trkpt>
      <trkpt lat="22.2134471833" lon="113.8736139039"><ele>106.000</ele></trkpt>
      <trkpt lat="22.2134830277" lon="113.8736163931"><ele>106.000</ele></trkpt>
      <trkpt lat="22.2135260368" lon="113.8736163007"><ele>106.000</ele></trkpt>
      <trkpt lat="22.2135798015" lon="113.8736187514"><ele>106.000</ele></trkpt>
      <trkpt lat="22.2136132598" lon="113.8736225289"><ele>106.000</ele></trkpt>
      <trkpt lat="22.2136419525" lon="113.8736340144"><ele>106.000</ele></trkpt>
      <trkpt lat="22.2136622814" lon="113.8736442347"><ele>106.000</ele></trkpt>
      <trkpt lat="22.2136862017" lon="113.8736582967"><ele>106.000</ele></trkpt>
      <trkpt lat="22.2137029655" lon="113.8736787897"><ele>106.000</ele></trkpt>
      <trkpt lat="22.2137161665" lon="113.8737108374"><ele>106.000</ele></trkpt>
      <trkpt lat="22.2137305814" lon="113.8737531466"><ele>107.000</ele></trkpt>
      <trkpt lat="22.2137486466" lon="113.8738313744"><ele>106.000</ele></trkpt>
      <trkpt lat="22.2137799255" lon="113.8739480637"><ele>105.000</ele></trkpt>
      <trkpt lat="22.2138124253" lon="113.8740788648"><ele>104.000</ele></trkpt>
      <trkpt lat="22.2138485832" lon="113.8742494320"><ele>102.000</ele></trkpt>
      <trkpt lat="22.2138498853" lon="113.8743071669"><ele>100.000</ele></trkpt>
      <trkpt lat="22.2138416199" lon="113.8743597888"><ele>100.000</ele></trkpt>
      <trkpt lat="22.2138357400" lon="113.8744098403"><ele>100.000</ele></trkpt>
      <trkpt lat="22.2138381977" lon="113.8744470437"><ele>101.000</ele></trkpt>
      <trkpt lat="22.2138466301" lon="113.8744842333"><ele>100.000</ele></trkpt>
      <trkpt lat="22.2138705947" lon="113.8745226738"><ele>99.000</ele></trkpt>
      <trkpt lat="22.2139017159" lon="113.8745546833"><ele>101.000</ele></trkpt>
      <trkpt lat="22.2139316304" lon="113.8745802798"><ele>98.000</ele></trkpt>
      <trkpt lat="22.2139746886" lon="113.8746071322"><ele>98.000</ele></trkpt>
      <trkpt lat="22.2140141563" lon="113.8746301420"><ele>96.000</ele></trkpt>
      <trkpt lat="22.2140512241" lon="113.8746480254"><ele>97.000</ele></trkpt>
      <trkpt lat="22.2140978498" lon="113.8746658883"><ele>94.000</ele></trkpt>
      <trkpt lat="22.2141289352" lon="113.8746786520"><ele>94.000</ele></trkpt>
      <trkpt lat="22.2141552274" lon="113.8746837283"><ele>94.000</ele></trkpt>
      <trkpt lat="22.2141767310" lon="113.8746836822"><ele>94.000</ele></trkpt>
      <trkpt lat="22.2141958389" lon="113.8746797919"><ele>94.000</ele></trkpt>
      <trkpt lat="22.2142173243" lon="113.8746694819"><ele>92.000</ele></trkpt>
      <trkpt lat="22.2142364203" lon="113.8746591759"><ele>92.000</ele></trkpt>
      <trkpt lat="22.2142531173" lon="113.8746437436"><ele>92.000</ele></trkpt>
      <trkpt lat="22.2142841184" lon="113.8746116010"><ele>92.000</ele></trkpt>
      <trkpt lat="22.2143437449" lon="113.8745537364"><ele>90.000</ele></trkpt>
      <trkpt lat="22.2144045542" lon="113.8744894535"><ele>90.000</ele></trkpt>
      <trkpt lat="22.2144474765" lon="113.8744431718"><ele>88.000</ele></trkpt>
      <trkpt lat="22.2144689357" lon="113.8744187483"><ele>88.000</ele></trkpt>
      <trkpt lat="22.2144915697" lon="113.8743840572"><ele>88.000</ele></trkpt>
      <trkpt lat="22.2145141927" lon="113.8743429505"><ele>88.000</ele></trkpt>
      <trkpt lat="22.2145260725" lon="113.8743070003"><ele>88.000</ele></trkpt>
      <trkpt lat="22.2145414840" lon="113.8742428146"><ele>89.000</ele></trkpt>
      <trkpt lat="22.2145569051" lon="113.8741837605"><ele>92.000</ele></trkpt>
      <trkpt lat="22.2145747132" lon="113.8741234190"><ele>89.000</ele></trkpt>
      <trkpt lat="22.2145877614" lon="113.8740733519"><ele>92.000</ele></trkpt>
      <trkpt lat="22.2146032135" lon="113.8740309783"><ele>92.000</ele></trkpt>
      <trkpt lat="22.2146150980" lon="113.8739975933"><ele>94.000</ele></trkpt>
      <trkpt lat="22.2146305858" lon="113.8739744647"><ele>94.000</ele></trkpt>
      <trkpt lat="22.2146496674" lon="113.8739564618"><ele>94.000</ele></trkpt>
      <trkpt lat="22.2146735247" lon="113.8739371646"><ele>94.000</ele></trkpt>
      <trkpt lat="22.2146997858" lon="113.8739255601"><ele>96.000</ele></trkpt>
      <trkpt lat="22.2147260493" lon="113.8739152396"><ele>96.000</ele></trkpt>
      <trkpt lat="22.2147475395" lon="113.8739074956"><ele>96.000</ele></trkpt>
      <trkpt lat="22.2147738173" lon="113.8739048730"><ele>94.000</ele></trkpt>
      <trkpt lat="22.2147989037" lon="113.8739035360"><ele>94.000</ele></trkpt>
      <trkpt lat="22.2148240011" lon="113.8739086146"><ele>90.000</ele></trkpt>
      <trkpt lat="22.2148538918" lon="113.8739213808"><ele>90.000</ele></trkpt>
      <trkpt lat="22.2148742318" lon="113.8739380169"><ele>93.000</ele></trkpt>
      <trkpt lat="22.2149137425" lon="113.8739841220"><ele>95.000</ele></trkpt>
      <trkpt lat="22.2149772061" lon="113.8740622521"><ele>94.000</ele></trkpt>
      <trkpt lat="22.2150299002" lon="113.8741314244"><ele>88.000</ele></trkpt>
      <trkpt lat="22.2150730062" lon="113.8741839366"><ele>92.000</ele></trkpt>
      <trkpt lat="22.2151017379" lon="113.8742159514"><ele>92.000</ele></trkpt>
      <trkpt lat="22.2151484162" lon="113.8742620413"><ele>90.000</ele></trkpt>
      <trkpt lat="22.2151771479" lon="113.8742940562"><ele>86.000</ele></trkpt>
      <trkpt lat="22.2152238333" lon="113.8743439955"><ele>84.000</ele></trkpt>
      <trkpt lat="22.2152585769" lon="113.8743965267"><ele>84.000</ele></trkpt>
      <trkpt lat="22.2152861782" lon="113.8744631858"><ele>85.000</ele></trkpt>
      <trkpt lat="22.2153090363" lon="113.8745491021"><ele>84.000</ele></trkpt>
      <trkpt lat="22.2153224182" lon="113.8746786626"><ele>84.000</ele></trkpt>
      <trkpt lat="22.2153334639" lon="113.8748364552"><ele>84.000</ele></trkpt>
      <trkpt lat="22.2153468599" lon="113.8749737135"><ele>84.000</ele></trkpt>
      <trkpt lat="22.2153578115" lon="113.8750814678"><ele>84.000</ele></trkpt>
      <trkpt lat="22.2153747226" lon="113.8751815096"><ele>83.000</ele></trkpt>
      <trkpt lat="22.2153903842" lon="113.8752520448"><ele>84.000</ele></trkpt>
      <trkpt lat="22.2154084091" lon="113.8753084605"><ele>82.000</ele></trkpt>
      <trkpt lat="22.2154408665" lon="113.8754174521"><ele>83.000</ele></trkpt>
      <trkpt lat="22.2154685111" lon="113.8755072069"><ele>82.000</ele></trkpt>
      <trkpt lat="22.2154949552" lon="113.8755943981"><ele>82.000</ele></trkpt>
      <trkpt lat="22.2155129539" lon="113.8756367013"><ele>82.000</ele></trkpt>
      <trkpt lat="22.2155309421" lon="113.8756738710"><ele>83.000</ele></trkpt>
      <trkpt lat="22.2155525036" lon="113.8757046194"><ele>82.000</ele></trkpt>
      <trkpt lat="22.2155800166" lon="113.8757238058"><ele>82.000</ele></trkpt>
      <trkpt lat="22.2156147123" lon="113.8757506768"><ele>82.000</ele></trkpt>
      <trkpt lat="22.2156529960" lon="113.8757801054"><ele>84.000</ele></trkpt>
      <trkpt lat="22.2156829222" lon="113.8758121181"><ele>82.000</ele></trkpt>
      <trkpt lat="22.2157008852" lon="113.8758351744"><ele>84.000</ele></trkpt>
      <trkpt lat="22.2157152806" lon="113.8758672202"><ele>83.000</ele></trkpt>
      <trkpt lat="22.2157249041" lon="113.8759031257"><ele>83.000</ele></trkpt>
      <trkpt lat="22.2157297590" lon="113.8759441730"><ele>83.000</ele></trkpt>
      <trkpt lat="22.2157334277" lon="113.8759903563"><ele>83.000</ele></trkpt>
      <trkpt lat="22.2157371756" lon="113.8760788792"><ele>82.000</ele></trkpt>
      <trkpt lat="22.2157409471" lon="113.8761802335"><ele>82.000</ele></trkpt>
      <trkpt lat="22.2157434480" lon="113.8762405320"><ele>83.000</ele></trkpt>
      <trkpt lat="22.2157447375" lon="113.8762918520"><ele>83.000</ele></trkpt>
      <trkpt lat="22.2157436257" lon="113.8763367604"><ele>83.000</ele></trkpt>
      <trkpt lat="22.2157365174" lon="113.8763688531"><ele>82.000</ele></trkpt>
      <trkpt lat="22.2157222476" lon="113.8764048085"><ele>82.000</ele></trkpt>
      <trkpt lat="22.2157103665" lon="113.8764407598"><ele>82.000</ele></trkpt>
      <trkpt lat="22.2156877415" lon="113.8764805834"><ele>82.000</ele></trkpt>
      <trkpt lat="22.2156663057" lon="113.8765178372"><ele>82.000</ele></trkpt>
      <trkpt lat="22.2156508341" lon="113.8765499468"><ele>82.000</ele></trkpt>
      <trkpt lat="22.2156425215" lon="113.8765769094"><ele>82.000</ele></trkpt>
      <trkpt lat="22.2156390106" lon="113.8766166913"><ele>82.000</ele></trkpt>
      <trkpt lat="22.2156390792" lon="113.8766539003"><ele>82.000</ele></trkpt>
      <trkpt lat="22.2156463045" lon="113.8766846784"><ele>82.000</ele></trkpt>
      <trkpt lat="22.2156559184" lon="113.8767154514"><ele>83.000</ele></trkpt>
      <trkpt lat="22.2157255072" lon="113.8768769694"><ele>82.000</ele></trkpt>
      <trkpt lat="22.2157352361" lon="113.8769001321"><ele>82.000</ele></trkpt>
      <trkpt lat="22.2158095037" lon="113.8770769484"><ele>82.000</ele></trkpt>
      <trkpt lat="22.2158351747" lon="113.8771384054"><ele>82.000</ele></trkpt>
      <trkpt lat="22.2159091007" lon="113.8773153869"><ele>82.000</ele></trkpt>
      <trkpt lat="22.2159436575" lon="113.8774004125"><ele>82.000</ele></trkpt>
      <trkpt lat="22.2160159107" lon="113.8775781891"><ele>82.000</ele></trkpt>
      <trkpt lat="22.2160819144" lon="113.8777397146"><ele>82.000</ele></trkpt>
      <trkpt lat="22.2161083016" lon="113.8777961142"><ele>82.000</ele></trkpt>
      <trkpt lat="22.2161334791" lon="113.8778448174"><ele>82.000</ele></trkpt>
      <trkpt lat="22.2161550487" lon="113.8778806978"><ele>82.000</ele></trkpt>
      <trkpt lat="22.2161849651" lon="113.8779075785"><ele>83.000</ele></trkpt>
      <trkpt lat="22.2162184515" lon="113.8779267538"><ele>82.000</ele></trkpt>
      <trkpt lat="22.2162519191" lon="113.8779356640"><ele>82.000</ele></trkpt>
      <trkpt lat="22.2162853796" lon="113.8779407257"><ele>82.000</ele></trkpt>
      <trkpt lat="22.2163152465" lon="113.8779406624"><ele>82.000</ele></trkpt>
      <trkpt lat="22.2163522597" lon="113.8779290366"><ele>82.000</ele></trkpt>
      <trkpt lat="22.2163999973" lon="113.8779019904"><ele>82.000</ele></trkpt>
      <trkpt lat="22.2164596721" lon="113.8778697872"><ele>82.000</ele></trkpt>
      <trkpt lat="22.2165062244" lon="113.8778478769"><ele>82.000</ele></trkpt>
      <trkpt lat="22.2165456200" lon="113.8778323967"><ele>82.000</ele></trkpt>
      <trkpt lat="22.2165802517" lon="113.8778246244"><ele>83.000</ele></trkpt>
      <trkpt lat="22.2166196591" lon="113.8778155598"><ele>84.000</ele></trkpt>
      <trkpt lat="22.2166447423" lon="113.8778129403"><ele>84.000</ele></trkpt>
      <trkpt lat="22.2166734191" lon="113.8778154458"><ele>84.000</ele></trkpt>
      <trkpt lat="22.2166949378" lon="113.8778230982"><ele>84.000</ele></trkpt>
      <trkpt lat="22.2167188639" lon="113.8778410106"><ele>84.000</ele></trkpt>
      <trkpt lat="22.2167344348" lon="113.8778627902"><ele>83.000</ele></trkpt>
      <trkpt lat="22.2167416433" lon="113.8778845865"><ele>83.000</ele></trkpt>
      <trkpt lat="22.2167512593" lon="113.8779166430"><ele>82.000</ele></trkpt>
      <trkpt lat="22.2167561443" lon="113.8779743715"><ele>82.000</ele></trkpt>
      <trkpt lat="22.2167634863" lon="113.8780693033"><ele>82.000</ele></trkpt>
      <trkpt lat="22.2167707890" lon="113.8781424226"><ele>82.000</ele></trkpt>
      <trkpt lat="22.2167696460" lon="113.8781706524"><ele>82.000</ele></trkpt>
      <trkpt lat="22.2167661042" lon="113.8781937556"><ele>82.000</ele></trkpt>
      <trkpt lat="22.2167601620" lon="113.8782104482"><ele>82.000</ele></trkpt>
      <trkpt lat="22.2167530288" lon="113.8782297096"><ele>82.000</ele></trkpt>
      <trkpt lat="22.2167459036" lon="113.8782528194"><ele>82.000</ele></trkpt>
      <trkpt lat="22.2167364021" lon="113.8782836332"><ele>82.000</ele></trkpt>
      <trkpt lat="22.2167328635" lon="113.8783080196"><ele>82.000</ele></trkpt>
      <trkpt lat="22.2167305140" lon="113.8783298362"><ele>82.000</ele></trkpt>
      <trkpt lat="22.2167329624" lon="113.8783619078"><ele>82.000</ele></trkpt>
      <trkpt lat="22.2167354098" lon="113.8783939794"><ele>82.000</ele></trkpt>
      <trkpt lat="22.2167414376" lon="113.8784234772"><ele>82.000</ele></trkpt>
      <trkpt lat="22.2167462754" lon="113.8784555438"><ele>82.000</ele></trkpt>
      <trkpt lat="22.2167535230" lon="113.8784991527"><ele>80.000</ele></trkpt>
      <trkpt lat="22.2167667325" lon="113.8785363342"><ele>80.000</ele></trkpt>
      <trkpt lat="22.2167859251" lon="113.8785786357"><ele>80.000</ele></trkpt>
      <trkpt lat="22.2168039198" lon="113.8786196556"><ele>80.000</ele></trkpt>
      <trkpt lat="22.2168254854" lon="113.8786529700"><ele>82.000</ele></trkpt>
      <trkpt lat="22.2168877590" lon="113.8787349552"><ele>80.000</ele></trkpt>
      <trkpt lat="22.2169500232" lon="113.8788118080"><ele>82.000</ele></trkpt>
      <trkpt lat="22.2169991146" lon="113.8788720086"><ele>82.000</ele></trkpt>
      <trkpt lat="22.2170398282" lon="113.8789232458"><ele>82.000</ele></trkpt>
      <trkpt lat="22.2170673572" lon="113.8789514151"><ele>82.000</ele></trkpt>
      <trkpt lat="22.2170936797" lon="113.8789731722"><ele>82.000</ele></trkpt>
      <trkpt lat="22.2171247695" lon="113.8789885035"><ele>81.000</ele></trkpt>
      <trkpt lat="22.2171558476" lon="113.8789974190"><ele>81.000</ele></trkpt>
      <trkpt lat="22.2171833390" lon="113.8790050599"><ele>81.000</ele></trkpt>
      <trkpt lat="22.2172203790" lon="113.8790075480"><ele>80.000</ele></trkpt>
      <trkpt lat="22.2172562257" lon="113.8790113208"><ele>80.000</ele></trkpt>
      <trkpt lat="22.2172932611" lon="113.8790112426"><ele>80.000</ele></trkpt>
      <trkpt lat="22.2173219379" lon="113.8790137484"><ele>80.000</ele></trkpt>
      <trkpt lat="22.2173554007" lon="113.8790200935"><ele>82.000</ele></trkpt>
      <trkpt lat="22.2173888673" lon="113.8790290040"><ele>80.000</ele></trkpt>
      <trkpt lat="22.2174163776" lon="113.8790469092"><ele>80.000</ele></trkpt>
      <trkpt lat="22.2174522839" lon="113.8790827598"><ele>81.000</ele></trkpt>
      <trkpt lat="22.2174965736" lon="113.8791301403"><ele>80.000</ele></trkpt>
      <trkpt lat="22.2175851461" lon="113.8792210518"><ele>80.000</ele></trkpt>
      <trkpt lat="22.2176761103" lon="113.8793132416"><ele>82.000</ele></trkpt>
      <trkpt lat="22.2177790491" lon="113.8794208041"><ele>82.000</ele></trkpt>
      <trkpt lat="22.2178640325" lon="113.8795091572"><ele>80.000</ele></trkpt>
      <trkpt lat="22.2179334578" lon="113.8795821463"><ele>80.000</ele></trkpt>
      <trkpt lat="22.2179944978" lon="113.8796436056"><ele>80.000</ele></trkpt>
      <trkpt lat="22.2180399892" lon="113.8796948333"><ele>80.000</ele></trkpt>
      <trkpt lat="22.2180782989" lon="113.8797383782"><ele>80.000</ele></trkpt>
      <trkpt lat="22.2181154293" lon="113.8797909059"><ele>80.000</ele></trkpt>
      <trkpt lat="22.2181453875" lon="113.8798408832"><ele>82.000</ele></trkpt>
      <trkpt lat="22.2181717577" lon="113.8798883019"><ele>80.000</ele></trkpt>
      <trkpt lat="22.2182137294" lon="113.8799754639"><ele>80.000</ele></trkpt>
      <trkpt lat="22.2182736746" lon="113.8800908148"><ele>81.000</ele></trkpt>
      <trkpt lat="22.2183276381" lon="113.8802023298"><ele>80.000</ele></trkpt>
      <trkpt lat="22.2183708380" lon="113.8803074528"><ele>80.000</ele></trkpt>
      <trkpt lat="22.2183864342" lon="113.8803433457"><ele>80.000</ele></trkpt>
      <trkpt lat="22.2184080065" lon="113.8803805103"><ele>80.000</ele></trkpt>
      <trkpt lat="22.2184331692" lon="113.8804215158"><ele>80.000</ele></trkpt>
      <trkpt lat="22.2184535505" lon="113.8804612492"><ele>80.000</ele></trkpt>
      <trkpt lat="22.2184751088" lon="113.8804907148"><ele>80.000</ele></trkpt>
      <trkpt lat="22.2185002481" lon="113.8805188897"><ele>80.000</ele></trkpt>
      <trkpt lat="22.2185217947" lon="113.8805419405"><ele>80.000</ele></trkpt>
      <trkpt lat="22.2185433249" lon="113.8805560091"><ele>80.000</ele></trkpt>
      <trkpt lat="22.2185696262" lon="113.8805662183"><ele>80.000</ele></trkpt>
      <trkpt lat="22.2185971199" lon="113.8805751427"><ele>80.000</ele></trkpt>
      <trkpt lat="22.2186317727" lon="113.8805789194"><ele>80.000</ele></trkpt>
      <trkpt lat="22.2186688118" lon="113.8805814070"><ele>80.000</ele></trkpt>
      <trkpt lat="22.2187118223" lon="113.8805825999"><ele>80.000</ele></trkpt>
      <trkpt lat="22.2187536381" lon="113.8805837952"><ele>80.000</ele></trkpt>
      <trkpt lat="22.2187990451" lon="113.8805888325"><ele>80.000</ele></trkpt>
      <trkpt lat="22.2188420719" lon="113.8805990066"><ele>80.000</ele></trkpt>
      <trkpt lat="22.2188779452" lon="113.8806168947"><ele>80.000</ele></trkpt>
      <trkpt lat="22.2189078517" lon="113.8806386448"><ele>80.000</ele></trkpt>
      <trkpt lat="22.2189389670" lon="113.8806680905"><ele>80.000</ele></trkpt>
      <trkpt lat="22.2189665261" lon="113.8807129407"><ele>80.000</ele></trkpt>
      <trkpt lat="22.2190192291" lon="113.8807885323"><ele>80.000</ele></trkpt>
      <trkpt lat="22.2190539613" lon="113.8808359339"><ele>80.000</ele></trkpt>
      <trkpt lat="22.2190839005" lon="113.8808756474"><ele>80.000</ele></trkpt>
      <trkpt lat="22.2191150087" lon="113.8809012437"><ele>80.000</ele></trkpt>
      <trkpt lat="22.2191484972" lon="113.8809217032"><ele>80.000</ele></trkpt>
      <trkpt lat="22.2191855596" lon="113.8809370226"><ele>80.000</ele></trkpt>
      <trkpt lat="22.2192142410" lon="113.8809420951"><ele>80.000</ele></trkpt>
      <trkpt lat="22.2192512833" lon="113.8809458660"><ele>80.000</ele></trkpt>
      <trkpt lat="22.2192895078" lon="113.8809432204"><ele>80.000</ele></trkpt>
      <trkpt lat="22.2193480258" lon="113.8809315491"><ele>80.000</ele></trkpt>
      <trkpt lat="22.2194077478" lon="113.8809250090"><ele>80.000</ele></trkpt>
      <trkpt lat="22.2194411942" lon="113.8809223725"><ele>80.000</ele></trkpt>
      <trkpt lat="22.2194758438" lon="113.8809248661"><ele>80.000</ele></trkpt>
      <trkpt lat="22.2195081072" lon="113.8809286470"><ele>80.000</ele></trkpt>
      <trkpt lat="22.2195344093" lon="113.8809388572"><ele>80.000</ele></trkpt>
      <trkpt lat="22.2195583165" lon="113.8809465052"><ele>80.000</ele></trkpt>
      <trkpt lat="22.2195798490" lon="113.8809618572"><ele>80.000</ele></trkpt>
      <trkpt lat="22.2196037771" lon="113.8809810537"><ele>81.000</ele></trkpt>
      <trkpt lat="22.2196468832" lon="113.8810348538"><ele>82.000</ele></trkpt>
      <trkpt lat="22.2197259255" lon="113.8811411850"><ele>82.000</ele></trkpt>
      <trkpt lat="22.2198037697" lon="113.8812462357"><ele>82.000</ele></trkpt>
      <trkpt lat="22.2199043607" lon="113.8813769015"><ele>80.000</ele></trkpt>
      <trkpt lat="22.2199342849" lon="113.8814089164"><ele>80.000</ele></trkpt>
      <trkpt lat="22.2199654033" lon="113.8814396456"><ele>80.000</ele></trkpt>
      <trkpt lat="22.2199965012" lon="113.8814601104"><ele>80.000</ele></trkpt>
      <trkpt lat="22.2200311727" lon="113.8814741518"><ele>80.000</ele></trkpt>
      <trkpt lat="22.2200670319" lon="113.8814843412"><ele>81.000</ele></trkpt>
      <trkpt lat="22.2201040733" lon="113.8814881132"><ele>82.000</ele></trkpt>
      <trkpt lat="22.2201363250" lon="113.8814854793"><ele>82.000</ele></trkpt>
      <trkpt lat="22.2201745448" lon="113.8814802675"><ele>80.000</ele></trkpt>
      <trkpt lat="22.2202103644" lon="113.8814686439"><ele>82.000</ele></trkpt>
      <trkpt lat="22.2202449823" lon="113.8814531742"><ele>88.000</ele></trkpt>
      <trkpt lat="22.2202783976" lon="113.8814338575"><ele>85.000</ele></trkpt>
      <trkpt lat="22.2203117951" lon="113.8814042762"><ele>85.000</ele></trkpt>
      <trkpt lat="22.2203380287" lon="113.8813772764"><ele>83.000</ele></trkpt>
      <trkpt lat="22.2203666309" lon="113.8813387239"><ele>83.000</ele></trkpt>
      <trkpt lat="22.2203892580" lon="113.8812988997"><ele>82.000</ele></trkpt>
      <trkpt lat="22.2203963883" lon="113.8812783548"><ele>80.000</ele></trkpt>
      <trkpt lat="22.2204011253" lon="113.8812552495"><ele>80.000</ele></trkpt>
      <trkpt lat="22.2204058413" lon="113.8812205956"><ele>82.000</ele></trkpt>
      <trkpt lat="22.2204069545" lon="113.8811756847"><ele>82.000</ele></trkpt>
      <trkpt lat="22.2204150673" lon="113.8810383748"><ele>85.000</ele></trkpt>
      <trkpt lat="22.2204219946" lon="113.8809062010"><ele>85.000</ele></trkpt>
      <trkpt lat="22.2204289086" lon="113.8807663281"><ele>83.000</ele></trkpt>
      <trkpt lat="22.2204358156" lon="113.8806226057"><ele>81.000</ele></trkpt>
      <trkpt lat="22.2204403834" lon="113.8805071163"><ele>87.000</ele></trkpt>
      <trkpt lat="22.2204450432" lon="113.8804416680"><ele>88.000</ele></trkpt>
      <trkpt lat="22.2204473602" lon="113.8804018863"><ele>87.000</ele></trkpt>
      <trkpt lat="22.2204497006" lon="113.8803749365"><ele>87.000</ele></trkpt>
      <trkpt lat="22.2204556173" lon="113.8803441295"><ele>86.000</ele></trkpt>
      <trkpt lat="22.2204663256" lon="113.8803197285"><ele>87.000</ele></trkpt>
      <trkpt lat="22.2204794085" lon="113.8802876233"><ele>80.000</ele></trkpt>
      <trkpt lat="22.2205032431" lon="113.8802554955"><ele>80.000</ele></trkpt>
      <trkpt lat="22.2205283006" lon="113.8802387624"><ele>80.000</ele></trkpt>
      <trkpt lat="22.2205581277" lon="113.8802168865"><ele>80.000</ele></trkpt>
      <trkpt lat="22.2205831907" lon="113.8802027197"><ele>80.000</ele></trkpt>
      <trkpt lat="22.2206118347" lon="113.8801872622"><ele>80.000</ele></trkpt>
      <trkpt lat="22.2206357068" lon="113.8801756643"><ele>80.000</ele></trkpt>
      <trkpt lat="22.2206607853" lon="113.8801704788"><ele>84.000</ele></trkpt>
      <trkpt lat="22.2206787032" lon="113.8801691579"><ele>84.000</ele></trkpt>
      <trkpt lat="22.2206990177" lon="113.8801716816"><ele>83.000</ele></trkpt>
      <trkpt lat="22.2207193429" lon="113.8801806202"><ele>82.000</ele></trkpt>
      <trkpt lat="22.2207408755" lon="113.8801959722"><ele>80.000</ele></trkpt>
      <trkpt lat="22.2207947080" lon="113.8802356358"><ele>81.000</ele></trkpt>
      <trkpt lat="22.2208557206" lon="113.8802816994"><ele>80.000</ele></trkpt>
      <trkpt lat="22.2208808468" lon="113.8803021767"><ele>80.000</ele></trkpt>
      <trkpt lat="22.2208952109" lon="113.8803175437"><ele>80.000</ele></trkpt>
      <trkpt lat="22.2209131723" lon="113.8803406015"><ele>80.000</ele></trkpt>
      <trkpt lat="22.2209311207" lon="113.8803559610"><ele>80.000</ele></trkpt>
      <trkpt lat="22.2209490644" lon="113.8803687542"><ele>80.000</ele></trkpt>
      <trkpt lat="22.2209693952" lon="113.8803802602"><ele>80.000</ele></trkpt>
      <trkpt lat="22.2209885257" lon="113.8803892013"><ele>80.000</ele></trkpt>
      <trkpt lat="22.2210076500" lon="113.8803942939"><ele>80.000</ele></trkpt>
      <trkpt lat="22.2210327379" lon="113.8803942412"><ele>80.000</ele></trkpt>
      <trkpt lat="22.2210494564" lon="113.8803903565"><ele>80.000</ele></trkpt>
      <trkpt lat="22.2210733378" lon="113.8803838913"><ele>80.000</ele></trkpt>
      <trkpt lat="22.2210960231" lon="113.8803761445"><ele>80.000</ele></trkpt>
      <trkpt lat="22.2211139223" lon="113.8803645591"><ele>78.000</ele></trkpt>
      <trkpt lat="22.2211413693" lon="113.8803478209"><ele>80.000</ele></trkpt>
      <trkpt lat="22.2211676098" lon="113.8803246693"><ele>80.000</ele></trkpt>
      <trkpt lat="22.2212129279" lon="113.8802809485"><ele>82.000</ele></trkpt>
      <trkpt lat="22.2212677938" lon="113.8802320747"><ele>80.000</ele></trkpt>
      <trkpt lat="22.2213500793" lon="113.8801510654"><ele>78.000</ele></trkpt>
      <trkpt lat="22.2214252198" lon="113.8800829020"><ele>80.000</ele></trkpt>
      <trkpt lat="22.2214633951" lon="113.8800533102"><ele>79.000</ele></trkpt>
      <trkpt lat="22.2215027708" lon="113.8800262822"><ele>82.000</ele></trkpt>
      <trkpt lat="22.2215326025" lon="113.8800069725"><ele>78.000</ele></trkpt>
      <trkpt lat="22.2215636491" lon="113.8799992089"><ele>80.000</ele></trkpt>
      <trkpt lat="22.2215970838" lon="113.8799901562"><ele>79.000</ele></trkpt>
      <trkpt lat="22.2216305325" lon="113.8799888026"><ele>78.000</ele></trkpt>
      <trkpt lat="22.2216580122" lon="113.8799900280"><ele>78.000</ele></trkpt>
      <trkpt lat="22.2216831024" lon="113.8799912584"><ele>78.000</ele></trkpt>
      <trkpt lat="22.2217117769" lon="113.8799924812"><ele>78.000</ele></trkpt>
      <trkpt lat="22.2217500233" lon="113.8800013822"><ele>78.000</ele></trkpt>
      <trkpt lat="22.2218217363" lon="113.8800191950"><ele>78.000</ele></trkpt>
      <trkpt lat="22.2218755173" lon="113.8800306306"><ele>79.000</ele></trkpt>
      <trkpt lat="22.2219257056" lon="113.8800369401"><ele>79.000</ele></trkpt>
      <trkpt lat="22.2219878335" lon="113.8800393757"><ele>79.000</ele></trkpt>
      <trkpt lat="22.2220403916" lon="113.8800354155"><ele>80.000</ele></trkpt>
      <trkpt lat="22.2220917489" lon="113.8800276092"><ele>81.000</ele></trkpt>
      <trkpt lat="22.2221729535" lon="113.8800094745"><ele>78.000</ele></trkpt>
      <trkpt lat="22.2222493682" lon="113.8799849339"><ele>79.000</ele></trkpt>
      <trkpt lat="22.2222983173" lon="113.8799668680"><ele>78.000</ele></trkpt>
      <trkpt lat="22.2223400979" lon="113.8799488162"><ele>78.000</ele></trkpt>
      <trkpt lat="22.2223795054" lon="113.8799397508"><ele>79.000</ele></trkpt>
      <trkpt lat="22.2224117524" lon="113.8799345511"><ele>80.000</ele></trkpt>
      <trkpt lat="22.2224463958" lon="113.8799331950"><ele>81.000</ele></trkpt>
      <trkpt lat="22.2224786545" lon="113.8799344103"><ele>81.000</ele></trkpt>
      <trkpt lat="22.2225097231" lon="113.8799381935"><ele>81.000</ele></trkpt>
      <trkpt lat="22.2225431873" lon="113.8799458223"><ele>79.000</ele></trkpt>
      <trkpt lat="22.2225742723" lon="113.8799585880"><ele>79.000</ele></trkpt>
      <trkpt lat="22.2226125328" lon="113.8799751881"><ele>81.000</ele></trkpt>
      <trkpt lat="22.2226687384" lon="113.8800058648"><ele>78.000</ele></trkpt>
      <trkpt lat="22.2227213715" lon="113.8800429650"><ele>78.000</ele></trkpt>
      <trkpt lat="22.2227608688" lon="113.8800826584"><ele>78.000</ele></trkpt>
      <trkpt lat="22.2227920123" lon="113.8801275021"><ele>80.000</ele></trkpt>
      <trkpt lat="22.2228231525" lon="113.8801710637"><ele>78.000</ele></trkpt>
      <trkpt lat="22.2228495039" lon="113.8802082184"><ele>78.000</ele></trkpt>
      <trkpt lat="22.2228770257" lon="113.8802325404"><ele>78.000</ele></trkpt>
      <trkpt lat="22.2229057398" lon="113.8802555758"><ele>78.000</ele></trkpt>
      <trkpt lat="22.2229380257" lon="113.8802721887"><ele>80.000</ele></trkpt>
      <trkpt lat="22.2229667150" lon="113.8802811108"><ele>78.000</ele></trkpt>
      <trkpt lat="22.2229930093" lon="113.8802874706"><ele>78.000</ele></trkpt>
      <trkpt lat="22.2230204913" lon="113.8802899792"><ele>78.000</ele></trkpt>
      <trkpt lat="22.2230443821" lon="113.8802886458"><ele>78.000</ele></trkpt>
      <trkpt lat="22.2230706563" lon="113.8802834587"><ele>78.000</ele></trkpt>
      <trkpt lat="22.2230981219" lon="113.8802769849"><ele>78.000</ele></trkpt>
      <trkpt lat="22.2231685653" lon="113.8802537400"><ele>78.000</ele></trkpt>
      <trkpt lat="22.2232390110" lon="113.8802317792"><ele>78.000</ele></trkpt>
      <trkpt lat="22.2232784147" lon="113.8802201484"><ele>78.000</ele></trkpt>
      <trkpt lat="22.2233130503" lon="113.8802149427"><ele>78.000</ele></trkpt>
      <trkpt lat="22.2233441072" lon="113.8802123110"><ele>78.000</ele></trkpt>
      <trkpt lat="22.2233715845" lon="113.8802122532"><ele>78.000</ele></trkpt>
      <trkpt lat="22.2234038478" lon="113.8802160350"><ele>78.000</ele></trkpt>
      <trkpt lat="22.2234313369" lon="113.8802223923"><ele>78.000</ele></trkpt>
      <trkpt lat="22.2234564560" lon="113.8802390202"><ele>78.000</ele></trkpt>
      <trkpt lat="22.2234899460" lon="113.8802607634"><ele>78.000</ele></trkpt>
      <trkpt lat="22.2235760637" lon="113.8803157566"><ele>78.000</ele></trkpt>
      <trkpt lat="22.2236430514" lon="113.8803630918"><ele>78.000</ele></trkpt>
      <trkpt lat="22.2236932949" lon="113.8804001974"><ele>78.000</ele></trkpt>
      <trkpt lat="22.2237184094" lon="113.8804142590"><ele>80.000</ele></trkpt>
      <trkpt lat="22.2237435160" lon="113.8804244720"><ele>80.000</ele></trkpt>
      <trkpt lat="22.2237686155" lon="113.8804308343"><ele>79.000</ele></trkpt>
      <trkpt lat="22.2237961008" lon="113.8804346262"><ele>79.000</ele></trkpt>
      <trkpt lat="22.2238331398" lon="113.8804371148"><ele>78.000</ele></trkpt>
      <trkpt lat="22.2238701845" lon="113.8804421689"><ele>78.000</ele></trkpt>
      <trkpt lat="22.2239000747" lon="113.8804549382"><ele>77.000</ele></trkpt>
      <trkpt lat="22.2239287865" lon="113.8804766906"><ele>80.000</ele></trkpt>
      <trkpt lat="22.2239551228" lon="113.8805061473"><ele>79.000</ele></trkpt>
      <trkpt lat="22.2239982128" lon="113.8805509664"><ele>78.000</ele></trkpt>
      <trkpt lat="22.2240353243" lon="113.8805932327"><ele>78.000</ele></trkpt>
      <trkpt lat="22.2240544860" lon="113.8806188549"><ele>78.000</ele></trkpt>
      <trkpt lat="22.2240652901" lon="113.8806470620"><ele>78.000</ele></trkpt>
      <trkpt lat="22.2240749009" lon="113.8806765539"><ele>78.000</ele></trkpt>
      <trkpt lat="22.2240809307" lon="113.8807073365"><ele>78.000</ele></trkpt>
      <trkpt lat="22.2240833753" lon="113.8807381266"><ele>78.000</ele></trkpt>
      <trkpt lat="22.2240834360" lon="113.8807714882"><ele>76.000</ele></trkpt>
      <trkpt lat="22.2240775216" lon="113.8808035791"><ele>76.000</ele></trkpt>
      <trkpt lat="22.2240704138" lon="113.8808369548"><ele>76.000</ele></trkpt>
      <trkpt lat="22.2240632929" lon="113.8808626331"><ele>77.000</ele></trkpt>
      <trkpt lat="22.2240466351" lon="113.8808998794"><ele>76.000</ele></trkpt>
      <trkpt lat="22.2240299539" lon="113.8809242936"><ele>76.000</ele></trkpt>
      <trkpt lat="22.2240132984" lon="113.8809628231"><ele>76.000</ele></trkpt>
      <trkpt lat="22.2239990137" lon="113.8809910819"><ele>76.000</ele></trkpt>
      <trkpt lat="22.2239895149" lon="113.8810231803"><ele>76.000</ele></trkpt>
      <trkpt lat="22.2239800176" lon="113.8810565620"><ele>76.000</ele></trkpt>
      <trkpt lat="22.2239693264" lon="113.8810899461"><ele>77.000</ele></trkpt>
      <trkpt lat="22.2239586539" lon="113.8811335949"><ele>77.000</ele></trkpt>
      <trkpt lat="22.2239491823" lon="113.8811810909"><ele>77.000</ele></trkpt>
      <trkpt lat="22.2239432840" lon="113.8812221632"><ele>77.000</ele></trkpt>
      <trkpt lat="22.2239409622" lon="113.8812593794"><ele>77.000</ele></trkpt>
      <trkpt lat="22.2239362601" lon="113.8813017325"><ele>77.000</ele></trkpt>
      <trkpt lat="22.2239363277" lon="113.8813389437"><ele>76.000</ele></trkpt>
      <trkpt lat="22.2239411882" lon="113.8813838432"><ele>77.000</ele></trkpt>
      <trkpt lat="22.2239568192" lon="113.8814389858"><ele>77.000</ele></trkpt>
      <trkpt lat="22.2239748466" lon="113.8814979722"><ele>78.000</ele></trkpt>
      <trkpt lat="22.2239988632" lon="113.8815659285"><ele>76.000</ele></trkpt>
      <trkpt lat="22.2240216882" lon="113.8816351696"><ele>78.000</ele></trkpt>
      <trkpt lat="22.2240433175" lon="113.8817044142"><ele>76.000</ele></trkpt>
      <trkpt lat="22.2240505907" lon="113.8817621398"><ele>77.000</ele></trkpt>
      <trkpt lat="22.2240626559" lon="113.8818275548"><ele>78.000</ele></trkpt>
      <trkpt lat="22.2240783240" lon="113.8819032280"><ele>76.000</ele></trkpt>
      <trkpt lat="22.2240975901" lon="113.8819865910"><ele>78.000</ele></trkpt>
      <trkpt lat="22.2241144496" lon="113.8820609786"><ele>80.000</ele></trkpt>
      <trkpt lat="22.2241265087" lon="113.8821225440"><ele>78.000</ele></trkpt>
      <trkpt lat="22.2241361378" lon="113.8821623007"><ele>79.000</ele></trkpt>
      <trkpt lat="22.2241409702" lon="113.8821918027"><ele>79.000</ele></trkpt>
      <trkpt lat="22.2241350499" lon="113.8822213281"><ele>79.000</ele></trkpt>
      <trkpt lat="22.2241171993" lon="113.8822598590"><ele>82.000</ele></trkpt>
      <trkpt lat="22.2240922160" lon="113.8823176531"><ele>78.000</ele></trkpt>
      <trkpt lat="22.2240696259" lon="113.8823780076"><ele>79.000</ele></trkpt>
      <trkpt lat="22.2240458373" lon="113.8824357982"><ele>78.000</ele></trkpt>
      <trkpt lat="22.2240363360" lon="113.8824666133"><ele>78.000</ele></trkpt>
      <trkpt lat="22.2240328005" lon="113.8824935663"><ele>78.000</ele></trkpt>
      <trkpt lat="22.2240340440" lon="113.8825205103"><ele>78.000</ele></trkpt>
      <trkpt lat="22.2240377303" lon="113.8825769603"><ele>78.000</ele></trkpt>
      <trkpt lat="22.2240390332" lon="113.8826372649"><ele>78.000</ele></trkpt>
      <trkpt lat="22.2240391608" lon="113.8827078377"><ele>78.000</ele></trkpt>
      <trkpt lat="22.2240333086" lon="113.8827745733"><ele>77.000</ele></trkpt>
      <trkpt lat="22.2240298287" lon="113.8828323214"><ele>77.000</ele></trkpt>
      <trkpt lat="22.2240263094" lon="113.8828682569"><ele>80.000</ele></trkpt>
      <trkpt lat="22.2240275760" lon="113.8829080311"><ele>78.000</ele></trkpt>
      <trkpt lat="22.2240300119" lon="113.8829336894"><ele>78.000</ele></trkpt>
      <trkpt lat="22.2240372290" lon="113.8829606200"><ele>78.000</ele></trkpt>
      <trkpt lat="22.2240432482" lon="113.8829862699"><ele>78.000</ele></trkpt>
      <trkpt lat="22.2240504769" lon="113.8830196165"><ele>78.000</ele></trkpt>
      <trkpt lat="22.2240564938" lon="113.8830439842"><ele>79.000</ele></trkpt>
      <trkpt lat="22.2240697379" lon="113.8831004143"><ele>82.000</ele></trkpt>
      <trkpt lat="22.2240841842" lon="113.8831619747"><ele>86.000</ele></trkpt>
      <trkpt lat="22.2240938071" lon="113.8831978829"><ele>88.000</ele></trkpt>
      <trkpt lat="22.2241034151" lon="113.8832260917"><ele>90.000</ele></trkpt>
      <trkpt lat="22.2241130379" lon="113.8832619999"><ele>90.000</ele></trkpt>
      <trkpt lat="22.2241226574" lon="113.8832966248"><ele>91.000</ele></trkpt>
      <trkpt lat="22.2241322840" lon="113.8833350994"><ele>90.000</ele></trkpt>
      <trkpt lat="22.2241407282" lon="113.8833799915"><ele>90.000</ele></trkpt>
      <trkpt lat="22.2241504195" lon="113.8834543932"><ele>93.000</ele></trkpt>
      <trkpt lat="22.2241601200" lon="113.8835339277"><ele>94.000</ele></trkpt>
      <trkpt lat="22.2241661955" lon="113.8835903728"><ele>92.000</ele></trkpt>
      <trkpt lat="22.2241710669" lon="113.8836416885"><ele>90.000</ele></trkpt>
      <trkpt lat="22.2241711432" lon="113.8836840326"><ele>88.000</ele></trkpt>
      <trkpt lat="22.2241712172" lon="113.8837250925"><ele>88.000</ele></trkpt>
      <trkpt lat="22.2241676977" lon="113.8837610280"><ele>90.000</ele></trkpt>
      <trkpt lat="22.2241653776" lon="113.8837995265"><ele>90.000</ele></trkpt>
      <trkpt lat="22.2241546881" lon="113.8838341937"><ele>90.000</ele></trkpt>
      <trkpt lat="22.2241368164" lon="113.8838611764"><ele>90.000</ele></trkpt>
      <trkpt lat="22.2241153636" lon="113.8838894508"><ele>92.000</ele></trkpt>
      <trkpt lat="22.2240843667" lon="113.8839254424"><ele>91.000</ele></trkpt>
      <trkpt lat="22.2240545484" lon="113.8839524509"><ele>92.000</ele></trkpt>
      <trkpt lat="22.2240295058" lon="113.8839781654"><ele>92.000</ele></trkpt>
      <trkpt lat="22.2240032717" lon="113.8840051654"><ele>92.000</ele></trkpt>
      <trkpt lat="22.2239865762" lon="113.8840218810"><ele>92.000</ele></trkpt>
      <trkpt lat="22.2239782577" lon="113.8840462784"><ele>92.000</ele></trkpt>
      <trkpt lat="22.2239735226" lon="113.8840706674"><ele>92.000</ele></trkpt>
      <trkpt lat="22.2239747659" lon="113.8840976114"><ele>92.000</ele></trkpt>
      <trkpt lat="22.2239807835" lon="113.8841219781"><ele>92.000</ele></trkpt>
      <trkpt lat="22.2239928062" lon="113.8841642964"><ele>94.000</ele></trkpt>
      <trkpt lat="22.2240096217" lon="113.8842143041"><ele>94.000</ele></trkpt>
      <trkpt lat="22.2240384507" lon="113.8843014982"><ele>102.000</ele></trkpt>
      <trkpt lat="22.2240660757" lon="113.8843835620"><ele>101.000</ele></trkpt>
      <trkpt lat="22.2240744888" lon="113.8844117734"><ele>101.000</ele></trkpt>
      <trkpt lat="22.2240805040" lon="113.8844348569"><ele>104.000</ele></trkpt>
      <trkpt lat="22.2240829419" lon="113.8844617984"><ele>104.000</ele></trkpt>
      <trkpt lat="22.2240865668" lon="113.8844848869"><ele>101.000</ele></trkpt>
      <trkpt lat="22.2240854236" lon="113.8845131181"><ele>101.000</ele></trkpt>
      <trkpt lat="22.2240818878" lon="113.8845400721"><ele>102.000</ele></trkpt>
      <trkpt lat="22.2240771665" lon="113.8845721603"><ele>102.000</ele></trkpt>
      <trkpt lat="22.2240700473" lon="113.8845991207"><ele>96.000</ele></trkpt>
      <trkpt lat="22.2240403279" lon="113.8846813034"><ele>98.000</ele></trkpt>
      <trkpt lat="22.2240094115" lon="113.8847622053"><ele>96.000</ele></trkpt>
      <trkpt lat="22.2239796805" lon="113.8848379718"><ele>98.000</ele></trkpt>
      <trkpt lat="22.2239606576" lon="113.8848893369"><ele>99.000</ele></trkpt>
      <trkpt lat="22.2239452097" lon="113.8849355618"><ele>99.000</ele></trkpt>
      <trkpt lat="22.2239345270" lon="113.8849740775"><ele>98.000</ele></trkpt>
      <trkpt lat="22.2239262305" lon="113.8850113060"><ele>98.000</ele></trkpt>
      <trkpt lat="22.2239262696" lon="113.8850331196"><ele>100.000</ele></trkpt>
      <trkpt lat="22.2239275058" lon="113.8850562130"><ele>100.000</ele></trkpt>
      <trkpt lat="22.2239311314" lon="113.8850793025"><ele>98.000</ele></trkpt>
      <trkpt lat="22.2239359564" lon="113.8851049549"><ele>98.000</ele></trkpt>
      <trkpt lat="22.2239443556" lon="113.8851254680"><ele>100.000</ele></trkpt>
      <trkpt lat="22.2239515608" lon="113.8851459836"><ele>100.000</ele></trkpt>
      <trkpt lat="22.2239647505" lon="113.8851729019"><ele>100.000</ele></trkpt>
      <trkpt lat="22.2239839230" lon="113.8852049408"><ele>100.000</ele></trkpt>
      <trkpt lat="22.2240102884" lon="113.8852510791"><ele>102.000</ele></trkpt>
      <trkpt lat="22.2240438512" lon="113.8853138835"><ele>106.000</ele></trkpt>
      <trkpt lat="22.2240846064" lon="113.8853895043"><ele>106.000</ele></trkpt>
      <trkpt lat="22.2241265462" lon="113.8854599908"><ele>98.000</ele></trkpt>
      <trkpt lat="22.2241708893" lon="113.8855381707"><ele>98.000</ele></trkpt>
      <trkpt lat="22.2242116389" lon="113.8856112251"><ele>94.000</ele></trkpt>
      <trkpt lat="22.2242440008" lon="113.8856701835"><ele>94.000</ele></trkpt>
      <trkpt lat="22.2242667805" lon="113.8857150463"><ele>94.000</ele></trkpt>
      <trkpt lat="22.2242883690" lon="113.8857624779"><ele>93.000</ele></trkpt>
      <trkpt lat="22.2243051680" lon="113.8858035034"><ele>94.000</ele></trkpt>
      <trkpt lat="22.2243219693" lon="113.8858458130"><ele>93.000</ele></trkpt>
      <trkpt lat="22.2243411715" lon="113.8858945329"><ele>92.000</ele></trkpt>
      <trkpt lat="22.2243555732" lon="113.8859317136"><ele>94.000</ele></trkpt>
      <trkpt lat="22.2243651908" lon="113.8859650556"><ele>92.000</ele></trkpt>
      <trkpt lat="22.2243724203" lon="113.8859996857"><ele>92.000</ele></trkpt>
      <trkpt lat="22.2243736793" lon="113.8860356114"><ele>90.000</ele></trkpt>
      <trkpt lat="22.2243737389" lon="113.8860689730"><ele>90.000</ele></trkpt>
      <trkpt lat="22.2243737917" lon="113.8860984851"><ele>90.000</ele></trkpt>
      <trkpt lat="22.2243666929" lon="113.8861369934"><ele>90.000</ele></trkpt>
      <trkpt lat="22.2243607925" lon="113.8861780667"><ele>90.000</ele></trkpt>
      <trkpt lat="22.2243525150" lon="113.8862255600"><ele>88.000</ele></trkpt>
      <trkpt lat="22.2243454153" lon="113.8862640683"><ele>89.000</ele></trkpt>
      <trkpt lat="22.2243383256" lon="113.8863077105"><ele>88.000</ele></trkpt>
      <trkpt lat="22.2243336154" lon="113.8863462139"><ele>90.000</ele></trkpt>
      <trkpt lat="22.2243289097" lon="113.8863872847"><ele>90.000</ele></trkpt>
      <trkpt lat="22.2243266082" lon="113.8864360489"><ele>88.000</ele></trkpt>
      <trkpt lat="22.2243219391" lon="113.8864976492"><ele>86.000</ele></trkpt>
      <trkpt lat="22.2243184464" lon="113.8865489813"><ele>84.000</ele></trkpt>
      <trkpt lat="22.2243185472" lon="113.8866054399"><ele>84.000</ele></trkpt>
      <trkpt lat="22.2243174417" lon="113.8866554848"><ele>84.000</ele></trkpt>
      <trkpt lat="22.2243187051" lon="113.8866939759"><ele>83.000</ele></trkpt>
      <trkpt lat="22.2243199730" lon="113.8867350344"><ele>82.000</ele></trkpt>
      <trkpt lat="22.2243271987" lon="113.8867670981"><ele>82.000</ele></trkpt>
      <trkpt lat="22.2243344075" lon="113.8867901793"><ele>82.000</ele></trkpt>
      <trkpt lat="22.2243475922" lon="113.8868145315"><ele>83.000</ele></trkpt>
      <trkpt lat="22.2243619557" lon="113.8868299006"><ele>80.000</ele></trkpt>
      <trkpt lat="22.2243822929" lon="113.8868452564"><ele>80.000</ele></trkpt>
      <trkpt lat="22.2244062158" lon="113.8868618881"><ele>82.000</ele></trkpt>
      <trkpt lat="22.2244253606" lon="113.8868785287"><ele>82.000</ele></trkpt>
      <trkpt lat="22.2244421273" lon="113.8869015913"><ele>82.000</ele></trkpt>
      <trkpt lat="22.2244577015" lon="113.8869259395"><ele>84.000</ele></trkpt>
      <trkpt lat="22.2244708817" lon="113.8869477252"><ele>84.000</ele></trkpt>
      <trkpt lat="22.2244804867" lon="113.8869746522"><ele>82.000</ele></trkpt>
      <trkpt lat="22.2244901019" lon="113.8870067110"><ele>82.000</ele></trkpt>
      <trkpt lat="22.2244937378" lon="113.8870362157"><ele>82.000</ele></trkpt>
      <trkpt lat="22.2244973700" lon="113.8870631540"><ele>80.000</ele></trkpt>
      <trkpt lat="22.2245021970" lon="113.8870900898"><ele>80.000</ele></trkpt>
      <trkpt lat="22.2245058452" lon="113.8871260105"><ele>80.000</ele></trkpt>
      <trkpt lat="22.2245130630" lon="113.8871542247"><ele>80.000</ele></trkpt>
      <trkpt lat="22.2245274493" lon="113.8871824250"><ele>80.000</ele></trkpt>
      <trkpt lat="22.2245466261" lon="113.8872170297"><ele>78.000</ele></trkpt>
      <trkpt lat="22.2245753918" lon="113.8872695799"><ele>74.000</ele></trkpt>
      <trkpt lat="22.2246101312" lon="113.8873221168"><ele>73.000</ele></trkpt>
      <trkpt lat="22.2246400666" lon="113.8873605501"><ele>72.000</ele></trkpt>
      <trkpt lat="22.2246676079" lon="113.8873964219"><ele>76.000</ele></trkpt>
      <trkpt lat="22.2246963347" lon="113.8874271584"><ele>77.000</ele></trkpt>
      <trkpt lat="22.2247346461" lon="113.8874732729"><ele>78.000</ele></trkpt>
      <trkpt lat="22.2247681588" lon="113.8875078493"><ele>78.000</ele></trkpt>
      <trkpt lat="22.2248100406" lon="113.8875462582"><ele>78.000</ele></trkpt>
      <trkpt lat="22.2248566969" lon="113.8875820898"><ele>78.000</ele></trkpt>
      <trkpt lat="22.2249009545" lon="113.8876127945"><ele>78.000</ele></trkpt>
      <trkpt lat="22.2249679311" lon="113.8876550017"><ele>78.000</ele></trkpt>
      <trkpt lat="22.2250396875" lon="113.8876971982"><ele>78.000</ele></trkpt>
      <trkpt lat="22.2250911104" lon="113.8877266050"><ele>78.000</ele></trkpt>
      <trkpt lat="22.2251377575" lon="113.8877573049"><ele>78.000</ele></trkpt>
      <trkpt lat="22.2251748398" lon="113.8877841757"><ele>78.000</ele></trkpt>
      <trkpt lat="22.2251999696" lon="113.8878072204"><ele>78.000</ele></trkpt>
      <trkpt lat="22.2252274994" lon="113.8878366763"><ele>78.000</ele></trkpt>
      <trkpt lat="22.2252598127" lon="113.8878686889"><ele>80.000</ele></trkpt>
      <trkpt lat="22.2253196580" lon="113.8879314406"><ele>78.000</ele></trkpt>
      <trkpt lat="22.2253687393" lon="113.8879877993"><ele>77.000</ele></trkpt>
      <trkpt lat="22.2254034534" lon="113.8880262222"><ele>75.000</ele></trkpt>
      <trkpt lat="22.2254465322" lon="113.8880659121"><ele>80.000</ele></trkpt>
      <trkpt lat="22.2254764537" lon="113.8880966465"><ele>79.000</ele></trkpt>
      <trkpt lat="22.2255039789" lon="113.8881235360"><ele>82.000</ele></trkpt>
      <trkpt lat="22.2255279253" lon="113.8881529994"><ele>82.000</ele></trkpt>
      <trkpt lat="22.2255459061" lon="113.8881876079"><ele>82.000</ele></trkpt>
      <trkpt lat="22.2255555187" lon="113.8882183838"><ele>80.000</ele></trkpt>
      <trkpt lat="22.2255603432" lon="113.8882440376"><ele>80.000</ele></trkpt>
      <trkpt lat="22.2255603888" lon="113.8882697002"><ele>78.000</ele></trkpt>
      <trkpt lat="22.2255544651" lon="113.8882979415"><ele>78.000</ele></trkpt>
      <trkpt lat="22.2255437497" lon="113.8883184942"><ele>78.000</ele></trkpt>
      <trkpt lat="22.2255282690" lon="113.8883467550"><ele>78.000</ele></trkpt>
      <trkpt lat="22.2255068122" lon="113.8883737458"><ele>78.000</ele></trkpt>
      <trkpt lat="22.2254793804" lon="113.8883994646"><ele>77.000</ele></trkpt>
      <trkpt lat="22.2254543266" lon="113.8884187633"><ele>80.000</ele></trkpt>
      <trkpt lat="22.2254328562" lon="113.8884380537"><ele>80.000</ele></trkpt>
      <trkpt lat="22.2254066100" lon="113.8884586381"><ele>81.000</ele></trkpt>
      <trkpt lat="22.2253875314" lon="113.8884792078"><ele>82.000</ele></trkpt>
      <trkpt lat="22.2253648944" lon="113.8885138994"><ele>84.000</ele></trkpt>
      <trkpt lat="22.2253422497" lon="113.8885447412"><ele>81.000</ele></trkpt>
      <trkpt lat="22.2253243862" lon="113.8885768566"><ele>83.000</ele></trkpt>
      <trkpt lat="22.2253065319" lon="113.8886141038"><ele>86.000</ele></trkpt>
      <trkpt lat="22.2252970316" lon="113.8886462020"><ele>84.000</ele></trkpt>
      <trkpt lat="22.2252815781" lon="113.8886898614"><ele>86.000</ele></trkpt>
      <trkpt lat="22.2252697066" lon="113.8887322293"><ele>86.000</ele></trkpt>
      <trkpt lat="22.2252590365" lon="113.8887784445"><ele>88.000</ele></trkpt>
      <trkpt lat="22.2252471967" lon="113.8888387765"><ele>86.000</ele></trkpt>
      <trkpt lat="22.2252389085" lon="113.8888811380"><ele>89.000</ele></trkpt>
      <trkpt lat="22.2252282361" lon="113.8889260699"><ele>90.000</ele></trkpt>
      <trkpt lat="22.2252211458" lon="113.8889697113"><ele>91.000</ele></trkpt>
      <trkpt lat="22.2252104771" lon="113.8890172096"><ele>88.000</ele></trkpt>
      <trkpt lat="22.2252009972" lon="113.8890608558"><ele>91.000</ele></trkpt>
      <trkpt lat="22.2251879194" lon="113.8890968109"><ele>94.000</ele></trkpt>
      <trkpt lat="22.2251676686" lon="113.8891302143"><ele>92.000</ele></trkpt>
      <trkpt lat="22.2251474119" lon="113.8891597679"><ele>94.000</ele></trkpt>
      <trkpt lat="22.2251211670" lon="113.8891816353"><ele>94.000</ele></trkpt>
      <trkpt lat="22.2250937214" lon="113.8891996555"><ele>94.000</ele></trkpt>
      <trkpt lat="22.2250614877" lon="113.8892125526"><ele>94.000</ele></trkpt>
      <trkpt lat="22.2250292346" lon="113.8892139016"><ele>94.000</ele></trkpt>
      <trkpt lat="22.2249921947" lon="113.8892114106"><ele>94.000</ele></trkpt>
      <trkpt lat="22.2249527617" lon="113.8892063582"><ele>94.000</ele></trkpt>
      <trkpt lat="22.2249157060" lon="113.8891948857"><ele>94.000</ele></trkpt>
      <trkpt lat="22.2248583255" lon="113.8891744721"><ele>91.000</ele></trkpt>
      <trkpt lat="22.2248021511" lon="113.8891604721"><ele>87.000</ele></trkpt>
      <trkpt lat="22.2247651044" lon="113.8891541326"><ele>87.000</ele></trkpt>
      <trkpt lat="22.2247208969" lon="113.8891516563"><ele>87.000</ele></trkpt>
      <trkpt lat="22.2246934309" lon="113.8891581275"><ele>88.000</ele></trkpt>
      <trkpt lat="22.2246635936" lon="113.8891748693"><ele>88.000</ele></trkpt>
      <trkpt lat="22.2246218369" lon="113.8892070331"><ele>90.000</ele></trkpt>
      <trkpt lat="22.2245944230" lon="113.8892430173"><ele>95.000</ele></trkpt>
      <trkpt lat="22.2245622438" lon="113.8892867096"><ele>96.000</ele></trkpt>
      <trkpt lat="22.2245348458" lon="113.8893316753"><ele>95.000</ele></trkpt>
      <trkpt lat="22.2245134184" lon="113.8893753466"><ele>95.000</ele></trkpt>
      <trkpt lat="22.2245003315" lon="113.8894061686"><ele>95.000</ele></trkpt>
      <trkpt lat="22.2244944221" lon="113.8894421080"><ele>95.000</ele></trkpt>
      <trkpt lat="22.2244933090" lon="113.8894883043"><ele>93.000</ele></trkpt>
      <trkpt lat="22.2245005898" lon="113.8895524467"><ele>91.000</ele></trkpt>
      <trkpt lat="22.2245150097" lon="113.8895998937"><ele>90.000</ele></trkpt>
      <trkpt lat="22.2245329934" lon="113.8896357843"><ele>90.000</ele></trkpt>
      <trkpt lat="22.2245641230" lon="113.8896742157"><ele>90.000</ele></trkpt>
      <trkpt lat="22.2245988096" lon="113.8896972411"><ele>93.000</ele></trkpt>
      <trkpt lat="22.2246286982" lon="113.8897100125"><ele>96.000</ele></trkpt>
      <trkpt lat="22.2246872946" lon="113.8897419719"><ele>96.000</ele></trkpt>
      <trkpt lat="22.2247494667" lon="113.8897700743"><ele>96.000</ele></trkpt>
      <trkpt lat="22.2248188150" lon="113.8898020118"><ele>98.000</ele></trkpt>
      <trkpt lat="22.2248678254" lon="113.8898185931"><ele>96.000</ele></trkpt>
      <trkpt lat="22.2248965233" lon="113.8898326492"><ele>96.000</ele></trkpt>
      <trkpt lat="22.2249359880" lon="113.8898556650"><ele>96.000</ele></trkpt>
      <trkpt lat="22.2249694753" lon="113.8898761275"><ele>93.000</ele></trkpt>
      <trkpt lat="22.2250041587" lon="113.8898978708"><ele>94.000</ele></trkpt>
      <trkpt lat="22.2250400513" lon="113.8899273101"><ele>94.000</ele></trkpt>
      <trkpt lat="22.2250651845" lon="113.8899529215"><ele>94.000</ele></trkpt>
      <trkpt lat="22.2250963094" lon="113.8899887867"><ele>94.000</ele></trkpt>
      <trkpt lat="22.2251322269" lon="113.8900323404"><ele>92.000</ele></trkpt>
      <trkpt lat="22.2251717368" lon="113.8900810199"><ele>92.000</ele></trkpt>
      <trkpt lat="22.2252124640" lon="113.8901425281"><ele>92.000</ele></trkpt>
      <trkpt lat="22.2252579679" lon="113.8902027445"><ele>92.000</ele></trkpt>
      <trkpt lat="22.2252998808" lon="113.8902591175"><ele>90.000</ele></trkpt>
      <trkpt lat="22.2253346193" lon="113.8903116564"><ele>84.000</ele></trkpt>
      <trkpt lat="22.2253633637" lon="113.8903526585"><ele>82.000</ele></trkpt>
      <trkpt lat="22.2253896960" lon="113.8903808341"><ele>82.000</ele></trkpt>
      <trkpt lat="22.2254208186" lon="113.8904154162"><ele>82.000</ele></trkpt>
      <trkpt lat="22.2254507261" lon="113.8904384526"><ele>83.000</ele></trkpt>
      <trkpt lat="22.2254794321" lon="113.8904576409"><ele>84.000</ele></trkpt>
      <trkpt lat="22.2255380343" lon="113.8904934504"><ele>88.000</ele></trkpt>
      <trkpt lat="22.2255703268" lon="113.8905139156"><ele>88.000</ele></trkpt>
      <trkpt lat="22.2256026192" lon="113.8905343808"><ele>88.000</ele></trkpt>
      <trkpt lat="22.2256289357" lon="113.8905535739"><ele>82.000</ele></trkpt>
      <trkpt lat="22.2256552590" lon="113.8905766177"><ele>82.000</ele></trkpt>
      <trkpt lat="22.2256732154" lon="113.8905971120"><ele>80.000</ele></trkpt>
      <trkpt lat="22.2256875853" lon="113.8906163294"><ele>80.000</ele></trkpt>
      <trkpt lat="22.2256995657" lon="113.8906355526"><ele>80.000</ele></trkpt>
      <trkpt lat="22.2257079628" lon="113.8906547831"><ele>81.000</ele></trkpt>
      <trkpt lat="22.2257127892" lon="113.8906817192"><ele>81.000</ele></trkpt>
      <trkpt lat="22.2257176440" lon="113.8907253374"><ele>80.000</ele></trkpt>
      <trkpt lat="22.2257272687" lon="113.8907638119"><ele>80.000</ele></trkpt>
      <trkpt lat="22.2257368899" lon="113.8907997210"><ele>82.000</ele></trkpt>
      <trkpt lat="22.2257464988" lon="113.8908292140"><ele>82.000</ele></trkpt>
      <trkpt lat="22.2257573034" lon="113.8908587045"><ele>82.000</ele></trkpt>
      <trkpt lat="22.2257692906" lon="113.8908817774"><ele>78.000</ele></trkpt>
      <trkpt lat="22.2257836582" lon="113.8908997126"><ele>78.000</ele></trkpt>
      <trkpt lat="22.2258016078" lon="113.8909163573"><ele>78.000</ele></trkpt>
      <trkpt lat="22.2258231340" lon="113.8909291450"><ele>74.000</ele></trkpt>
      <trkpt lat="22.2258458513" lon="113.8909393638"><ele>74.000</ele></trkpt>
      <trkpt lat="22.2258733445" lon="113.8909482908"><ele>74.000</ele></trkpt>
      <trkpt lat="22.2258936714" lon="113.8909585145"><ele>74.000</ele></trkpt>
      <trkpt lat="22.2259199752" lon="113.8909700093"><ele>74.000</ele></trkpt>
      <trkpt lat="22.2259403111" lon="113.8909853659"><ele>79.000</ele></trkpt>
      <trkpt lat="22.2259750043" lon="113.8910122426"><ele>79.000</ele></trkpt>
      <trkpt lat="22.2260037283" lon="113.8910416968"><ele>80.000</ele></trkpt>
      <trkpt lat="22.2260324500" lon="113.8910698679"><ele>79.000</ele></trkpt>
      <trkpt lat="22.2260551889" lon="113.8910929181"><ele>77.000</ele></trkpt>
      <trkpt lat="22.2260827258" lon="113.8911262245"><ele>70.000</ele></trkpt>
      <trkpt lat="22.2261210180" lon="113.8911620757"><ele>71.000</ele></trkpt>
      <trkpt lat="22.2261497419" lon="113.8911915300"><ele>70.000</ele></trkpt>
      <trkpt lat="22.2261748794" lon="113.8912197083"><ele>70.000</ele></trkpt>
      <trkpt lat="22.2262059905" lon="113.8912478756"><ele>70.000</ele></trkpt>
      <trkpt lat="22.2262323204" lon="113.8912747683"><ele>70.000</ele></trkpt>
      <trkpt lat="22.2262550603" lon="113.8912978196"><ele>70.000</ele></trkpt>
      <trkpt lat="22.2262777902" lon="113.8913157370"><ele>70.000</ele></trkpt>
      <trkpt lat="22.2262969322" lon="113.8913310961"><ele>70.000</ele></trkpt>
      <trkpt lat="22.2263160698" lon="113.8913438898"><ele>70.000</ele></trkpt>
      <trkpt lat="22.2263351983" lon="113.8913515495"><ele>70.000</ele></trkpt>
      <trkpt lat="22.2263555207" lon="113.8913592078"><ele>70.000</ele></trkpt>
      <trkpt lat="22.2263770333" lon="113.8913642962"><ele>68.000</ele></trkpt>
      <trkpt lat="22.2263973476" lon="113.8913668216"><ele>68.000</ele></trkpt>
      <trkpt lat="22.2264188589" lon="113.8913706278"><ele>68.000</ele></trkpt>
      <trkpt lat="22.2264475333" lon="113.8913718530"><ele>69.000</ele></trkpt>
      <trkpt lat="22.2264809844" lon="113.8913717853"><ele>69.000</ele></trkpt>
      <trkpt lat="22.2265407180" lon="113.8913716643"><ele>72.000</ele></trkpt>
      <trkpt lat="22.2266135931" lon="113.8913715168"><ele>76.000</ele></trkpt>
      <trkpt lat="22.2266721320" lon="113.8913713983"><ele>78.000</ele></trkpt>
      <trkpt lat="22.2267282792" lon="113.8913700014"><ele>78.000</ele></trkpt>
      <trkpt lat="22.2267712829" lon="113.8913673479"><ele>80.000</ele></trkpt>
      <trkpt lat="22.2267987557" lon="113.8913647258"><ele>80.000</ele></trkpt>
      <trkpt lat="22.2268286181" lon="113.8913620988"><ele>82.000</ele></trkpt>
      <trkpt lat="22.2268596706" lon="113.8913569040"><ele>80.000</ele></trkpt>
      <trkpt lat="22.2268919202" lon="113.8913529890"><ele>78.000</ele></trkpt>
      <trkpt lat="22.2269205856" lon="113.8913490812"><ele>78.000</ele></trkpt>
      <trkpt lat="22.2269468569" lon="113.8913426127"><ele>78.000</ele></trkpt>
      <trkpt lat="22.2269767103" lon="113.8913348528"><ele>78.000</ele></trkpt>
      <trkpt lat="22.2269993915" lon="113.8913245419"><ele>78.000</ele></trkpt>
      <trkpt lat="22.2270232599" lon="113.8913103789"><ele>76.000</ele></trkpt>
      <trkpt lat="22.2270459344" lon="113.8912962182"><ele>70.000</ele></trkpt>
      <trkpt lat="22.2270781402" lon="113.8912679226"><ele>71.000</ele></trkpt>
      <trkpt lat="22.2271151170" lon="113.8912344852"><ele>71.000</ele></trkpt>
      <trkpt lat="22.2271664131" lon="113.8911920371"><ele>73.000</ele></trkpt>
      <trkpt lat="22.2272129379" lon="113.8911534474"><ele>72.000</ele></trkpt>
      <trkpt lat="22.2272535011" lon="113.8911212870"><ele>76.000</ele></trkpt>
      <trkpt lat="22.2272857138" lon="113.8910968410"><ele>72.000</ele></trkpt>
      <trkpt lat="22.2273143475" lon="113.8910749687"><ele>71.000</ele></trkpt>
      <trkpt lat="22.2273346370" lon="113.8910633793"><ele>72.000</ele></trkpt>
      <trkpt lat="22.2273525438" lon="113.8910556445"><ele>70.000</ele></trkpt>
      <trkpt lat="22.2273680701" lon="113.8910530466"><ele>70.000</ele></trkpt>
      <trkpt lat="22.2273895647" lon="113.8910478700"><ele>68.000</ele></trkpt>
      <trkpt lat="22.2274098745" lon="113.8910478289"><ele>68.000</ele></trkpt>
      <trkpt lat="22.2274289940" lon="113.8910503566"><ele>68.000</ele></trkpt>
      <trkpt lat="22.2274528984" lon="113.8910567244"><ele>68.000</ele></trkpt>
      <trkpt lat="22.2274839758" lon="113.8910656432"><ele>69.000</ele></trkpt>
      <trkpt lat="22.2275198366" lon="113.8910771188"><ele>70.000</ele></trkpt>
      <trkpt lat="22.2275533093" lon="113.8910898825"><ele>70.000</ele></trkpt>
      <trkpt lat="22.2275867694" lon="113.8910949477"><ele>70.000</ele></trkpt>
      <trkpt lat="22.2276273971" lon="113.8910999984"><ele>70.000</ele></trkpt>
      <trkpt lat="22.2276596602" lon="113.8911037818"><ele>70.000</ele></trkpt>
      <trkpt lat="22.2276978916" lon="113.8911049876"><ele>70.000</ele></trkpt>
      <trkpt lat="22.2277373210" lon="113.8911074742"><ele>70.000</ele></trkpt>
      <trkpt lat="22.2277755524" lon="113.8911086799"><ele>69.000</ele></trkpt>
      <trkpt lat="22.2278078042" lon="113.8911060481"><ele>68.000</ele></trkpt>
      <trkpt lat="22.2278412463" lon="113.8911008483"><ele>69.000</ele></trkpt>
      <trkpt lat="22.2278770747" lon="113.8910943594"><ele>69.000</ele></trkpt>
      <trkpt lat="22.2279140942" lon="113.8910853026"><ele>69.000</ele></trkpt>
      <trkpt lat="22.2279463280" lon="113.8910724048"><ele>70.000</ele></trkpt>
      <trkpt lat="22.2279761655" lon="113.8910556639"><ele>70.000</ele></trkpt>
      <trkpt lat="22.2280083813" lon="113.8910325010"><ele>70.000</ele></trkpt>
      <trkpt lat="22.2280393991" lon="113.8910080583"><ele>70.000</ele></trkpt>
      <trkpt lat="22.2280668346" lon="113.8909836218"><ele>70.000</ele></trkpt>
      <trkpt lat="22.2280894991" lon="113.8909643280"><ele>68.000</ele></trkpt>
      <trkpt lat="22.2281181261" lon="113.8909386068"><ele>70.000</ele></trkpt>
      <trkpt lat="22.2281467441" lon="113.8909077526"><ele>68.000</ele></trkpt>
      <trkpt lat="22.2281705997" lon="113.8908858898"><ele>68.000</ele></trkpt>
      <trkpt lat="22.2281980410" lon="113.8908653031"><ele>70.000</ele></trkpt>
      <trkpt lat="22.2282195288" lon="113.8908562777"><ele>70.000</ele></trkpt>
      <trkpt lat="22.2282374423" lon="113.8908523915"><ele>70.000</ele></trkpt>
      <trkpt lat="22.2282577454" lon="113.8908485016"><ele>68.000</ele></trkpt>
      <trkpt lat="22.2282744709" lon="113.8908484677"><ele>68.000</ele></trkpt>
      <trkpt lat="22.2282935873" lon="113.8908497112"><ele>68.000</ele></trkpt>
      <trkpt lat="22.2283055429" lon="113.8908548199"><ele>68.000</ele></trkpt>
      <trkpt lat="22.2283168783" lon="113.8908652269"><ele>68.000</ele></trkpt>
    </trkseg>
  </trk>
</gpx>
