<?xml version="1.0" encoding="UTF-8"?>
<gpx xmlns:xsi="http://www.w3.org/2001/XMLSchema-instance"
     xsi:schemaLocation="http://www.topografix.com/GPX/1/1 http://www.topografix.com/GPX/1/1/gpx.xsd"
     version="1.1" creator="json3d_batch_to_gpx"
     xmlns="http://www.topografix.com/GPX/1/1">
  <metadata>
    <name>LantauTrail(Section1)MuiWotoNamShan</name>
  </metadata>
  <trk>
    <name>LantauTrail(Section1)MuiWotoNamShan</name>
    <type>hike</type>
    <trkseg>
      <trkpt lat="22.2649185801" lon="114.0018403951"><ele>4.000</ele></trkpt>
      <trkpt lat="22.2650810216" lon="114.0018081051"><ele>5.000</ele></trkpt>
      <trkpt lat="22.2651049088" lon="114.0018016574"><ele>5.000</ele></trkpt>
      <trkpt lat="22.2651347653" lon="114.0017919938"><ele>6.000</ele></trkpt>
      <trkpt lat="22.2651717819" lon="114.0017752619"><ele>6.000</ele></trkpt>
      <trkpt lat="22.2652076004" lon="114.0017546817"><ele>4.000</ele></trkpt>
      <trkpt lat="22.2652893604" lon="114.0016846281"><ele>6.000</ele></trkpt>
      <trkpt lat="22.2653573674" lon="114.0016017555"><ele>6.000</ele></trkpt>
      <trkpt lat="22.2654211814" lon="114.0015079790"><ele>6.000</ele></trkpt>
      <trkpt lat="22.2654855668" lon="114.0013898151"><ele>6.000</ele></trkpt>
      <trkpt lat="22.2655207334" lon="114.0013191769"><ele>6.000</ele></trkpt>
      <trkpt lat="22.2655511133" lon="114.0012414854"><ele>6.000</ele></trkpt>
      <trkpt lat="22.2655778974" lon="114.0011522478"><ele>6.000</ele></trkpt>
      <trkpt lat="22.2656076303" lon="114.0010283502"><ele>6.000</ele></trkpt>
      <trkpt lat="22.2656301942" lon="114.0009031779"><ele>6.000</ele></trkpt>
      <trkpt lat="22.2656468146" lon="114.0008068926"><ele>6.000</ele></trkpt>
      <trkpt lat="22.2656563114" lon="114.0007504061"><ele>6.000</ele></trkpt>
      <trkpt lat="22.2656634470" lon="114.0007208762"><ele>6.000</ele></trkpt>
      <trkpt lat="22.2656758390" lon="114.0006935382"><ele>6.000</ele></trkpt>
      <trkpt lat="22.2656995805" lon="114.0006535809"><ele>6.000</ele></trkpt>
      <trkpt lat="22.2656879658" lon="114.0006057257"><ele>6.000</ele></trkpt>
      <trkpt lat="22.2656649873" lon="114.0005232651"><ele>6.000</ele></trkpt>
      <trkpt lat="22.2656342193" lon="114.0005225857"><ele>6.000</ele></trkpt>
      <trkpt lat="22.2656250425" lon="114.0005210449"><ele>6.000</ele></trkpt>
      <trkpt lat="22.2655890192" lon="114.0005125714"><ele>6.000</ele></trkpt>
      <trkpt lat="22.2655757467" lon="114.0005066018"><ele>6.000</ele></trkpt>
      <trkpt lat="22.2655647319" lon="114.0005006390"><ele>6.000</ele></trkpt>
      <trkpt lat="22.2655540956" lon="114.0004939384"><ele>6.000</ele></trkpt>
      <trkpt lat="22.2655433316" lon="114.0004860737"><ele>6.000</ele></trkpt>
      <trkpt lat="22.2655307307" lon="114.0004748252"><ele>9.000</ele></trkpt>
      <trkpt lat="22.2655167307" lon="114.0004641509"><ele>9.000</ele></trkpt>
      <trkpt lat="22.2655020005" lon="114.0004546806"><ele>9.000</ele></trkpt>
      <trkpt lat="22.2654873442" lon="114.0004468111"><ele>9.000</ele></trkpt>
      <trkpt lat="22.2654657261" lon="114.0004395518"><ele>8.000</ele></trkpt>
      <trkpt lat="22.2654437572" lon="114.0004336513"><ele>14.000</ele></trkpt>
      <trkpt lat="22.2654214918" lon="114.0004291386"><ele>14.000</ele></trkpt>
      <trkpt lat="22.2653962114" lon="114.0004257454"><ele>14.000</ele></trkpt>
      <trkpt lat="22.2653064603" lon="114.0004148445"><ele>9.000</ele></trkpt>
      <trkpt lat="22.2651269911" lon="114.0003930468"><ele>8.000</ele></trkpt>
      <trkpt lat="22.2649963860" lon="114.0003777960"><ele>16.000</ele></trkpt>
      <trkpt lat="22.2648168311" lon="114.0003568294"><ele>13.000</ele></trkpt>
      <trkpt lat="22.2647000855" lon="114.0003422964"><ele>15.000</ele></trkpt>
      <trkpt lat="22.2646220677" lon="114.0003319644"><ele>22.000</ele></trkpt>
      <trkpt lat="22.2644944667" lon="114.0003168824"><ele>20.000</ele></trkpt>
      <trkpt lat="22.2644109397" lon="114.0003060237"><ele>18.000</ele></trkpt>
      <trkpt lat="22.2642732418" lon="114.0002903916"><ele>20.000</ele></trkpt>
      <trkpt lat="22.2642356141" lon="114.0002847339"><ele>21.000</ele></trkpt>
      <trkpt lat="22.2641970362" lon="114.0002772632"><ele>21.000</ele></trkpt>
      <trkpt lat="22.2641807565" lon="114.0002713362"><ele>21.000</ele></trkpt>
      <trkpt lat="22.2641650532" lon="114.0002638271"><ele>21.000</ele></trkpt>
      <trkpt lat="22.2641506128" lon="114.0002551812"><ele>22.000</ele></trkpt>
      <trkpt lat="22.2641348326" lon="114.0002434905"><ele>22.000</ele></trkpt>
      <trkpt lat="22.2641115547" lon="114.0002213116"><ele>22.000</ele></trkpt>
      <trkpt lat="22.2641000091" lon="114.0002089559"><ele>22.000</ele></trkpt>
      <trkpt lat="22.2640889236" lon="114.0001961145"><ele>22.000</ele></trkpt>
      <trkpt lat="22.2640691276" lon="114.0001703414"><ele>25.000</ele></trkpt>
      <trkpt lat="22.2640594946" lon="114.0001562175"><ele>24.000</ele></trkpt>
      <trkpt lat="22.2640503940" lon="114.0001416855"><ele>25.000</ele></trkpt>
      <trkpt lat="22.2640407653" lon="114.0001231956"><ele>25.000</ele></trkpt>
      <trkpt lat="22.2640336231" lon="114.0001075357"><ele>25.000</ele></trkpt>
      <trkpt lat="22.2640263425" lon="114.0000891884"><ele>29.000</ele></trkpt>
      <trkpt lat="22.2640203993" lon="114.0000716254"><ele>26.000</ele></trkpt>
      <trkpt lat="22.2640150144" lon="114.0000525481"><ele>26.000</ele></trkpt>
      <trkpt lat="22.2640108767" lon="114.0000343909"><ele>26.000</ele></trkpt>
      <trkpt lat="22.2640074508" lon="114.0000147969"><ele>26.000</ele></trkpt>
      <trkpt lat="22.2640049355" lon="113.9999937853"><ele>26.000</ele></trkpt>
      <trkpt lat="22.2640028381" lon="113.9999751017"><ele>26.000</ele></trkpt>
      <trkpt lat="22.2640015624" lon="113.9999563297"><ele>26.000</ele></trkpt>
      <trkpt lat="22.2640011084" lon="113.9999375082"><ele>28.000</ele></trkpt>
      <trkpt lat="22.2640014763" lon="113.9999186953"><ele>28.000</ele></trkpt>
      <trkpt lat="22.2640025501" lon="113.9999013563"><ele>29.000</ele></trkpt>
      <trkpt lat="22.2640044984" lon="113.9998826482"><ele>29.000</ele></trkpt>
      <trkpt lat="22.2640070263" lon="113.9998654917"><ele>29.000</ele></trkpt>
      <trkpt lat="22.2640102498" lon="113.9998484604"><ele>30.000</ele></trkpt>
      <trkpt lat="22.2640140369" lon="113.9998265152"><ele>30.000</ele></trkpt>
      <trkpt lat="22.2640469622" lon="113.9996357246"><ele>32.000</ele></trkpt>
      <trkpt lat="22.2640500475" lon="113.9996162485"><ele>32.000</ele></trkpt>
      <trkpt lat="22.2640571207" lon="113.9995686313"><ele>32.000</ele></trkpt>
      <trkpt lat="22.2640665136" lon="113.9995116584"><ele>34.000</ele></trkpt>
      <trkpt lat="22.2640694028" lon="113.9994945402"><ele>39.000</ele></trkpt>
      <trkpt lat="22.2640744413" lon="113.9994774873"><ele>39.000</ele></trkpt>
      <trkpt lat="22.2640859016" lon="113.9994448155"><ele>40.000</ele></trkpt>
      <trkpt lat="22.2640957394" lon="113.9994148818"><ele>38.000</ele></trkpt>
      <trkpt lat="22.2640942149" lon="113.9993503258"><ele>38.000</ele></trkpt>
      <trkpt lat="22.2640940244" lon="113.9992916089"><ele>42.000</ele></trkpt>
      <trkpt lat="22.2640786404" lon="113.9992624249"><ele>44.000</ele></trkpt>
      <trkpt lat="22.2640702311" lon="113.9992442440"><ele>44.000</ele></trkpt>
      <trkpt lat="22.2640634766" lon="113.9992281373"><ele>40.000</ele></trkpt>
      <trkpt lat="22.2640577353" lon="113.9992135332"><ele>42.000</ele></trkpt>
      <trkpt lat="22.2640523898" lon="113.9991976188"><ele>42.000</ele></trkpt>
      <trkpt lat="22.2640483918" lon="113.9991834490"><ele>42.000</ele></trkpt>
      <trkpt lat="22.2640446081" lon="113.9991670281"><ele>43.000</ele></trkpt>
      <trkpt lat="22.2640356599" lon="113.9991268145"><ele>43.000</ele></trkpt>
      <trkpt lat="22.2640249485" lon="113.9990845850"><ele>43.000</ele></trkpt>
      <trkpt lat="22.2640129733" lon="113.9990427452"><ele>40.000</ele></trkpt>
      <trkpt lat="22.2639997433" lon="113.9990013339"><ele>43.000</ele></trkpt>
      <trkpt lat="22.2639968462" lon="113.9989940411"><ele>43.000</ele></trkpt>
      <trkpt lat="22.2639259493" lon="113.9988155736"><ele>42.000</ele></trkpt>
      <trkpt lat="22.2638607342" lon="113.9986545818"><ele>44.000</ele></trkpt>
      <trkpt lat="22.2638389994" lon="113.9985987059"><ele>44.000</ele></trkpt>
      <trkpt lat="22.2637966753" lon="113.9984939283"><ele>46.000</ele></trkpt>
      <trkpt lat="22.2637934130" lon="113.9984835997"><ele>45.000</ele></trkpt>
      <trkpt lat="22.2637901085" lon="113.9984678380"><ele>45.000</ele></trkpt>
      <trkpt lat="22.2637890689" lon="113.9984504047"><ele>45.000</ele></trkpt>
      <trkpt lat="22.2637416769" lon="113.9983417101"><ele>49.000</ele></trkpt>
      <trkpt lat="22.2637360567" lon="113.9983412554"><ele>49.000</ele></trkpt>
      <trkpt lat="22.2637208571" lon="113.9983402754"><ele>49.000</ele></trkpt>
      <trkpt lat="22.2637052673" lon="113.9983376270"><ele>49.000</ele></trkpt>
      <trkpt lat="22.2636905248" lon="113.9983335223"><ele>47.000</ele></trkpt>
      <trkpt lat="22.2636751751" lon="113.9983274586"><ele>47.000</ele></trkpt>
      <trkpt lat="22.2635510560" lon="113.9982596626"><ele>48.000</ele></trkpt>
      <trkpt lat="22.2634462187" lon="113.9982014474"><ele>50.000</ele></trkpt>
      <trkpt lat="22.2633348018" lon="113.9981385060"><ele>51.000</ele></trkpt>
      <trkpt lat="22.2633139375" lon="113.9981270452"><ele>51.000</ele></trkpt>
      <trkpt lat="22.2632905959" lon="113.9981129292"><ele>50.000</ele></trkpt>
      <trkpt lat="22.2632697019" lon="113.9980990818"><ele>52.000</ele></trkpt>
      <trkpt lat="22.2632475049" lon="113.9980829852"><ele>52.000</ele></trkpt>
      <trkpt lat="22.2632308014" lon="113.9980693944"><ele>52.000</ele></trkpt>
      <trkpt lat="22.2632159224" lon="113.9980561215"><ele>58.000</ele></trkpt>
      <trkpt lat="22.2632015845" lon="113.9980421785"><ele>61.000</ele></trkpt>
      <trkpt lat="22.2631855725" lon="113.9980251135"><ele>61.000</ele></trkpt>
      <trkpt lat="22.2631714213" lon="113.9980085118"><ele>60.000</ele></trkpt>
      <trkpt lat="22.2631590047" lon="113.9979925774"><ele>57.000</ele></trkpt>
      <trkpt lat="22.2631472287" lon="113.9979760989"><ele>57.000</ele></trkpt>
      <trkpt lat="22.2631352247" lon="113.9979576512"><ele>58.000</ele></trkpt>
      <trkpt lat="22.2631163632" lon="113.9979280354"><ele>54.000</ele></trkpt>
      <trkpt lat="22.2631002115" lon="113.9978989304"><ele>56.000</ele></trkpt>
      <trkpt lat="22.2630849237" lon="113.9978670301"><ele>56.000</ele></trkpt>
      <trkpt lat="22.2630715673" lon="113.9978341377"><ele>55.000</ele></trkpt>
      <trkpt lat="22.2630620725" lon="113.9978062952"><ele>62.000</ele></trkpt>
      <trkpt lat="22.2630533967" lon="113.9977759291"><ele>62.000</ele></trkpt>
      <trkpt lat="22.2630471542" lon="113.9977492273"><ele>66.000</ele></trkpt>
      <trkpt lat="22.2630417670" lon="113.9977201475"><ele>68.000</ele></trkpt>
      <trkpt lat="22.2630214671" lon="113.9975981313"><ele>66.000</ele></trkpt>
      <trkpt lat="22.2630094870" lon="113.9975441159"><ele>62.000</ele></trkpt>
      <trkpt lat="22.2629975218" lon="113.9974953008"><ele>62.000</ele></trkpt>
      <trkpt lat="22.2629811938" lon="113.9974374683"><ele>56.000</ele></trkpt>
      <trkpt lat="22.2629759556" lon="113.9974207778"><ele>56.000</ele></trkpt>
      <trkpt lat="22.2629617246" lon="113.9973810176"><ele>61.000</ele></trkpt>
      <trkpt lat="22.2629254889" lon="113.9973030885"><ele>68.000</ele></trkpt>
      <trkpt lat="22.2629136602" lon="113.9972797799"><ele>68.000</ele></trkpt>
      <trkpt lat="22.2628946995" lon="113.9972446798"><ele>68.000</ele></trkpt>
      <trkpt lat="22.2628735459" lon="113.9972085221"><ele>65.000</ele></trkpt>
      <trkpt lat="22.2628514112" lon="113.9971728362"><ele>65.000</ele></trkpt>
      <trkpt lat="22.2628323087" lon="113.9971458308"><ele>57.000</ele></trkpt>
      <trkpt lat="22.2628123491" lon="113.9971195637"><ele>56.000</ele></trkpt>
      <trkpt lat="22.2627927169" lon="113.9970954599"><ele>53.000</ele></trkpt>
      <trkpt lat="22.2627711334" lon="113.9970707084"><ele>56.000</ele></trkpt>
      <trkpt lat="22.2627406229" lon="113.9970335014"><ele>62.000</ele></trkpt>
      <trkpt lat="22.2627103505" lon="113.9969992531"><ele>62.000</ele></trkpt>
      <trkpt lat="22.2626789415" lon="113.9969662093"><ele>66.000</ele></trkpt>
      <trkpt lat="22.2626464322" lon="113.9969344185"><ele>60.000</ele></trkpt>
      <trkpt lat="22.2625182633" lon="113.9968064965"><ele>52.000</ele></trkpt>
      <trkpt lat="22.2623969725" lon="113.9966837855"><ele>57.000</ele></trkpt>
      <trkpt lat="22.2622908270" lon="113.9965784219"><ele>62.000</ele></trkpt>
      <trkpt lat="22.2621804661" lon="113.9964665538"><ele>62.000</ele></trkpt>
      <trkpt lat="22.2621324863" lon="113.9964176979"><ele>58.000</ele></trkpt>
      <trkpt lat="22.2620804544" lon="113.9963631327"><ele>62.000</ele></trkpt>
      <trkpt lat="22.2620382225" lon="113.9963182279"><ele>57.000</ele></trkpt>
      <trkpt lat="22.2619948090" lon="113.9962746538"><ele>58.000</ele></trkpt>
      <trkpt lat="22.2619502411" lon="113.9962324298"><ele>55.000</ele></trkpt>
      <trkpt lat="22.2619014725" lon="113.9961889403"><ele>60.000</ele></trkpt>
      <trkpt lat="22.2618863774" lon="113.9961763762"><ele>54.000</ele></trkpt>
      <trkpt lat="22.2618709217" lon="113.9961643365"><ele>59.000</ele></trkpt>
      <trkpt lat="22.2618551234" lon="113.9961528308"><ele>59.000</ele></trkpt>
      <trkpt lat="22.2618389825" lon="113.9961418786"><ele>52.000</ele></trkpt>
      <trkpt lat="22.2618225352" lon="113.9961314701"><ele>52.000</ele></trkpt>
      <trkpt lat="22.2618039019" lon="113.9961205794"><ele>55.000</ele></trkpt>
      <trkpt lat="22.2617714451" lon="113.9961037105"><ele>55.000</ele></trkpt>
      <trkpt lat="22.2617558503" lon="113.9960965026"><ele>54.000</ele></trkpt>
      <trkpt lat="22.2617361091" lon="113.9960881648"><ele>54.000</ele></trkpt>
      <trkpt lat="22.2617161068" lon="113.9960805842"><ele>54.000</ele></trkpt>
      <trkpt lat="22.2616979033" lon="113.9960744177"><ele>52.000</ele></trkpt>
      <trkpt lat="22.2616774692" lon="113.9960682929"><ele>58.000</ele></trkpt>
      <trkpt lat="22.2616589239" lon="113.9960634464"><ele>58.000</ele></trkpt>
      <trkpt lat="22.2616402349" lon="113.9960592403"><ele>58.000</ele></trkpt>
      <trkpt lat="22.2616214382" lon="113.9960556747"><ele>52.000</ele></trkpt>
      <trkpt lat="22.2615901965" lon="113.9960514557"><ele>52.000</ele></trkpt>
      <trkpt lat="22.2615619817" lon="113.9960486590"><ele>48.000</ele></trkpt>
      <trkpt lat="22.2615305529" lon="113.9960466425"><ele>48.000</ele></trkpt>
      <trkpt lat="22.2615022230" lon="113.9960458348"><ele>48.000</ele></trkpt>
      <trkpt lat="22.2614707424" lon="113.9960460402"><ele>48.000</ele></trkpt>
      <trkpt lat="22.2614424237" lon="113.9960472117"><ele>48.000</ele></trkpt>
      <trkpt lat="22.2614141602" lon="113.9960493339"><ele>48.000</ele></trkpt>
      <trkpt lat="22.2613828368" lon="113.9960527989"><ele>46.000</ele></trkpt>
      <trkpt lat="22.2613399140" lon="113.9960607320"><ele>46.000</ele></trkpt>
      <trkpt lat="22.2613011643" lon="113.9960694844"><ele>46.000</ele></trkpt>
      <trkpt lat="22.2612627233" lon="113.9960796819"><ele>47.000</ele></trkpt>
      <trkpt lat="22.2612246360" lon="113.9960913149"><ele>47.000</ele></trkpt>
      <trkpt lat="22.2611869567" lon="113.9961043639"><ele>49.000</ele></trkpt>
      <trkpt lat="22.2611497124" lon="113.9961188287"><ele>50.000</ele></trkpt>
      <trkpt lat="22.2611129663" lon="113.9961346706"><ele>44.000</ele></trkpt>
      <trkpt lat="22.2610767636" lon="113.9961518894"><ele>47.000</ele></trkpt>
      <trkpt lat="22.2610270514" lon="113.9961774595"><ele>47.000</ele></trkpt>
      <trkpt lat="22.2609747691" lon="113.9962063316"><ele>52.000</ele></trkpt>
      <trkpt lat="22.2609296816" lon="113.9962329338"><ele>50.000</ele></trkpt>
      <trkpt lat="22.2608789379" lon="113.9962648405"><ele>50.000</ele></trkpt>
      <trkpt lat="22.2608351788" lon="113.9962921881"><ele>45.000</ele></trkpt>
      <trkpt lat="22.2607884072" lon="113.9963229448"><ele>42.000</ele></trkpt>
      <trkpt lat="22.2607423142" lon="113.9963548746"><ele>42.000</ele></trkpt>
      <trkpt lat="22.2606969269" lon="113.9963879580"><ele>42.000</ele></trkpt>
      <trkpt lat="22.2605868825" lon="113.9964637058"><ele>42.000</ele></trkpt>
      <trkpt lat="22.2604845737" lon="113.9965361546"><ele>44.000</ele></trkpt>
      <trkpt lat="22.2603648373" lon="113.9966182304"><ele>42.000</ele></trkpt>
      <trkpt lat="22.2603323039" lon="113.9966380250"><ele>43.000</ele></trkpt>
      <trkpt lat="22.2602991278" lon="113.9966565398"><ele>48.000</ele></trkpt>
      <trkpt lat="22.2602653543" lon="113.9966737456"><ele>42.000</ele></trkpt>
      <trkpt lat="22.2602292954" lon="113.9966904013"><ele>42.000</ele></trkpt>
      <trkpt lat="22.2602072894" lon="113.9966999955"><ele>43.000</ele></trkpt>
      <trkpt lat="22.2601878545" lon="113.9967072871"><ele>42.000</ele></trkpt>
      <trkpt lat="22.2601666039" lon="113.9967140570"><ele>43.000</ele></trkpt>
      <trkpt lat="22.2601466160" lon="113.9967193313"><ele>43.000</ele></trkpt>
      <trkpt lat="22.2601264282" lon="113.9967236162"><ele>46.000</ele></trkpt>
      <trkpt lat="22.2601045057" lon="113.9967271175"><ele>46.000</ele></trkpt>
      <trkpt lat="22.2600824465" lon="113.9967294451"><ele>49.000</ele></trkpt>
      <trkpt lat="22.2600587244" lon="113.9967306494"><ele>49.000</ele></trkpt>
      <trkpt lat="22.2600246869" lon="113.9967296742"><ele>50.000</ele></trkpt>
      <trkpt lat="22.2599886329" lon="113.9967263538"><ele>47.000</ele></trkpt>
      <trkpt lat="22.2599758795" lon="113.9967243618"><ele>47.000</ele></trkpt>
      <trkpt lat="22.2599485830" lon="113.9967190122"><ele>44.000</ele></trkpt>
      <trkpt lat="22.2599236678" lon="113.9967111274"><ele>44.000</ele></trkpt>
      <trkpt lat="22.2598940071" lon="113.9966993388"><ele>50.000</ele></trkpt>
      <trkpt lat="22.2598673435" lon="113.9966864598"><ele>50.000</ele></trkpt>
      <trkpt lat="22.2598346785" lon="113.9966690675"><ele>48.000</ele></trkpt>
      <trkpt lat="22.2598087232" lon="113.9966516374"><ele>51.000</ele></trkpt>
      <trkpt lat="22.2597865235" lon="113.9966331741"><ele>51.000</ele></trkpt>
      <trkpt lat="22.2597623298" lon="113.9966081647"><ele>47.000</ele></trkpt>
      <trkpt lat="22.2597399055" lon="113.9965826097"><ele>47.000</ele></trkpt>
      <trkpt lat="22.2597262773" lon="113.9965654356"><ele>42.000</ele></trkpt>
      <trkpt lat="22.2597097962" lon="113.9965408820"><ele>44.000</ele></trkpt>
      <trkpt lat="22.2596919112" lon="113.9965125077"><ele>44.000</ele></trkpt>
      <trkpt lat="22.2596778734" lon="113.9964842934"><ele>42.000</ele></trkpt>
      <trkpt lat="22.2596637156" lon="113.9964455916"><ele>42.000</ele></trkpt>
      <trkpt lat="22.2596526630" lon="113.9964138808"><ele>43.000</ele></trkpt>
      <trkpt lat="22.2596422593" lon="113.9963728749"><ele>43.000</ele></trkpt>
      <trkpt lat="22.2596344796" lon="113.9963364449"><ele>42.000</ele></trkpt>
      <trkpt lat="22.2596302476" lon="113.9962987782"><ele>46.000</ele></trkpt>
      <trkpt lat="22.2596304904" lon="113.9962653552"><ele>52.000</ele></trkpt>
      <trkpt lat="22.2596353462" lon="113.9962223602"><ele>52.000</ele></trkpt>
      <trkpt lat="22.2596433090" lon="113.9961797203"><ele>57.000</ele></trkpt>
      <trkpt lat="22.2596502248" lon="113.9961457939"><ele>56.000</ele></trkpt>
      <trkpt lat="22.2596614180" lon="113.9961089612"><ele>53.000</ele></trkpt>
      <trkpt lat="22.2596711875" lon="113.9960831224"><ele>53.000</ele></trkpt>
      <trkpt lat="22.2596814124" lon="113.9960592147"><ele>48.000</ele></trkpt>
      <trkpt lat="22.2596834471" lon="113.9960551751"><ele>48.000</ele></trkpt>
      <trkpt lat="22.2597166305" lon="113.9959946902"><ele>53.000</ele></trkpt>
      <trkpt lat="22.2597456743" lon="113.9959390227"><ele>58.000</ele></trkpt>
      <trkpt lat="22.2598273782" lon="113.9957883940"><ele>57.000</ele></trkpt>
      <trkpt lat="22.2598581278" lon="113.9957311476"><ele>53.000</ele></trkpt>
      <trkpt lat="22.2598974189" lon="113.9956579987"><ele>48.000</ele></trkpt>
      <trkpt lat="22.2599070953" lon="113.9956378064"><ele>47.000</ele></trkpt>
      <trkpt lat="22.2599161753" lon="113.9956173045"><ele>49.000</ele></trkpt>
      <trkpt lat="22.2599246499" lon="113.9955965123"><ele>49.000</ele></trkpt>
      <trkpt lat="22.2599325102" lon="113.9955754395"><ele>48.000</ele></trkpt>
      <trkpt lat="22.2599397560" lon="113.9955541055"><ele>48.000</ele></trkpt>
      <trkpt lat="22.2599456587" lon="113.9955349465"><ele>49.000</ele></trkpt>
      <trkpt lat="22.2599517121" lon="113.9955131969"><ele>49.000</ele></trkpt>
      <trkpt lat="22.2599571240" lon="113.9954912444"><ele>56.000</ele></trkpt>
      <trkpt lat="22.2599615255" lon="113.9954701955"><ele>56.000</ele></trkpt>
      <trkpt lat="22.2599653559" lon="113.9954471875"><ele>56.000</ele></trkpt>
      <trkpt lat="22.2599683804" lon="113.9954222208"><ele>51.000</ele></trkpt>
      <trkpt lat="22.2599701605" lon="113.9953989244"><ele>51.000</ele></trkpt>
      <trkpt lat="22.2599709472" lon="113.9953755711"><ele>55.000</ele></trkpt>
      <trkpt lat="22.2599707405" lon="113.9953521899"><ele>55.000</ele></trkpt>
      <trkpt lat="22.2599694030" lon="113.9953270639"><ele>61.000</ele></trkpt>
      <trkpt lat="22.2599669096" lon="113.9953020267"><ele>61.000</ele></trkpt>
      <trkpt lat="22.2599616781" lon="113.9952671554"><ele>59.000</ele></trkpt>
      <trkpt lat="22.2599543129" lon="113.9952301427"><ele>58.000</ele></trkpt>
      <trkpt lat="22.2599458311" lon="113.9951960032"><ele>52.000</ele></trkpt>
      <trkpt lat="22.2599358146" lon="113.9951623605"><ele>52.000</ele></trkpt>
      <trkpt lat="22.2599233940" lon="113.9951269357"><ele>57.000</ele></trkpt>
      <trkpt lat="22.2599102724" lon="113.9950945389"><ele>64.000</ele></trkpt>
      <trkpt lat="22.2598945934" lon="113.9950606415"><ele>57.000</ele></trkpt>
      <trkpt lat="22.2598772900" lon="113.9950276680"><ele>61.000</ele></trkpt>
      <trkpt lat="22.2598614243" lon="113.9950044914"><ele>54.000</ele></trkpt>
      <trkpt lat="22.2598449542" lon="113.9949818007"><ele>54.000</ele></trkpt>
      <trkpt lat="22.2598278976" lon="113.9949596250"><ele>57.000</ele></trkpt>
      <trkpt lat="22.2598124972" lon="113.9949406390"><ele>58.000</ele></trkpt>
      <trkpt lat="22.2597966728" lon="113.9949220708"><ele>58.000</ele></trkpt>
      <trkpt lat="22.2597780646" lon="113.9949013717"><ele>63.000</ele></trkpt>
      <trkpt lat="22.2597589242" lon="113.9948812458"><ele>58.000</ele></trkpt>
      <trkpt lat="22.2597417559" lon="113.9948641152"><ele>58.000</ele></trkpt>
      <trkpt lat="22.2596997901" lon="113.9948233539"><ele>61.000</ele></trkpt>
      <trkpt lat="22.2596626979" lon="113.9947881455"><ele>64.000</ele></trkpt>
      <trkpt lat="22.2596198663" lon="113.9947484331"><ele>58.000</ele></trkpt>
      <trkpt lat="22.2595765838" lon="113.9947092938"><ele>58.000</ele></trkpt>
      <trkpt lat="22.2595511201" lon="113.9946874395"><ele>58.000</ele></trkpt>
      <trkpt lat="22.2595231688" lon="113.9946619405"><ele>58.000</ele></trkpt>
      <trkpt lat="22.2594989585" lon="113.9946384838"><ele>58.000</ele></trkpt>
      <trkpt lat="22.2594753705" lon="113.9946143180"><ele>58.000</ele></trkpt>
      <trkpt lat="22.2594524228" lon="113.9945894529"><ele>58.000</ele></trkpt>
      <trkpt lat="22.2594273847" lon="113.9945606710"><ele>62.000</ele></trkpt>
      <trkpt lat="22.2594058533" lon="113.9945343780"><ele>63.000</ele></trkpt>
      <trkpt lat="22.2593850166" lon="113.9945074533"><ele>70.000</ele></trkpt>
      <trkpt lat="22.2593715408" lon="113.9944895031"><ele>70.000</ele></trkpt>
      <trkpt lat="22.2593566709" lon="113.9944685277"><ele>72.000</ele></trkpt>
      <trkpt lat="22.2593423875" lon="113.9944471052"><ele>72.000</ele></trkpt>
      <trkpt lat="22.2593286815" lon="113.9944252358"><ele>74.000</ele></trkpt>
      <trkpt lat="22.2593155892" lon="113.9944029483"><ele>74.000</ele></trkpt>
      <trkpt lat="22.2593046308" lon="113.9943831127"><ele>74.000</ele></trkpt>
      <trkpt lat="22.2592926845" lon="113.9943600864"><ele>76.000</ele></trkpt>
      <trkpt lat="22.2592827550" lon="113.9943396382"><ele>76.000</ele></trkpt>
      <trkpt lat="22.2592719538" lon="113.9943150485"><ele>75.000</ele></trkpt>
      <trkpt lat="22.2592608240" lon="113.9942872964"><ele>75.000</ele></trkpt>
      <trkpt lat="22.2592516024" lon="113.9942619770"><ele>73.000</ele></trkpt>
      <trkpt lat="22.2592422598" lon="113.9942334756"><ele>73.000</ele></trkpt>
      <trkpt lat="22.2592346720" lon="113.9942075332"><ele>73.000</ele></trkpt>
      <trkpt lat="22.2592271619" lon="113.9941784279"><ele>73.000</ele></trkpt>
      <trkpt lat="22.2592212352" lon="113.9941519886"><ele>73.000</ele></trkpt>
      <trkpt lat="22.2592155939" lon="113.9941223860"><ele>70.000</ele></trkpt>
      <trkpt lat="22.2592079562" lon="113.9940761864"><ele>67.000</ele></trkpt>
      <trkpt lat="22.2592013422" lon="113.9940248144"><ele>68.000</ele></trkpt>
      <trkpt lat="22.2591968348" lon="113.9939756613"><ele>69.000</ele></trkpt>
      <trkpt lat="22.2591939951" lon="113.9939238866"><ele>68.000</ele></trkpt>
      <trkpt lat="22.2591939759" lon="113.9938907745"><ele>71.000</ele></trkpt>
      <trkpt lat="22.2591954639" lon="113.9938616769"><ele>71.000</ele></trkpt>
      <trkpt lat="22.2591980448" lon="113.9938151050"><ele>72.000</ele></trkpt>
      <trkpt lat="22.2592027654" lon="113.9937729253"><ele>72.000</ele></trkpt>
      <trkpt lat="22.2592131035" lon="113.9937311166"><ele>72.000</ele></trkpt>
      <trkpt lat="22.2592162217" lon="113.9936613373"><ele>72.000</ele></trkpt>
      <trkpt lat="22.2592162527" lon="113.9935606328"><ele>70.000</ele></trkpt>
      <trkpt lat="22.2592144812" lon="113.9934632584"><ele>70.000</ele></trkpt>
      <trkpt lat="22.2592126863" lon="113.9933932236"><ele>72.000</ele></trkpt>
      <trkpt lat="22.2592116022" lon="113.9933528656"><ele>72.000</ele></trkpt>
      <trkpt lat="22.2592100151" lon="113.9933388583"><ele>72.000</ele></trkpt>
      <trkpt lat="22.2592066949" lon="113.9933176158"><ele>72.000</ele></trkpt>
      <trkpt lat="22.2592029794" lon="113.9932981491"><ele>72.000</ele></trkpt>
      <trkpt lat="22.2591943245" lon="113.9932550651"><ele>72.000</ele></trkpt>
      <trkpt lat="22.2591868499" lon="113.9932094862"><ele>72.000</ele></trkpt>
      <trkpt lat="22.2591823827" lon="113.9931881287"><ele>73.000</ele></trkpt>
      <trkpt lat="22.2591793614" lon="113.9931676522"><ele>73.000</ele></trkpt>
      <trkpt lat="22.2591774029" lon="113.9931447004"><ele>74.000</ele></trkpt>
      <trkpt lat="22.2591769176" lon="113.9931228235"><ele>74.000</ele></trkpt>
      <trkpt lat="22.2591769508" lon="113.9930643412"><ele>73.000</ele></trkpt>
      <trkpt lat="22.2591761708" lon="113.9930215089"><ele>73.000</ele></trkpt>
      <trkpt lat="22.2591749981" lon="113.9930018682"><ele>72.000</ele></trkpt>
      <trkpt lat="22.2591747349" lon="113.9929974600"><ele>72.000</ele></trkpt>
      <trkpt lat="22.2591728504" lon="113.9929761380"><ele>72.000</ele></trkpt>
      <trkpt lat="22.2591674021" lon="113.9929336998"><ele>72.000</ele></trkpt>
      <trkpt lat="22.2591638292" lon="113.9929126225"><ele>74.000</ele></trkpt>
      <trkpt lat="22.2591591427" lon="113.9928890534"><ele>74.000</ele></trkpt>
      <trkpt lat="22.2591472373" lon="113.9928385130"><ele>74.000</ele></trkpt>
      <trkpt lat="22.2591343616" lon="113.9927924270"><ele>74.000</ele></trkpt>
      <trkpt lat="22.2591183939" lon="113.9927432017"><ele>74.000</ele></trkpt>
      <trkpt lat="22.2591003591" lon="113.9926948037"><ele>74.000</ele></trkpt>
      <trkpt lat="22.2590768720" lon="113.9926483727"><ele>75.000</ele></trkpt>
      <trkpt lat="22.2590536148" lon="113.9926055795"><ele>81.000</ele></trkpt>
      <trkpt lat="22.2590291935" lon="113.9925635543"><ele>82.000</ele></trkpt>
      <trkpt lat="22.2590036352" lon="113.9925223165"><ele>84.000</ele></trkpt>
      <trkpt lat="22.2589841992" lon="113.9924966516"><ele>81.000</ele></trkpt>
      <trkpt lat="22.2589636176" lon="113.9924720458"><ele>81.000</ele></trkpt>
      <trkpt lat="22.2589419445" lon="113.9924485474"><ele>76.000</ele></trkpt>
      <trkpt lat="22.2589210062" lon="113.9924278810"><ele>83.000</ele></trkpt>
      <trkpt lat="22.2588478691" lon="113.9923659535"><ele>80.000</ele></trkpt>
      <trkpt lat="22.2588160088" lon="113.9923418961"><ele>76.000</ele></trkpt>
      <trkpt lat="22.2587931989" lon="113.9923273248"><ele>84.000</ele></trkpt>
      <trkpt lat="22.2587729024" lon="113.9923152146"><ele>80.000</ele></trkpt>
      <trkpt lat="22.2587508266" lon="113.9923029029"><ele>80.000</ele></trkpt>
      <trkpt lat="22.2587269175" lon="113.9922905451"><ele>84.000</ele></trkpt>
      <trkpt lat="22.2586864644" lon="113.9922702923"><ele>84.000</ele></trkpt>
      <trkpt lat="22.2586486963" lon="113.9922526168"><ele>80.000</ele></trkpt>
      <trkpt lat="22.2586073426" lon="113.9922345773"><ele>87.000</ele></trkpt>
      <trkpt lat="22.2585655749" lon="113.9922177122"><ele>84.000</ele></trkpt>
      <trkpt lat="22.2584714526" lon="113.9921814056"><ele>88.000</ele></trkpt>
      <trkpt lat="22.2583826898" lon="113.9921489825"><ele>80.000</ele></trkpt>
      <trkpt lat="22.2583379244" lon="113.9921325968"><ele>88.000</ele></trkpt>
      <trkpt lat="22.2582975035" lon="113.9921168748"><ele>91.000</ele></trkpt>
      <trkpt lat="22.2582573526" lon="113.9921003667"><ele>90.000</ele></trkpt>
      <trkpt lat="22.2582174899" lon="113.9920830820"><ele>88.000</ele></trkpt>
      <trkpt lat="22.2581759081" lon="113.9920630152"><ele>91.000</ele></trkpt>
      <trkpt lat="22.2581307457" lon="113.9920390337"><ele>94.000</ele></trkpt>
      <trkpt lat="22.2580885719" lon="113.9920144661"><ele>94.000</ele></trkpt>
      <trkpt lat="22.2580452206" lon="113.9919868829"><ele>94.000</ele></trkpt>
      <trkpt lat="22.2580099165" lon="113.9919601429"><ele>94.000</ele></trkpt>
      <trkpt lat="22.2579750903" lon="113.9919326746"><ele>93.000</ele></trkpt>
      <trkpt lat="22.2579407599" lon="113.9919044975"><ele>94.000</ele></trkpt>
      <trkpt lat="22.2579035897" lon="113.9918726957"><ele>93.000</ele></trkpt>
      <trkpt lat="22.2578587129" lon="113.9918298732"><ele>92.000</ele></trkpt>
      <trkpt lat="22.2578346909" lon="113.9918055535"><ele>94.000</ele></trkpt>
      <trkpt lat="22.2578132626" lon="113.9917829768"><ele>93.000</ele></trkpt>
      <trkpt lat="22.2577736763" lon="113.9917388862"><ele>93.000</ele></trkpt>
      <trkpt lat="22.2577534476" lon="113.9917150757"><ele>93.000</ele></trkpt>
      <trkpt lat="22.2577316805" lon="113.9916884053"><ele>95.000</ele></trkpt>
      <trkpt lat="22.2576951813" lon="113.9916431174"><ele>97.000</ele></trkpt>
      <trkpt lat="22.2576575485" lon="113.9915936302"><ele>98.000</ele></trkpt>
      <trkpt lat="22.2576257463" lon="113.9915493645"><ele>98.000</ele></trkpt>
      <trkpt lat="22.2575907208" lon="113.9914977201"><ele>98.000</ele></trkpt>
      <trkpt lat="22.2575758930" lon="113.9914743877"><ele>98.000</ele></trkpt>
      <trkpt lat="22.2575514452" lon="113.9914362788"><ele>100.000</ele></trkpt>
      <trkpt lat="22.2575400584" lon="113.9914171980"><ele>100.000</ele></trkpt>
      <trkpt lat="22.2575316871" lon="113.9914030369"><ele>100.000</ele></trkpt>
      <trkpt lat="22.2575219930" lon="113.9913850986"><ele>100.000</ele></trkpt>
      <trkpt lat="22.2575122991" lon="113.9913681044"><ele>98.000</ele></trkpt>
      <trkpt lat="22.2575021603" lon="113.9913459145"><ele>100.000</ele></trkpt>
      <trkpt lat="22.2574928931" lon="113.9913269338"><ele>100.000</ele></trkpt>
      <trkpt lat="22.2574885859" lon="113.9913169992"><ele>100.000</ele></trkpt>
      <trkpt lat="22.2574826018" lon="113.9913031977"><ele>100.000</ele></trkpt>
      <trkpt lat="22.2574774717" lon="113.9912906757"><ele>100.000</ele></trkpt>
      <trkpt lat="22.2574695340" lon="113.9912703729"><ele>102.000</ele></trkpt>
      <trkpt lat="22.2574642398" lon="113.9912557352"><ele>102.000</ele></trkpt>
      <trkpt lat="22.2574549726" lon="113.9912264581"><ele>102.000</ele></trkpt>
      <trkpt lat="22.2574443278" lon="113.9911913793"><ele>102.000</ele></trkpt>
      <trkpt lat="22.2574343408" lon="113.9911604927"><ele>102.000</ele></trkpt>
      <trkpt lat="22.2574258541" lon="113.9911307198"><ele>103.000</ele></trkpt>
      <trkpt lat="22.2574223381" lon="113.9911177262"><ele>103.000</ele></trkpt>
      <trkpt lat="22.2574187234" lon="113.9911021482"><ele>98.000</ele></trkpt>
      <trkpt lat="22.2574151193" lon="113.9910863509"><ele>98.000</ele></trkpt>
      <trkpt lat="22.2574119140" lon="113.9910702775"><ele>101.000</ele></trkpt>
      <trkpt lat="22.2574069255" lon="113.9910410860"><ele>101.000</ele></trkpt>
      <trkpt lat="22.2574016209" lon="113.9910086798"><ele>104.000</ele></trkpt>
      <trkpt lat="22.2573924542" lon="113.9909505528"><ele>104.000</ele></trkpt>
      <trkpt lat="22.2573705358" lon="113.9908019651"><ele>98.000</ele></trkpt>
      <trkpt lat="22.2573616615" lon="113.9907334346"><ele>101.000</ele></trkpt>
      <trkpt lat="22.2573503413" lon="113.9906583006"><ele>108.000</ele></trkpt>
      <trkpt lat="22.2573485740" lon="113.9906448953"><ele>108.000</ele></trkpt>
      <trkpt lat="22.2573480155" lon="113.9906303727"><ele>108.000</ele></trkpt>
      <trkpt lat="22.2573489550" lon="113.9906148779"><ele>108.000</ele></trkpt>
      <trkpt lat="22.2573512685" lon="113.9906005552"><ele>108.000</ele></trkpt>
      <trkpt lat="22.2573544251" lon="113.9905812253"><ele>105.000</ele></trkpt>
      <trkpt lat="22.2573558493" lon="113.9905631784"><ele>105.000</ele></trkpt>
      <trkpt lat="22.2573558096" lon="113.9905443087"><ele>101.000</ele></trkpt>
      <trkpt lat="22.2573541166" lon="113.9905247719"><ele>101.000</ele></trkpt>
      <trkpt lat="22.2573466647" lon="113.9904681920"><ele>102.000</ele></trkpt>
      <trkpt lat="22.2573376358" lon="113.9904146315"><ele>106.000</ele></trkpt>
      <trkpt lat="22.2573353381" lon="113.9904033806"><ele>106.000</ele></trkpt>
      <trkpt lat="22.2573317510" lon="113.9903937613"><ele>110.000</ele></trkpt>
      <trkpt lat="22.2573268100" lon="113.9903848520"><ele>103.000</ele></trkpt>
      <trkpt lat="22.2573198825" lon="113.9903760618"><ele>103.000</ele></trkpt>
      <trkpt lat="22.2573107451" lon="113.9903616961"><ele>103.000</ele></trkpt>
      <trkpt lat="22.2573035117" lon="113.9903461345"><ele>104.000</ele></trkpt>
      <trkpt lat="22.2573006487" lon="113.9903379889"><ele>104.000</ele></trkpt>
      <trkpt lat="22.2572978101" lon="113.9903275440"><ele>104.000</ele></trkpt>
      <trkpt lat="22.2572950181" lon="113.9903104146"><ele>104.000</ele></trkpt>
      <trkpt lat="22.2572886467" lon="113.9902747501"><ele>104.000</ele></trkpt>
      <trkpt lat="22.2572808272" lon="113.9902363226"><ele>103.000</ele></trkpt>
      <trkpt lat="22.2572720688" lon="113.9901981291"><ele>104.000</ele></trkpt>
      <trkpt lat="22.2572623805" lon="113.9901601988"><ele>107.000</ele></trkpt>
      <trkpt lat="22.2572521033" lon="113.9901284493"><ele>107.000</ele></trkpt>
      <trkpt lat="22.2572402013" lon="113.9900973519"><ele>111.000</ele></trkpt>
      <trkpt lat="22.2572257693" lon="113.9900650161"><ele>105.000</ele></trkpt>
      <trkpt lat="22.2572106453" lon="113.9900355819"><ele>110.000</ele></trkpt>
      <trkpt lat="22.2571927894" lon="113.9900021350"><ele>107.000</ele></trkpt>
      <trkpt lat="22.2571740792" lon="113.9899717840"><ele>107.000</ele></trkpt>
      <trkpt lat="22.2571523794" lon="113.9899410780"><ele>109.000</ele></trkpt>
      <trkpt lat="22.2571408303" lon="113.9899263178"><ele>106.000</ele></trkpt>
      <trkpt lat="22.2571288302" lon="113.9899119850"><ele>110.000</ele></trkpt>
      <trkpt lat="22.2571049429" lon="113.9898873260"><ele>110.000</ele></trkpt>
      <trkpt lat="22.2570800095" lon="113.9898638715"><ele>113.000</ele></trkpt>
      <trkpt lat="22.2570541112" lon="113.9898416794"><ele>110.000</ele></trkpt>
      <trkpt lat="22.2570293721" lon="113.9898223479"><ele>110.000</ele></trkpt>
      <trkpt lat="22.2570028352" lon="113.9898023978"><ele>110.000</ele></trkpt>
      <trkpt lat="22.2569713293" lon="113.9897805236"><ele>110.000</ele></trkpt>
      <trkpt lat="22.2569420124" lon="113.9897618094"><ele>110.000</ele></trkpt>
      <trkpt lat="22.2569120917" lon="113.9897442407"><ele>112.000</ele></trkpt>
      <trkpt lat="22.2568571293" lon="113.9897111148"><ele>117.000</ele></trkpt>
      <trkpt lat="22.2568068759" lon="113.9896815528"><ele>115.000</ele></trkpt>
      <trkpt lat="22.2566684316" lon="113.9895989434"><ele>119.000</ele></trkpt>
      <trkpt lat="22.2566040903" lon="113.9895614838"><ele>118.000</ele></trkpt>
      <trkpt lat="22.2565459202" lon="113.9895268003"><ele>122.000</ele></trkpt>
      <trkpt lat="22.2564951974" lon="113.9894974235"><ele>118.000</ele></trkpt>
      <trkpt lat="22.2564397835" lon="113.9894643663"><ele>114.000</ele></trkpt>
      <trkpt lat="22.2564106382" lon="113.9894457198"><ele>112.000</ele></trkpt>
      <trkpt lat="22.2563801177" lon="113.9894248438"><ele>114.000</ele></trkpt>
      <trkpt lat="22.2563539069" lon="113.9894057569"><ele>114.000</ele></trkpt>
      <trkpt lat="22.2563245492" lon="113.9893830264"><ele>114.000</ele></trkpt>
      <trkpt lat="22.2562990398" lon="113.9893614452"><ele>114.000</ele></trkpt>
      <trkpt lat="22.2562743150" lon="113.9893388347"><ele>113.000</ele></trkpt>
      <trkpt lat="22.2562504017" lon="113.9893152432"><ele>117.000</ele></trkpt>
      <trkpt lat="22.2562262060" lon="113.9892894401"><ele>117.000</ele></trkpt>
      <trkpt lat="22.2562073961" lon="113.9892667150"><ele>124.000</ele></trkpt>
      <trkpt lat="22.2561885831" lon="113.9892413413"><ele>123.000</ele></trkpt>
      <trkpt lat="22.2561721729" lon="113.9892165563"><ele>126.000</ele></trkpt>
      <trkpt lat="22.2561569989" lon="113.9891908965"><ele>128.000</ele></trkpt>
      <trkpt lat="22.2561412904" lon="113.9891637724"><ele>128.000</ele></trkpt>
      <trkpt lat="22.2561278593" lon="113.9891380618"><ele>127.000</ele></trkpt>
      <trkpt lat="22.2561154750" lon="113.9891117580"><ele>127.000</ele></trkpt>
      <trkpt lat="22.2561023895" lon="113.9890803715"><ele>117.000</ele></trkpt>
      <trkpt lat="22.2560923772" lon="113.9890514644"><ele>117.000</ele></trkpt>
      <trkpt lat="22.2560835272" lon="113.9890202372"><ele>119.000</ele></trkpt>
      <trkpt lat="22.2560768370" lon="113.9889902489"><ele>121.000</ele></trkpt>
      <trkpt lat="22.2560713252" lon="113.9889563008"><ele>121.000</ele></trkpt>
      <trkpt lat="22.2560671161" lon="113.9889243592"><ele>122.000</ele></trkpt>
      <trkpt lat="22.2560643172" lon="113.9888935896"><ele>125.000</ele></trkpt>
      <trkpt lat="22.2560627659" lon="113.9888640601"><ele>120.000</ele></trkpt>
      <trkpt lat="22.2560623253" lon="113.9888344904"><ele>121.000</ele></trkpt>
      <trkpt lat="22.2560626346" lon="113.9888052591"><ele>121.000</ele></trkpt>
      <trkpt lat="22.2560649060" lon="113.9887702723"><ele>127.000</ele></trkpt>
      <trkpt lat="22.2560686541" lon="113.9887393581"><ele>122.000</ele></trkpt>
      <trkpt lat="22.2560744140" lon="113.9887068114"><ele>121.000</ele></trkpt>
      <trkpt lat="22.2560830335" lon="113.9886714765"><ele>121.000</ele></trkpt>
      <trkpt lat="22.2560922077" lon="113.9886394782"><ele>123.000</ele></trkpt>
      <trkpt lat="22.2561025925" lon="113.9886079148"><ele>131.000</ele></trkpt>
      <trkpt lat="22.2561147191" lon="113.9885754178"><ele>134.000</ele></trkpt>
      <trkpt lat="22.2561432728" lon="113.9885121060"><ele>136.000</ele></trkpt>
      <trkpt lat="22.2561704975" lon="113.9884552378"><ele>131.000</ele></trkpt>
      <trkpt lat="22.2561845040" lon="113.9884240577"><ele>131.000</ele></trkpt>
      <trkpt lat="22.2561975707" lon="113.9883924131"><ele>126.000</ele></trkpt>
      <trkpt lat="22.2562084015" lon="113.9883639245"><ele>126.000</ele></trkpt>
      <trkpt lat="22.2562202642" lon="113.9883296717"><ele>126.000</ele></trkpt>
      <trkpt lat="22.2562306639" lon="113.9882954792"><ele>126.000</ele></trkpt>
      <trkpt lat="22.2562395008" lon="113.9882607745"><ele>126.000</ele></trkpt>
      <trkpt lat="22.2562467568" lon="113.9882256548"><ele>126.000</ele></trkpt>
      <trkpt lat="22.2562520288" lon="113.9881929341"><ele>128.000</ele></trkpt>
      <trkpt lat="22.2562529494" lon="113.9881839676"><ele>128.000</ele></trkpt>
    </trkseg>
  </trk>
</gpx>
