<?xml version="1.0" encoding="UTF-8"?>
<gpx xmlns:xsi="http://www.w3.org/2001/XMLSchema-instance"
     xsi:schemaLocation="http://www.topografix.com/GPX/1/1 http://www.topografix.com/GPX/1/1/gpx.xsd"
     version="1.1" creator="json3d_batch_to_gpx"
     xmlns="http://www.topografix.com/GPX/1/1">
  <metadata>
    <name>LantauTrail(Section10)ShuiHautoCheungSha</name>
  </metadata>
  <trk>
    <name>LantauTrail(Section10)ShuiHautoCheungSha</name>
    <type>hike</type>
    <trkseg>
      <trkpt lat="22.2214739013" lon="113.9178115075"><ele>8.000</ele></trkpt>
      <trkpt lat="22.2214939417" lon="113.9178067336"><ele>8.000</ele></trkpt>
      <trkpt lat="22.2215203572" lon="113.9178004418"><ele>13.000</ele></trkpt>
      <trkpt lat="22.2215355321" lon="113.9177974964"><ele>13.000</ele></trkpt>
      <trkpt lat="22.2215426475" lon="113.9177970275"><ele>13.000</ele></trkpt>
      <trkpt lat="22.2215571122" lon="113.9177955945"><ele>13.000</ele></trkpt>
      <trkpt lat="22.2215640082" lon="113.9177933996"><ele>16.000</ele></trkpt>
      <trkpt lat="22.2215793933" lon="113.9177914897"><ele>16.000</ele></trkpt>
      <trkpt lat="22.2216014266" lon="113.9177905763"><ele>16.000</ele></trkpt>
      <trkpt lat="22.2216085432" lon="113.9177908542"><ele>16.000</ele></trkpt>
      <trkpt lat="22.2216154316" lon="113.9177896388"><ele>16.000</ele></trkpt>
      <trkpt lat="22.2216363385" lon="113.9177845375"><ele>16.000</ele></trkpt>
      <trkpt lat="22.2216503553" lon="113.9177796525"><ele>16.000</ele></trkpt>
      <trkpt lat="22.2216570152" lon="113.9177767111"><ele>16.000</ele></trkpt>
      <trkpt lat="22.2216698996" lon="113.9177696071"><ele>16.000</ele></trkpt>
      <trkpt lat="22.2216823145" lon="113.9177624942"><ele>16.000</ele></trkpt>
      <trkpt lat="22.2216880694" lon="113.9177583227"><ele>16.000</ele></trkpt>
      <trkpt lat="22.2216933621" lon="113.9177531530"><ele>16.000</ele></trkpt>
      <trkpt lat="22.2216982108" lon="113.9177470045"><ele>16.000</ele></trkpt>
      <trkpt lat="22.2217023630" lon="113.9177401105"><ele>16.000</ele></trkpt>
      <trkpt lat="22.2217053682" lon="113.9177332089"><ele>16.000</ele></trkpt>
      <trkpt lat="22.2217076871" lon="113.9177263085"><ele>16.000</ele></trkpt>
      <trkpt lat="22.2217090935" lon="113.9177191576"><ele>16.000</ele></trkpt>
      <trkpt lat="22.2217112086" lon="113.9177033635"><ele>18.000</ele></trkpt>
      <trkpt lat="22.2217094790" lon="113.9176720190"><ele>18.000</ele></trkpt>
      <trkpt lat="22.2217081311" lon="113.9176648538"><ele>18.000</ele></trkpt>
      <trkpt lat="22.2217063457" lon="113.9176495421"><ele>18.000</ele></trkpt>
      <trkpt lat="22.2217009186" lon="113.9176270694"><ele>18.000</ele></trkpt>
      <trkpt lat="22.2216970900" lon="113.9176045938"><ele>20.000</ele></trkpt>
      <trkpt lat="22.2216953124" lon="113.9175885450"><ele>20.000</ele></trkpt>
      <trkpt lat="22.2216912278" lon="113.9175737787"><ele>20.000</ele></trkpt>
      <trkpt lat="22.2216967675" lon="113.9175665834"><ele>20.000</ele></trkpt>
      <trkpt lat="22.2217184226" lon="113.9175437118"><ele>22.000</ele></trkpt>
      <trkpt lat="22.2217232619" lon="113.9175373111"><ele>22.000</ele></trkpt>
      <trkpt lat="22.2217350159" lon="113.9175235361"><ele>22.000</ele></trkpt>
      <trkpt lat="22.2217483938" lon="113.9175030948"><ele>24.000</ele></trkpt>
      <trkpt lat="22.2217523280" lon="113.9174954640"><ele>24.000</ele></trkpt>
      <trkpt lat="22.2217551059" lon="113.9174875735"><ele>24.000</ele></trkpt>
      <trkpt lat="22.2217553650" lon="113.9174801725"><ele>24.000</ele></trkpt>
      <trkpt lat="22.2217531183" lon="113.9174643670"><ele>24.000</ele></trkpt>
      <trkpt lat="22.2217522042" lon="113.9174631272"><ele>28.000</ele></trkpt>
      <trkpt lat="22.2217440153" lon="113.9174416295"><ele>28.000</ele></trkpt>
      <trkpt lat="22.2217401396" lon="113.9174349540"><ele>28.000</ele></trkpt>
      <trkpt lat="22.2217438127" lon="113.9174334826"><ele>28.000</ele></trkpt>
      <trkpt lat="22.2217629604" lon="113.9174069008"><ele>30.000</ele></trkpt>
      <trkpt lat="22.2217671125" lon="113.9174000068"><ele>30.000</ele></trkpt>
      <trkpt lat="22.2217754329" lon="113.9173849771"><ele>30.000</ele></trkpt>
      <trkpt lat="22.2217786635" lon="113.9173778326"><ele>30.000</ele></trkpt>
      <trkpt lat="22.2217865237" lon="113.9173630560"><ele>30.000</ele></trkpt>
      <trkpt lat="22.2218026810" lon="113.9173357135"><ele>30.000</ele></trkpt>
      <trkpt lat="22.2218061468" lon="113.9173288207"><ele>30.000</ele></trkpt>
      <trkpt lat="22.2218126331" lon="113.9173132998"><ele>30.000</ele></trkpt>
      <trkpt lat="22.2218184237" lon="113.9172975183"><ele>30.000</ele></trkpt>
      <trkpt lat="22.2218226064" lon="113.9172814972"><ele>30.000</ele></trkpt>
      <trkpt lat="22.2218240120" lon="113.9172738517"><ele>30.000</ele></trkpt>
      <trkpt lat="22.2218276202" lon="113.9172259797"><ele>30.000</ele></trkpt>
      <trkpt lat="22.2218279095" lon="113.9172091996"><ele>32.000</ele></trkpt>
      <trkpt lat="22.2218265842" lon="113.9171936446"><ele>32.000</ele></trkpt>
      <trkpt lat="22.2218216717" lon="113.9171541392"><ele>32.000</ele></trkpt>
      <trkpt lat="22.2218217039" lon="113.9171459918"><ele>32.000</ele></trkpt>
      <trkpt lat="22.2218236422" lon="113.9171156493"><ele>30.000</ele></trkpt>
      <trkpt lat="22.2218264530" lon="113.9171001060"><ele>30.000</ele></trkpt>
      <trkpt lat="22.2218314032" lon="113.9170613778"><ele>30.000</ele></trkpt>
      <trkpt lat="22.2218330349" lon="113.9170539744"><ele>30.000</ele></trkpt>
      <trkpt lat="22.2218365007" lon="113.9170470816"><ele>30.000</ele></trkpt>
      <trkpt lat="22.2218418554" lon="113.9170241526"><ele>33.000</ele></trkpt>
      <trkpt lat="22.2218481320" lon="113.9170017068"><ele>33.000</ele></trkpt>
      <trkpt lat="22.2218532370" lon="113.9169864309"><ele>33.000</ele></trkpt>
      <trkpt lat="22.2218627575" lon="113.9169538824"><ele>38.000</ele></trkpt>
      <trkpt lat="22.2218701802" lon="113.9169309593"><ele>38.000</ele></trkpt>
      <trkpt lat="22.2218755129" lon="113.9169169147"><ele>40.000</ele></trkpt>
      <trkpt lat="22.2218880014" lon="113.9168880852"><ele>40.000</ele></trkpt>
      <trkpt lat="22.2218898683" lon="113.9168809335"><ele>38.000</ele></trkpt>
      <trkpt lat="22.2218998372" lon="113.9168520891"><ele>38.000</ele></trkpt>
      <trkpt lat="22.2219051601" lon="113.9168375500"><ele>38.000</ele></trkpt>
      <trkpt lat="22.2219114061" lon="113.9168242409"><ele>38.000</ele></trkpt>
      <trkpt lat="22.2219146441" lon="113.9168161167"><ele>38.000</ele></trkpt>
      <trkpt lat="22.2219223016" lon="113.9167931834"><ele>40.000</ele></trkpt>
      <trkpt lat="22.2219257666" lon="113.9167857960"><ele>40.000</ele></trkpt>
      <trkpt lat="22.2219306324" lon="113.9167791140"><ele>41.000</ele></trkpt>
      <trkpt lat="22.2219370670" lon="113.9167764155"><ele>41.000</ele></trkpt>
      <trkpt lat="22.2219503903" lon="113.9167727537"><ele>41.000</ele></trkpt>
      <trkpt lat="22.2219630328" lon="113.9167668721"><ele>41.000</ele></trkpt>
      <trkpt lat="22.2219699358" lon="113.9167634355"><ele>42.000</ele></trkpt>
      <trkpt lat="22.2219763774" lon="113.9167595052"><ele>42.000</ele></trkpt>
      <trkpt lat="22.2220080958" lon="113.9167443063"><ele>42.000</ele></trkpt>
      <trkpt lat="22.2220453413" lon="113.9167236851"><ele>44.000</ele></trkpt>
      <trkpt lat="22.2220692650" lon="113.9167077149"><ele>42.000</ele></trkpt>
      <trkpt lat="22.2220858322" lon="113.9166939406"><ele>42.000</ele></trkpt>
      <trkpt lat="22.2220980275" lon="113.9166850918"><ele>44.000</ele></trkpt>
      <trkpt lat="22.2221279334" lon="113.9166659293"><ele>42.000</ele></trkpt>
      <trkpt lat="22.2221520758" lon="113.9166511905"><ele>40.000</ele></trkpt>
      <trkpt lat="22.2221693326" lon="113.9166393935"><ele>40.000</ele></trkpt>
      <trkpt lat="22.2221810657" lon="113.9166295563"><ele>45.000</ele></trkpt>
      <trkpt lat="22.2221928012" lon="113.9166212030"><ele>44.000</ele></trkpt>
      <trkpt lat="22.2221985548" lon="113.9166162846"><ele>44.000</ele></trkpt>
      <trkpt lat="22.2222217824" lon="113.9165998113"><ele>44.000</ele></trkpt>
      <trkpt lat="22.2222339714" lon="113.9165926987"><ele>44.000</ele></trkpt>
      <trkpt lat="22.2222466135" lon="113.9165865649"><ele>52.000</ele></trkpt>
      <trkpt lat="22.2222590361" lon="113.9165787050"><ele>52.000</ele></trkpt>
      <trkpt lat="22.2222696302" lon="113.9165681231"><ele>52.000</ele></trkpt>
      <trkpt lat="22.2222735486" lon="113.9165619569"><ele>52.000</ele></trkpt>
      <trkpt lat="22.2222763281" lon="113.9165550556"><ele>52.000</ele></trkpt>
      <trkpt lat="22.2222784117" lon="113.9165479034"><ele>52.000</ele></trkpt>
      <trkpt lat="22.2222793571" lon="113.9165405012"><ele>53.000</ele></trkpt>
      <trkpt lat="22.2222833073" lon="113.9165259451"><ele>55.000</ele></trkpt>
      <trkpt lat="22.2222865391" lon="113.9165195377"><ele>55.000</ele></trkpt>
      <trkpt lat="22.2222916127" lon="113.9165128844"><ele>55.000</ele></trkpt>
      <trkpt lat="22.2223024259" lon="113.9165037859"><ele>55.000</ele></trkpt>
      <trkpt lat="22.2223086330" lon="113.9165000985"><ele>55.000</ele></trkpt>
      <trkpt lat="22.2223224166" lon="113.9164961934"><ele>55.000</ele></trkpt>
      <trkpt lat="22.2223357470" lon="113.9164912998"><ele>56.000</ele></trkpt>
      <trkpt lat="22.2223419554" lon="113.9164883592"><ele>56.000</ele></trkpt>
      <trkpt lat="22.2223546049" lon="113.9164812360"><ele>56.000</ele></trkpt>
      <trkpt lat="22.2223851869" lon="113.9164613350"><ele>56.000</ele></trkpt>
      <trkpt lat="22.2224222149" lon="113.9164402290"><ele>56.000</ele></trkpt>
      <trkpt lat="22.2224401497" lon="113.9164289254"><ele>56.000</ele></trkpt>
      <trkpt lat="22.2224636179" lon="113.9164104827"><ele>56.000</ele></trkpt>
      <trkpt lat="22.2224880095" lon="113.9163935223"><ele>56.000</ele></trkpt>
      <trkpt lat="22.2224933031" lon="113.9163888569"><ele>56.000</ele></trkpt>
      <trkpt lat="22.2225050307" lon="113.9163812407"><ele>58.000</ele></trkpt>
      <trkpt lat="22.2225165318" lon="113.9163731303"><ele>58.000</ele></trkpt>
      <trkpt lat="22.2225271176" lon="113.9163630333"><ele>58.000</ele></trkpt>
      <trkpt lat="22.2225314974" lon="113.9163573706"><ele>58.000</ele></trkpt>
      <trkpt lat="22.2225379695" lon="113.9163443035"><ele>56.000</ele></trkpt>
      <trkpt lat="22.2225423481" lon="113.9163379036"><ele>56.000</ele></trkpt>
      <trkpt lat="22.2225533953" lon="113.9163283101"><ele>58.000</ele></trkpt>
      <trkpt lat="22.2225651312" lon="113.9163201992"><ele>58.000</ele></trkpt>
      <trkpt lat="22.2225711130" lon="113.9163167644"><ele>58.000</ele></trkpt>
      <trkpt lat="22.2226108721" lon="113.9162981266"><ele>58.000</ele></trkpt>
      <trkpt lat="22.2226235295" lon="113.9162902663"><ele>58.000</ele></trkpt>
      <trkpt lat="22.2226354899" lon="113.9162814179"><ele>58.000</ele></trkpt>
      <trkpt lat="22.2226476789" lon="113.9162742955"><ele>58.000</ele></trkpt>
      <trkpt lat="22.2226603202" lon="113.9162676670"><ele>58.000</ele></trkpt>
      <trkpt lat="22.2226780371" lon="113.9162556266"><ele>58.000</ele></trkpt>
      <trkpt lat="22.2226999045" lon="113.9162357028"><ele>58.000</ele></trkpt>
      <trkpt lat="22.2227100376" lon="113.9162248695"><ele>58.000</ele></trkpt>
      <trkpt lat="22.2227148776" lon="113.9162189634"><ele>58.000</ele></trkpt>
      <trkpt lat="22.2227192570" lon="113.9162130485"><ele>58.000</ele></trkpt>
      <trkpt lat="22.2227231750" lon="113.9162066397"><ele>58.000</ele></trkpt>
      <trkpt lat="22.2227317386" lon="113.9161856833"><ele>58.000</ele></trkpt>
      <trkpt lat="22.2227359142" lon="113.9161708842"><ele>58.000</ele></trkpt>
      <trkpt lat="22.2227389193" lon="113.9161639825"><ele>58.000</ele></trkpt>
      <trkpt lat="22.2227460770" lon="113.9161504195"><ele>58.000</ele></trkpt>
      <trkpt lat="22.2227509165" lon="113.9161442612"><ele>58.000</ele></trkpt>
      <trkpt lat="22.2227656564" lon="113.9161285115"><ele>58.000</ele></trkpt>
      <trkpt lat="22.2227880156" lon="113.9160999448"><ele>56.000</ele></trkpt>
      <trkpt lat="22.2228032070" lon="113.9160841845"><ele>56.000</ele></trkpt>
      <trkpt lat="22.2228258291" lon="113.9160590653"><ele>54.000</ele></trkpt>
      <trkpt lat="22.2228326937" lon="113.9160514436"><ele>54.000</ele></trkpt>
      <trkpt lat="22.2228379950" lon="113.9160460313"><ele>54.000</ele></trkpt>
      <trkpt lat="22.2228490340" lon="113.9160369324"><ele>54.000</ele></trkpt>
      <trkpt lat="22.2228777976" lon="113.9160150462"><ele>54.000</ele></trkpt>
      <trkpt lat="22.2228996583" lon="113.9159966063"><ele>54.000</ele></trkpt>
      <trkpt lat="22.2229104792" lon="113.9159867610"><ele>54.000</ele></trkpt>
      <trkpt lat="22.2229206135" lon="113.9159766744"><ele>54.000</ele></trkpt>
      <trkpt lat="22.2229401933" lon="113.9159550089"><ele>53.000</ele></trkpt>
      <trkpt lat="22.2229567675" lon="113.9159400026"><ele>53.000</ele></trkpt>
      <trkpt lat="22.2229627473" lon="113.9159353262"><ele>53.000</ele></trkpt>
      <trkpt lat="22.2229751691" lon="113.9159269716"><ele>53.000</ele></trkpt>
      <trkpt lat="22.2229933309" lon="113.9159164143"><ele>53.000</ele></trkpt>
      <trkpt lat="22.2230239222" lon="113.9158967652"><ele>52.000</ele></trkpt>
      <trkpt lat="22.2230301302" lon="113.9158935724"><ele>52.000</ele></trkpt>
      <trkpt lat="22.2230365722" lon="113.9158898942"><ele>52.000</ele></trkpt>
      <trkpt lat="22.2230414043" lon="113.9158847252"><ele>52.000</ele></trkpt>
      <trkpt lat="22.2230648748" lon="113.9158677566"><ele>52.000</ele></trkpt>
      <trkpt lat="22.2230756867" lon="113.9158579210"><ele>52.000</ele></trkpt>
      <trkpt lat="22.2230805279" lon="113.9158527520"><ele>52.000</ele></trkpt>
      <trkpt lat="22.2230915738" lon="113.9158424116"><ele>52.000</ele></trkpt>
      <trkpt lat="22.2231205769" lon="113.9158178188"><ele>52.000</ele></trkpt>
      <trkpt lat="22.2231258700" lon="113.9158129012"><ele>52.000</ele></trkpt>
      <trkpt lat="22.2231437276" lon="113.9157929293"><ele>52.000</ele></trkpt>
      <trkpt lat="22.2231507499" lon="113.9157850764"><ele>52.000</ele></trkpt>
      <trkpt lat="22.2231551297" lon="113.9157794137"><ele>52.000</ele></trkpt>
      <trkpt lat="22.2231661764" lon="113.9157695776"><ele>52.000</ele></trkpt>
      <trkpt lat="22.2231712433" lon="113.9157644082"><ele>52.000</ele></trkpt>
      <trkpt lat="22.2231751614" lon="113.9157579994"><ele>52.000</ele></trkpt>
      <trkpt lat="22.2231797673" lon="113.9157525787"><ele>52.000</ele></trkpt>
      <trkpt lat="22.2231882996" lon="113.9157402643"><ele>52.000</ele></trkpt>
      <trkpt lat="22.2231915403" lon="113.9157338567"><ele>52.000</ele></trkpt>
      <trkpt lat="22.2232031008" lon="113.9157064834"><ele>52.000</ele></trkpt>
      <trkpt lat="22.2232081899" lon="113.9156926719"><ele>52.000</ele></trkpt>
      <trkpt lat="22.2232202196" lon="113.9156650650"><ele>52.000</ele></trkpt>
      <trkpt lat="22.2232245986" lon="113.9156588978"><ele>52.000</ele></trkpt>
      <trkpt lat="22.2232301182" lon="113.9156544744"><ele>52.000</ele></trkpt>
      <trkpt lat="22.2232409470" lon="113.9156478434"><ele>52.000</ele></trkpt>
      <trkpt lat="22.2232674925" lon="113.9156359543"><ele>52.000</ele></trkpt>
      <trkpt lat="22.2232799277" lon="113.9156308983"><ele>54.000</ele></trkpt>
      <trkpt lat="22.2232933332" lon="113.9156267077"><ele>54.000</ele></trkpt>
      <trkpt lat="22.2233047264" lon="113.9156251289"><ele>54.000</ele></trkpt>
      <trkpt lat="22.2233381663" lon="113.9156180098"><ele>56.000</ele></trkpt>
      <trkpt lat="22.2233811663" lon="113.9156127982"><ele>55.000</ele></trkpt>
      <trkpt lat="22.2234110270" lon="113.9156088933"><ele>52.000</ele></trkpt>
      <trkpt lat="22.2234396817" lon="113.9155979334"><ele>52.000</ele></trkpt>
      <trkpt lat="22.2234563898" lon="113.9155869956"><ele>50.000</ele></trkpt>
      <trkpt lat="22.2234748689" lon="113.9155632233"><ele>50.000</ele></trkpt>
      <trkpt lat="22.2234987250" lon="113.9155400832"><ele>50.000</ele></trkpt>
      <trkpt lat="22.2235148207" lon="113.9155195229"><ele>52.000</ele></trkpt>
      <trkpt lat="22.2235410632" lon="113.9154944531"><ele>52.000</ele></trkpt>
      <trkpt lat="22.2235625379" lon="113.9154758081"><ele>52.000</ele></trkpt>
      <trkpt lat="22.2235887898" lon="113.9154571543"><ele>52.000</ele></trkpt>
      <trkpt lat="22.2236055028" lon="113.9154487829"><ele>52.000</ele></trkpt>
      <trkpt lat="22.2236269983" lon="113.9154436102"><ele>52.000</ele></trkpt>
      <trkpt lat="22.2236467113" lon="113.9154442148"><ele>52.000</ele></trkpt>
      <trkpt lat="22.2236646327" lon="113.9154448237"><ele>52.000</ele></trkpt>
      <trkpt lat="22.2236825530" lon="113.9154447904"><ele>54.000</ele></trkpt>
      <trkpt lat="22.2237100263" lon="113.9154421731"><ele>54.000</ele></trkpt>
      <trkpt lat="22.2237327164" lon="113.9154363570"><ele>54.000</ele></trkpt>
      <trkpt lat="22.2237553797" lon="113.9154145013"><ele>54.000</ele></trkpt>
      <trkpt lat="22.2237720909" lon="113.9154054888"><ele>56.000</ele></trkpt>
      <trkpt lat="22.2237930059" lon="113.9154105819"><ele>56.000</ele></trkpt>
      <trkpt lat="22.2238127303" lon="113.9154182447"><ele>56.000</ele></trkpt>
      <trkpt lat="22.2238354275" lon="113.9154169194"><ele>56.000</ele></trkpt>
      <trkpt lat="22.2238509460" lon="113.9154091923"><ele>56.000</ele></trkpt>
      <trkpt lat="22.2238634689" lon="113.9153963369"><ele>56.000</ele></trkpt>
      <trkpt lat="22.2238843076" lon="113.9153539550"><ele>58.000</ele></trkpt>
      <trkpt lat="22.2239003847" lon="113.9153218466"><ele>60.000</ele></trkpt>
      <trkpt lat="22.2239033350" lon="113.9152993863"><ele>60.000</ele></trkpt>
      <trkpt lat="22.2239092716" lon="113.9152762783"><ele>62.000</ele></trkpt>
      <trkpt lat="22.2239170051" lon="113.9152563755"><ele>62.000</ele></trkpt>
      <trkpt lat="22.2239265343" lon="113.9152390359"><ele>62.000</ele></trkpt>
      <trkpt lat="22.2239396426" lon="113.9152184810"><ele>62.000</ele></trkpt>
      <trkpt lat="22.2239539540" lon="113.9152030568"><ele>64.000</ele></trkpt>
      <trkpt lat="22.2239748318" lon="113.9151850540"><ele>64.000</ele></trkpt>
      <trkpt lat="22.2240130052" lon="113.9151496970"><ele>65.000</ele></trkpt>
      <trkpt lat="22.2240589215" lon="113.9151008524"><ele>66.000</ele></trkpt>
      <trkpt lat="22.2240941065" lon="113.9150648589"><ele>68.000</ele></trkpt>
      <trkpt lat="22.2241298894" lon="113.9150288642"><ele>70.000</ele></trkpt>
      <trkpt lat="22.2241513517" lon="113.9150031619"><ele>70.000</ele></trkpt>
      <trkpt lat="22.2241734078" lon="113.9149748920"><ele>70.000</ele></trkpt>
      <trkpt lat="22.2241877212" lon="113.9149607510"><ele>72.000</ele></trkpt>
      <trkpt lat="22.2242026406" lon="113.9149517407"><ele>72.000</ele></trkpt>
      <trkpt lat="22.2242187550" lon="113.9149433704"><ele>73.000</ele></trkpt>
      <trkpt lat="22.2242330663" lon="113.9149279461"><ele>74.000</ele></trkpt>
      <trkpt lat="22.2242569046" lon="113.9148932568"><ele>74.000</ele></trkpt>
      <trkpt lat="22.2242730055" lon="113.9148765460"><ele>74.000</ele></trkpt>
      <trkpt lat="22.2242920937" lon="113.9148598296"><ele>74.000</ele></trkpt>
      <trkpt lat="22.2243093935" lon="113.9148456830"><ele>75.000</ele></trkpt>
      <trkpt lat="22.2243296775" lon="113.9148296065"><ele>76.000</ele></trkpt>
      <trkpt lat="22.2243559260" lon="113.9148083860"><ele>76.000</ele></trkpt>
      <trkpt lat="22.2243744195" lon="113.9147935950"><ele>76.000</ele></trkpt>
      <trkpt lat="22.2243935036" lon="113.9147743122"><ele>78.000</ele></trkpt>
      <trkpt lat="22.2244090045" lon="113.9147556781"><ele>78.000</ele></trkpt>
      <trkpt lat="22.2244239116" lon="113.9147396116"><ele>78.000</ele></trkpt>
      <trkpt lat="22.2244411999" lon="113.9147177656"><ele>78.000</ele></trkpt>
      <trkpt lat="22.2244578884" lon="113.9146952797"><ele>78.000</ele></trkpt>
      <trkpt lat="22.2244781589" lon="113.9146708617"><ele>80.000</ele></trkpt>
      <trkpt lat="22.2244966410" lon="113.9146490145"><ele>80.000</ele></trkpt>
      <trkpt lat="22.2245097586" lon="113.9146342335"><ele>80.000</ele></trkpt>
      <trkpt lat="22.2245252718" lon="113.9146232977"><ele>80.000</ele></trkpt>
      <trkpt lat="22.2245443693" lon="113.9146123563"><ele>80.000</ele></trkpt>
      <trkpt lat="22.2245634575" lon="113.9145956398"><ele>80.000</ele></trkpt>
      <trkpt lat="22.2245891071" lon="113.9145731362"><ele>80.000</ele></trkpt>
      <trkpt lat="22.2246135537" lon="113.9145461449"><ele>80.000</ele></trkpt>
      <trkpt lat="22.2246362169" lon="113.9145236478"><ele>82.000</ele></trkpt>
      <trkpt lat="22.2246582904" lon="113.9145062847"><ele>82.000</ele></trkpt>
      <trkpt lat="22.2246833618" lon="113.9144959722"><ele>80.000</ele></trkpt>
      <trkpt lat="22.2247084434" lon="113.9144914348"><ele>80.000</ele></trkpt>
      <trkpt lat="22.2247269586" lon="113.9144901171"><ele>80.000</ele></trkpt>
      <trkpt lat="22.2247508538" lon="113.9144913559"><ele>80.000</ele></trkpt>
      <trkpt lat="22.2247747530" lon="113.9144945190"><ele>80.000</ele></trkpt>
      <trkpt lat="22.2248016357" lon="113.9144963943"><ele>80.000</ele></trkpt>
      <trkpt lat="22.2248255402" lon="113.9145027650"><ele>80.000</ele></trkpt>
      <trkpt lat="22.2248500396" lon="113.9145084945"><ele>80.000</ele></trkpt>
      <trkpt lat="22.2248757305" lon="113.9145116543"><ele>80.000</ele></trkpt>
      <trkpt lat="22.2248990360" lon="113.9145173850"><ele>78.000</ele></trkpt>
      <trkpt lat="22.2249205406" lon="113.9145173449"><ele>78.000</ele></trkpt>
      <trkpt lat="22.2249396517" lon="113.9145153850"><ele>78.000</ele></trkpt>
      <trkpt lat="22.2249551753" lon="113.9145108644"><ele>76.000</ele></trkpt>
      <trkpt lat="22.2249718802" lon="113.9144980020"><ele>78.000</ele></trkpt>
      <trkpt lat="22.2249897819" lon="113.9144864206"><ele>76.000</ele></trkpt>
      <trkpt lat="22.2250088763" lon="113.9144735538"><ele>76.000</ele></trkpt>
      <trkpt lat="22.2250357434" lon="113.9144658044"><ele>74.000</ele></trkpt>
      <trkpt lat="22.2250614157" lon="113.9144574162"><ele>74.000</ele></trkpt>
      <trkpt lat="22.2250841047" lon="113.9144509588"><ele>76.000</ele></trkpt>
      <trkpt lat="22.2251056022" lon="113.9144470691"><ele>76.000</ele></trkpt>
      <trkpt lat="22.2251300573" lon="113.9144455192"><ele>78.000</ele></trkpt>
      <trkpt lat="22.2251513668" lon="113.9144488123"><ele>78.000</ele></trkpt>
      <trkpt lat="22.2251938086" lon="113.9144597829"><ele>76.000</ele></trkpt>
      <trkpt lat="22.2252399261" lon="113.9144731676"><ele>76.000</ele></trkpt>
      <trkpt lat="22.2252645262" lon="113.9144903965"><ele>78.000</ele></trkpt>
      <trkpt lat="22.2252773973" lon="113.9144975210"><ele>78.000</ele></trkpt>
      <trkpt lat="22.2252900403" lon="113.9145031716"><ele>78.000</ele></trkpt>
      <trkpt lat="22.2253040539" lon="113.9145075782"><ele>78.000</ele></trkpt>
      <trkpt lat="22.2253173820" lon="113.9145124904"><ele>78.000</ele></trkpt>
      <trkpt lat="22.2253242735" lon="113.9145132147"><ele>78.000</ele></trkpt>
      <trkpt lat="22.2253415127" lon="113.9145186046"><ele>78.000</ele></trkpt>
      <trkpt lat="22.2253543822" lon="113.9145247398"><ele>79.000</ele></trkpt>
      <trkpt lat="22.2253730031" lon="113.9145358110"><ele>79.000</ele></trkpt>
      <trkpt lat="22.2253847235" lon="113.9145461482"><ele>79.000</ele></trkpt>
      <trkpt lat="22.2253893292" lon="113.9145518138"><ele>80.000</ele></trkpt>
      <trkpt lat="22.2254146332" lon="113.9145799047"><ele>82.000</ele></trkpt>
      <trkpt lat="22.2254436217" lon="113.9146136533"><ele>84.000</ele></trkpt>
      <trkpt lat="22.2254542231" lon="113.9146273223"><ele>84.000</ele></trkpt>
      <trkpt lat="22.2254571959" lon="113.9146311549"><ele>84.000</ele></trkpt>
      <trkpt lat="22.2254670936" lon="113.9146424848"><ele>84.000</ele></trkpt>
      <trkpt lat="22.2254944592" lon="113.9146666146"><ele>84.000</ele></trkpt>
      <trkpt lat="22.2255048065" lon="113.9146767118"><ele>84.000</ele></trkpt>
      <trkpt lat="22.2255232072" lon="113.9146912364"><ele>84.000</ele></trkpt>
      <trkpt lat="22.2255340167" lon="113.9147023222"><ele>85.000</ele></trkpt>
      <trkpt lat="22.2255397681" lon="113.9147072388"><ele>85.000</ele></trkpt>
      <trkpt lat="22.2255519455" lon="113.9147153637"><ele>85.000</ele></trkpt>
      <trkpt lat="22.2255567769" lon="113.9147210289"><ele>85.000</ele></trkpt>
      <trkpt lat="22.2255604568" lon="113.9147237379"><ele>85.000</ele></trkpt>
      <trkpt lat="22.2255666656" lon="113.9147266847"><ele>85.000</ele></trkpt>
      <trkpt lat="22.2255733243" lon="113.9147286413"><ele>86.000</ele></trkpt>
      <trkpt lat="22.2255942341" lon="113.9147310564"><ele>86.000</ele></trkpt>
      <trkpt lat="22.2256013502" lon="113.9147310431"><ele>86.000</ele></trkpt>
      <trkpt lat="22.2256603690" lon="113.9147276938"><ele>88.000</ele></trkpt>
      <trkpt lat="22.2256775882" lon="113.9147251836"><ele>90.000</ele></trkpt>
      <trkpt lat="22.2257197464" lon="113.9147731708"><ele>93.000</ele></trkpt>
      <trkpt lat="22.2258080523" lon="113.9148184663"><ele>97.000</ele></trkpt>
      <trkpt lat="22.2259710326" lon="113.9149020654"><ele>104.000</ele></trkpt>
      <trkpt lat="22.2260095690" lon="113.9149335490"><ele>109.000</ele></trkpt>
      <trkpt lat="22.2261533207" lon="113.9150509919"><ele>100.000</ele></trkpt>
      <trkpt lat="22.2261640962" lon="113.9150578100"><ele>100.000</ele></trkpt>
      <trkpt lat="22.2262174554" lon="113.9150925815"><ele>100.000</ele></trkpt>
      <trkpt lat="22.2262376653" lon="113.9151415526"><ele>100.000</ele></trkpt>
      <trkpt lat="22.2262834542" lon="113.9152409270"><ele>100.000</ele></trkpt>
      <trkpt lat="22.2263400050" lon="113.9153561362"><ele>101.000</ele></trkpt>
      <trkpt lat="22.2263696431" lon="113.9154267109"><ele>103.000</ele></trkpt>
      <trkpt lat="22.2263873202" lon="113.9154655680"><ele>100.000</ele></trkpt>
      <trkpt lat="22.2264666114" lon="113.9156398636"><ele>100.000</ele></trkpt>
      <trkpt lat="22.2264820786" lon="113.9156734110"><ele>98.000</ele></trkpt>
      <trkpt lat="22.2265622291" lon="113.9158472528"><ele>100.000</ele></trkpt>
      <trkpt lat="22.2265908967" lon="113.9159104812"><ele>103.000</ele></trkpt>
      <trkpt lat="22.2266699726" lon="113.9160848900"><ele>110.000</ele></trkpt>
      <trkpt lat="22.2266969104" lon="113.9161453796"><ele>110.000</ele></trkpt>
      <trkpt lat="22.2267184564" lon="113.9161914658"><ele>109.000</ele></trkpt>
      <trkpt lat="22.2267359557" lon="113.9162245863"><ele>109.000</ele></trkpt>
      <trkpt lat="22.2267601541" lon="113.9162504878"><ele>110.000</ele></trkpt>
      <trkpt lat="22.2267857014" lon="113.9162807108"><ele>110.000</ele></trkpt>
      <trkpt lat="22.2268139155" lon="113.9163008385"><ele>110.000</ele></trkpt>
      <trkpt lat="22.2268448177" lon="113.9163224026"><ele>108.000</ele></trkpt>
      <trkpt lat="22.2268972048" lon="113.9163525761"><ele>105.000</ele></trkpt>
      <trkpt lat="22.2270409245" lon="113.9164287070"><ele>100.000</ele></trkpt>
      <trkpt lat="22.2270543537" lon="113.9164359987"><ele>104.000</ele></trkpt>
      <trkpt lat="22.2272155399" lon="113.9165235195"><ele>100.000</ele></trkpt>
      <trkpt lat="22.2273324003" lon="113.9165881686"><ele>105.000</ele></trkpt>
      <trkpt lat="22.2273579268" lon="113.9166054186"><ele>110.000</ele></trkpt>
      <trkpt lat="22.2273767495" lon="113.9166270061"><ele>110.000</ele></trkpt>
      <trkpt lat="22.2273942303" lon="113.9166485951"><ele>112.000</ele></trkpt>
      <trkpt lat="22.2274063526" lon="113.9166759604"><ele>112.000</ele></trkpt>
      <trkpt lat="22.2274239025" lon="113.9167407929"><ele>110.000</ele></trkpt>
      <trkpt lat="22.2274387662" lon="113.9168041889"><ele>114.000</ele></trkpt>
      <trkpt lat="22.2274401759" lon="113.9168459875"><ele>116.000</ele></trkpt>
      <trkpt lat="22.2274321786" lon="113.9168805966"><ele>116.000</ele></trkpt>
      <trkpt lat="22.2274201508" lon="113.9169123305"><ele>116.000</ele></trkpt>
      <trkpt lat="22.2274054300" lon="113.9169383040"><ele>110.000</ele></trkpt>
      <trkpt lat="22.2273531949" lon="113.9170032650"><ele>107.000</ele></trkpt>
      <trkpt lat="22.2272982704" lon="113.9170653482"><ele>110.000</ele></trkpt>
      <trkpt lat="22.2272674660" lon="113.9171043234"><ele>102.000</ele></trkpt>
      <trkpt lat="22.2272326495" lon="113.9171519551"><ele>106.000</ele></trkpt>
      <trkpt lat="22.2272125737" lon="113.9171865874"><ele>104.000</ele></trkpt>
      <trkpt lat="22.2271965269" lon="113.9172226526"><ele>108.000</ele></trkpt>
      <trkpt lat="22.2271871991" lon="113.9172644709"><ele>105.000</ele></trkpt>
      <trkpt lat="22.2271872589" lon="113.9173019489"><ele>105.000</ele></trkpt>
      <trkpt lat="22.2271967454" lon="113.9173595884"><ele>106.000</ele></trkpt>
      <trkpt lat="22.2272102393" lon="113.9174056897"><ele>104.000</ele></trkpt>
      <trkpt lat="22.2272304292" lon="113.9174431306"><ele>104.000</ele></trkpt>
      <trkpt lat="22.2272573274" lon="113.9174791169"><ele>109.000</ele></trkpt>
      <trkpt lat="22.2272922690" lon="113.9175093229"><ele>111.000</ele></trkpt>
      <trkpt lat="22.2273379347" lon="113.9175323015"><ele>112.000</ele></trkpt>
      <trkpt lat="22.2274037328" lon="113.9175566855"><ele>112.000</ele></trkpt>
      <trkpt lat="22.2274869849" lon="113.9175853615"><ele>113.000</ele></trkpt>
      <trkpt lat="22.2275729292" lon="113.9176197979"><ele>108.000</ele></trkpt>
      <trkpt lat="22.2276320451" lon="113.9176614905"><ele>103.000</ele></trkpt>
      <trkpt lat="22.2276978762" lon="113.9177060545"><ele>112.000</ele></trkpt>
      <trkpt lat="22.2277610363" lon="113.9177592725"><ele>104.000</ele></trkpt>
      <trkpt lat="22.2278134516" lon="113.9178067439"><ele>103.000</ele></trkpt>
      <trkpt lat="22.2278470710" lon="113.9178499248"><ele>114.000</ele></trkpt>
      <trkpt lat="22.2278659050" lon="113.9178787193"><ele>114.000</ele></trkpt>
      <trkpt lat="22.2278807041" lon="113.9179017549"><ele>115.000</ele></trkpt>
      <trkpt lat="22.2278874858" lon="113.9179464274"><ele>113.000</ele></trkpt>
      <trkpt lat="22.2278889149" lon="113.9180012003"><ele>107.000</ele></trkpt>
      <trkpt lat="22.2278836426" lon="113.9180617499"><ele>104.000</ele></trkpt>
      <trkpt lat="22.2278797497" lon="113.9181453617"><ele>104.000</ele></trkpt>
      <trkpt lat="22.2278731156" lon="113.9181929416"><ele>104.000</ele></trkpt>
      <trkpt lat="22.2278637783" lon="113.9182289946"><ele>102.000</ele></trkpt>
      <trkpt lat="22.2278410093" lon="113.9182578655"><ele>102.000</ele></trkpt>
      <trkpt lat="22.2278209043" lon="113.9182737582"><ele>104.000</ele></trkpt>
      <trkpt lat="22.2277887256" lon="113.9182925559"><ele>102.000</ele></trkpt>
      <trkpt lat="22.2277605749" lon="113.9183127874"><ele>102.000</ele></trkpt>
      <trkpt lat="22.2277015715" lon="113.9183417247"><ele>101.000</ele></trkpt>
      <trkpt lat="22.2276613378" lon="113.9183590957"><ele>103.000</ele></trkpt>
      <trkpt lat="22.2276264728" lon="113.9183764568"><ele>101.000</ele></trkpt>
      <trkpt lat="22.2275956475" lon="113.9184024596"><ele>104.000</ele></trkpt>
      <trkpt lat="22.2275755577" lon="113.9184284418"><ele>101.000</ele></trkpt>
      <trkpt lat="22.2275568130" lon="113.9184558639"><ele>109.000</ele></trkpt>
      <trkpt lat="22.2275380889" lon="113.9184962590"><ele>104.000</ele></trkpt>
      <trkpt lat="22.2275153816" lon="113.9185640482"><ele>108.000</ele></trkpt>
      <trkpt lat="22.2274993826" lon="113.9186303836"><ele>102.000</ele></trkpt>
      <trkpt lat="22.2274780455" lon="113.9187154675"><ele>102.000</ele></trkpt>
      <trkpt lat="22.2274553929" lon="113.9188178519"><ele>103.000</ele></trkpt>
      <trkpt lat="22.2274487609" lon="113.9188668729"><ele>103.000</ele></trkpt>
      <trkpt lat="22.2274461501" lon="113.9189130039"><ele>101.000</ele></trkpt>
      <trkpt lat="22.2274448904" lon="113.9189648979"><ele>101.000</ele></trkpt>
      <trkpt lat="22.2274436307" lon="113.9190167919"><ele>101.000</ele></trkpt>
      <trkpt lat="22.2274423930" lon="113.9190831003"><ele>101.000</ele></trkpt>
      <trkpt lat="22.2274397958" lon="113.9191378804"><ele>102.000</ele></trkpt>
      <trkpt lat="22.2274371896" lon="113.9191868941"><ele>101.000</ele></trkpt>
      <trkpt lat="22.2274319017" lon="113.9192373540"><ele>100.000</ele></trkpt>
      <trkpt lat="22.2274173607" lon="113.9193772006"><ele>102.000</ele></trkpt>
      <trkpt lat="22.2274173469" lon="113.9193772951"><ele>102.000</ele></trkpt>
      <trkpt lat="22.2273894813" lon="113.9195689631"><ele>100.000</ele></trkpt>
      <trkpt lat="22.2273820206" lon="113.9196169671"><ele>103.000</ele></trkpt>
      <trkpt lat="22.2273522822" lon="113.9198083102"><ele>102.000</ele></trkpt>
      <trkpt lat="22.2273376839" lon="113.9199121200"><ele>102.000</ele></trkpt>
      <trkpt lat="22.2273323866" lon="113.9199568145"><ele>102.000</ele></trkpt>
      <trkpt lat="22.2273351297" lon="113.9199942866"><ele>102.000</ele></trkpt>
      <trkpt lat="22.2273405712" lon="113.9200404029"><ele>102.000</ele></trkpt>
      <trkpt lat="22.2273486889" lon="113.9200821903"><ele>102.000</ele></trkpt>
      <trkpt lat="22.2273661943" lon="113.9201196355"><ele>102.000</ele></trkpt>
      <trkpt lat="22.2273836928" lon="113.9201527567"><ele>102.000</ele></trkpt>
      <trkpt lat="22.2274078974" lon="113.9201829830"><ele>102.000</ele></trkpt>
      <trkpt lat="22.2274414957" lon="113.9202131923"><ele>102.000</ele></trkpt>
      <trkpt lat="22.2274737406" lon="113.9202361972"><ele>102.000</ele></trkpt>
      <trkpt lat="22.2275194068" lon="113.9202591767"><ele>102.000</ele></trkpt>
      <trkpt lat="22.2275771497" lon="113.9202821353"><ele>103.000</ele></trkpt>
      <trkpt lat="22.2276617387" lon="113.9203079268"><ele>102.000</ele></trkpt>
      <trkpt lat="22.2277731867" lon="113.9203452013"><ele>104.000</ele></trkpt>
      <trkpt lat="22.2278322633" lon="113.9203623921"><ele>102.000</ele></trkpt>
      <trkpt lat="22.2278591190" lon="113.9203724327"><ele>104.000</ele></trkpt>
      <trkpt lat="22.2278846428" lon="113.9203882422"><ele>105.000</ele></trkpt>
      <trkpt lat="22.2279061408" lon="113.9204040590"><ele>105.000</ele></trkpt>
      <trkpt lat="22.2279236211" lon="113.9204256496"><ele>104.000</ele></trkpt>
      <trkpt lat="22.2279370801" lon="113.9204501292"><ele>106.000</ele></trkpt>
      <trkpt lat="22.2279532366" lon="113.9204832530"><ele>106.000</ele></trkpt>
      <trkpt lat="22.2279950273" lon="113.9206028176"><ele>106.000</ele></trkpt>
      <trkpt lat="22.2280435726" lon="113.9207497569"><ele>106.000</ele></trkpt>
      <trkpt lat="22.2280826678" lon="113.9208621188"><ele>102.000</ele></trkpt>
      <trkpt lat="22.2281298618" lon="113.9210032953"><ele>102.000</ele></trkpt>
      <trkpt lat="22.2281783831" lon="113.9211358203"><ele>102.000</ele></trkpt>
      <trkpt lat="22.2282080460" lon="113.9212236953"><ele>102.000</ele></trkpt>
      <trkpt lat="22.2282201765" lon="113.9212568266"><ele>102.000</ele></trkpt>
      <trkpt lat="22.2282336390" lon="113.9212841891"><ele>104.000</ele></trkpt>
      <trkpt lat="22.2282377156" lon="113.9213158936"><ele>104.000</ele></trkpt>
      <trkpt lat="22.2282431264" lon="113.9213432716"><ele>105.000</ele></trkpt>
      <trkpt lat="22.2282431671" lon="113.9213692180"><ele>105.000</ele></trkpt>
      <trkpt lat="22.2282431988" lon="113.9213893980"><ele>104.000</ele></trkpt>
      <trkpt lat="22.2282378695" lon="113.9214139118"><ele>104.000</ele></trkpt>
      <trkpt lat="22.2282312064" lon="113.9214441944"><ele>102.000</ele></trkpt>
      <trkpt lat="22.2282191981" lon="113.9214889013"><ele>102.000</ele></trkpt>
      <trkpt lat="22.2281991743" lon="113.9215566854"><ele>104.000</ele></trkpt>
      <trkpt lat="22.2281911746" lon="113.9215898532"><ele>103.000</ele></trkpt>
      <trkpt lat="22.2281845115" lon="113.9216201358"><ele>103.000</ele></trkpt>
      <trkpt lat="22.2281805264" lon="113.9216460894"><ele>102.000</ele></trkpt>
      <trkpt lat="22.2281805648" lon="113.9216705944"><ele>102.000</ele></trkpt>
      <trkpt lat="22.2281819520" lon="113.9216994201"><ele>102.000</ele></trkpt>
      <trkpt lat="22.2281928715" lon="113.9218161584"><ele>102.000</ele></trkpt>
      <trkpt lat="22.2281941012" lon="113.9218305185"><ele>102.000</ele></trkpt>
      <trkpt lat="22.2282106430" lon="113.9220236950"><ele>102.000</ele></trkpt>
      <trkpt lat="22.2282154412" lon="113.9220826558"><ele>102.000</ele></trkpt>
      <trkpt lat="22.2282311681" lon="113.9222759109"><ele>102.000</ele></trkpt>
      <trkpt lat="22.2282475722" lon="113.9224675941"><ele>102.000</ele></trkpt>
      <trkpt lat="22.2282543316" lon="113.9224992938"><ele>102.000</ele></trkpt>
      <trkpt lat="22.2282664605" lon="113.9225309839"><ele>102.000</ele></trkpt>
      <trkpt lat="22.2282799273" lon="113.9225612301"><ele>103.000</ele></trkpt>
      <trkpt lat="22.2282947324" lon="113.9225885913"><ele>102.000</ele></trkpt>
      <trkpt lat="22.2283122246" lon="113.9226173889"><ele>102.000</ele></trkpt>
      <trkpt lat="22.2283525547" lon="113.9226620014"><ele>102.000</ele></trkpt>
      <trkpt lat="22.2284359095" lon="113.9227569870"><ele>102.000</ele></trkpt>
      <trkpt lat="22.2284377011" lon="113.9227590069"><ele>102.000</ele></trkpt>
      <trkpt lat="22.2285622826" lon="113.9228994623"><ele>104.000</ele></trkpt>
      <trkpt lat="22.2286160676" lon="113.9229656731"><ele>102.000</ele></trkpt>
      <trkpt lat="22.2286375757" lon="113.9229886972"><ele>105.000</ele></trkpt>
      <trkpt lat="22.2286630970" lon="113.9230030659"><ele>103.000</ele></trkpt>
      <trkpt lat="22.2286845880" lon="113.9230145591"><ele>103.000</ele></trkpt>
      <trkpt lat="22.2286853367" lon="113.9230147028"><ele>103.000</ele></trkpt>
      <trkpt lat="22.2288631319" lon="113.9230488325"><ele>104.000</ele></trkpt>
      <trkpt lat="22.2289007217" lon="113.9230574131"><ele>102.000</ele></trkpt>
      <trkpt lat="22.2289235456" lon="113.9230631385"><ele>102.000</ele></trkpt>
      <trkpt lat="22.2289490728" lon="113.9230818313"><ele>102.000</ele></trkpt>
      <trkpt lat="22.2289679046" lon="113.9231091854"><ele>102.000</ele></trkpt>
      <trkpt lat="22.2290244242" lon="113.9232085440"><ele>102.000</ele></trkpt>
      <trkpt lat="22.2291038292" lon="113.9233525471"><ele>105.000</ele></trkpt>
      <trkpt lat="22.2291818912" lon="113.9234965526"><ele>104.000</ele></trkpt>
      <trkpt lat="22.2292666840" lon="113.9236535197"><ele>102.000</ele></trkpt>
      <trkpt lat="22.2293110966" lon="113.9237341617"><ele>102.000</ele></trkpt>
      <trkpt lat="22.2293339824" lon="113.9237802474"><ele>104.000</ele></trkpt>
      <trkpt lat="22.2293407536" lon="113.9238191543"><ele>102.000</ele></trkpt>
      <trkpt lat="22.2293461819" lon="113.9238580646"><ele>102.000</ele></trkpt>
      <trkpt lat="22.2293395416" lon="113.9239027610"><ele>102.000</ele></trkpt>
      <trkpt lat="22.2293288679" lon="113.9239431415"><ele>104.000</ele></trkpt>
      <trkpt lat="22.2293141594" lon="113.9239777628"><ele>102.000</ele></trkpt>
      <trkpt lat="22.2292887300" lon="113.9240224939"><ele>104.000</ele></trkpt>
      <trkpt lat="22.2292525941" lon="113.9240859830"><ele>103.000</ele></trkpt>
      <trkpt lat="22.2292197501" lon="113.9241447498"><ele>102.000</ele></trkpt>
      <trkpt lat="22.2291267922" lon="113.9243110760"><ele>102.000</ele></trkpt>
      <trkpt lat="22.2290772761" lon="113.9244005355"><ele>102.000</ele></trkpt>
      <trkpt lat="22.2290157106" lon="113.9245087543"><ele>103.000</ele></trkpt>
      <trkpt lat="22.2289862642" lon="113.9245592589"><ele>102.000</ele></trkpt>
      <trkpt lat="22.2289715667" lon="113.9246010868"><ele>104.000</ele></trkpt>
      <trkpt lat="22.2289595530" lon="113.9246429110"><ele>104.000</ele></trkpt>
      <trkpt lat="22.2289622906" lon="113.9246775009"><ele>104.000</ele></trkpt>
      <trkpt lat="22.2289690638" lon="113.9247178500"><ele>104.000</ele></trkpt>
      <trkpt lat="22.2289892721" lon="113.9247682648"><ele>102.000</ele></trkpt>
      <trkpt lat="22.2290215454" lon="113.9248100088"><ele>102.000</ele></trkpt>
      <trkpt lat="22.2290659106" lon="113.9248603804"><ele>102.000</ele></trkpt>
      <trkpt lat="22.2291156480" lon="113.9249136261"><ele>102.000</ele></trkpt>
      <trkpt lat="22.2291546297" lon="113.9249539168"><ele>104.000</ele></trkpt>
      <trkpt lat="22.2291855654" lon="113.9249985470"><ele>103.000</ele></trkpt>
      <trkpt lat="22.2292044161" lon="113.9250388747"><ele>102.000</ele></trkpt>
      <trkpt lat="22.2292232788" lon="113.9250864092"><ele>102.000</ele></trkpt>
      <trkpt lat="22.2292327684" lon="113.9251483742"><ele>102.000</ele></trkpt>
      <trkpt lat="22.2292544286" lon="113.9252694186"><ele>102.000</ele></trkpt>
      <trkpt lat="22.2292747883" lon="113.9254178524"><ele>104.000</ele></trkpt>
      <trkpt lat="22.2292897155" lon="113.9255244942"><ele>105.000</ele></trkpt>
      <trkpt lat="22.2293112864" lon="113.9255878801"><ele>102.000</ele></trkpt>
      <trkpt lat="22.2293328364" lon="113.9256382927"><ele>104.000</ele></trkpt>
      <trkpt lat="22.2293812227" lon="113.9256857747"><ele>104.000</ele></trkpt>
      <trkpt lat="22.2294376593" lon="113.9257318011"><ele>104.000</ele></trkpt>
      <trkpt lat="22.2294846569" lon="113.9257490149"><ele>106.000</ele></trkpt>
      <trkpt lat="22.2295423799" lon="113.9257590027"><ele>105.000</ele></trkpt>
      <trkpt lat="22.2296094951" lon="113.9257675315"><ele>104.000</ele></trkpt>
      <trkpt lat="22.2297262598" lon="113.9257730900"><ele>104.000</ele></trkpt>
      <trkpt lat="22.2298161869" lon="113.9257801368"><ele>104.000</ele></trkpt>
      <trkpt lat="22.2299034323" lon="113.9257886307"><ele>105.000</ele></trkpt>
      <trkpt lat="22.2299933571" lon="113.9257942361"><ele>109.000</ele></trkpt>
      <trkpt lat="22.2300899970" lon="113.9258027133"><ele>104.000</ele></trkpt>
      <trkpt lat="22.2301463558" lon="113.9257982879"><ele>104.000</ele></trkpt>
      <trkpt lat="22.2302000253" lon="113.9257909854"><ele>107.000</ele></trkpt>
      <trkpt lat="22.2302469761" lon="113.9257779284"><ele>107.000</ele></trkpt>
      <trkpt lat="22.2303059765" lon="113.9257461109"><ele>112.000</ele></trkpt>
      <trkpt lat="22.2303515587" lon="113.9257157587"><ele>111.000</ele></trkpt>
      <trkpt lat="22.2303850612" lon="113.9256839867"><ele>110.000</ele></trkpt>
      <trkpt lat="22.2304225796" lon="113.9256464419"><ele>112.000</ele></trkpt>
      <trkpt lat="22.2304573951" lon="113.9255959285"><ele>111.000</ele></trkpt>
      <trkpt lat="22.2305029105" lon="113.9255223319"><ele>105.000</ele></trkpt>
      <trkpt lat="22.2305564663" lon="113.9254415139"><ele>104.000</ele></trkpt>
      <trkpt lat="22.2306019816" lon="113.9253679172"><ele>113.000</ele></trkpt>
      <trkpt lat="22.2306367881" lon="113.9253116381"><ele>107.000</ele></trkpt>
      <trkpt lat="22.2306689476" lon="113.9252798683"><ele>104.000</ele></trkpt>
      <trkpt lat="22.2306997830" lon="113.9252596329"><ele>106.000</ele></trkpt>
      <trkpt lat="22.2307480802" lon="113.9252494560"><ele>107.000</ele></trkpt>
      <trkpt lat="22.2307910319" lon="113.9252537035"><ele>112.000</ele></trkpt>
      <trkpt lat="22.2308326529" lon="113.9252651613"><ele>110.000</ele></trkpt>
      <trkpt lat="22.2308581784" lon="113.9252824134"><ele>110.000</ele></trkpt>
      <trkpt lat="22.2308931221" lon="113.9253155050"><ele>105.000</ele></trkpt>
      <trkpt lat="22.2309361675" lon="113.9253802946"><ele>106.000</ele></trkpt>
      <trkpt lat="22.2309778886" lon="113.9254566188"><ele>109.000</ele></trkpt>
      <trkpt lat="22.2310236401" lon="113.9255358185"><ele>105.000</ele></trkpt>
      <trkpt lat="22.2310505343" lon="113.9255703659"><ele>110.000</ele></trkpt>
      <trkpt lat="22.2310827740" lon="113.9255904889"><ele>104.000</ele></trkpt>
      <trkpt lat="22.2311217123" lon="113.9256033930"><ele>106.000</ele></trkpt>
      <trkpt lat="22.2311686899" lon="113.9256076335"><ele>107.000</ele></trkpt>
      <trkpt lat="22.2312156550" lon="113.9256032256"><ele>109.000</ele></trkpt>
      <trkpt lat="22.2312545599" lon="113.9255945079"><ele>111.000</ele></trkpt>
      <trkpt lat="22.2312881015" lon="113.9255886816"><ele>104.000</ele></trkpt>
      <trkpt lat="22.2313337158" lon="113.9255785106"><ele>104.000</ele></trkpt>
      <trkpt lat="22.2313712944" lon="113.9255798850"><ele>104.000</ele></trkpt>
      <trkpt lat="22.2314115666" lon="113.9255870202"><ele>104.000</ele></trkpt>
      <trkpt lat="22.2314464791" lon="113.9255999315"><ele>109.000</ele></trkpt>
      <trkpt lat="22.2314800675" lon="113.9256243774"><ele>105.000</ele></trkpt>
      <trkpt lat="22.2315163473" lon="113.9256531416"><ele>108.000</ele></trkpt>
      <trkpt lat="22.2315499534" lon="113.9256891195"><ele>108.000</ele></trkpt>
      <trkpt lat="22.2315875743" lon="113.9257178814"><ele>106.000</ele></trkpt>
      <trkpt lat="22.2316292063" lon="113.9257365464"><ele>104.000</ele></trkpt>
      <trkpt lat="22.2316533721" lon="113.9257422699"><ele>108.000</ele></trkpt>
      <trkpt lat="22.2316829034" lon="113.9257465415"><ele>108.000</ele></trkpt>
      <trkpt lat="22.2317164561" lon="113.9257479232"><ele>112.000</ele></trkpt>
      <trkpt lat="22.2317486446" lon="113.9257348933"><ele>109.000</ele></trkpt>
      <trkpt lat="22.2318022839" lon="113.9257074092"><ele>111.000</ele></trkpt>
      <trkpt lat="22.2318626351" lon="113.9256813546"><ele>106.000</ele></trkpt>
      <trkpt lat="22.2319109101" lon="113.9256567638"><ele>111.000</ele></trkpt>
      <trkpt lat="22.2319565278" lon="113.9256494745"><ele>114.000</ele></trkpt>
      <trkpt lat="22.2319914212" lon="113.9256494124"><ele>112.000</ele></trkpt>
      <trkpt lat="22.2320330421" lon="113.9256608704"><ele>106.000</ele></trkpt>
      <trkpt lat="22.2320612528" lon="113.9256795593"><ele>104.000</ele></trkpt>
      <trkpt lat="22.2320975349" lon="113.9257097661"><ele>104.000</ele></trkpt>
      <trkpt lat="22.2321230817" lon="113.9257414334"><ele>106.000</ele></trkpt>
      <trkpt lat="22.2321499915" lon="113.9257860718"><ele>104.000</ele></trkpt>
      <trkpt lat="22.2321782276" lon="113.9258206172"><ele>107.000</ele></trkpt>
      <trkpt lat="22.2322064592" lon="113.9258522797"><ele>106.000</ele></trkpt>
      <trkpt lat="22.2322440765" lon="113.9258781599"><ele>104.000</ele></trkpt>
      <trkpt lat="22.2322897432" lon="113.9259025835"><ele>105.000</ele></trkpt>
      <trkpt lat="22.2323434483" lon="113.9259183443"><ele>105.000</ele></trkpt>
      <trkpt lat="22.2324038605" lon="113.9259312104"><ele>104.000</ele></trkpt>
      <trkpt lat="22.2324494983" lon="113.9259368948"><ele>108.000</ele></trkpt>
      <trkpt lat="22.2324843952" lon="113.9259397155"><ele>108.000</ele></trkpt>
      <trkpt lat="22.2325179346" lon="113.9259324488"><ele>108.000</ele></trkpt>
      <trkpt lat="22.2325528146" lon="113.9259237373"><ele>106.000</ele></trkpt>
      <trkpt lat="22.2325917329" lon="113.9259236680"><ele>106.000</ele></trkpt>
      <trkpt lat="22.2326387104" lon="113.9259279096"><ele>106.000</ele></trkpt>
      <trkpt lat="22.2326661356" lon="113.9259314944"><ele>104.000</ele></trkpt>
      <trkpt lat="22.2328454252" lon="113.9259549295"><ele>106.000</ele></trkpt>
      <trkpt lat="22.2329004620" lon="113.9259634810"><ele>106.000</ele></trkpt>
      <trkpt lat="22.2329340414" lon="113.9259821605"><ele>106.000</ele></trkpt>
      <trkpt lat="22.2329528629" lon="113.9260037491"><ele>106.000</ele></trkpt>
      <trkpt lat="22.2329716987" lon="113.9260339872"><ele>109.000</ele></trkpt>
      <trkpt lat="22.2329932307" lon="113.9260728699"><ele>109.000</ele></trkpt>
      <trkpt lat="22.2330040272" lon="113.9261117708"><ele>106.000</ele></trkpt>
      <trkpt lat="22.2330094461" lon="113.9261449155"><ele>106.000</ele></trkpt>
      <trkpt lat="22.2330162523" lon="113.9262068880"><ele>106.000</ele></trkpt>
      <trkpt lat="22.2330203692" lon="113.9262659824"><ele>106.000</ele></trkpt>
      <trkpt lat="22.2330298636" lon="113.9263308330"><ele>108.000</ele></trkpt>
      <trkpt lat="22.2330447059" lon="113.9263827003"><ele>105.000</ele></trkpt>
      <trkpt lat="22.2330662468" lon="113.9264273487"><ele>106.000</ele></trkpt>
      <trkpt lat="22.2330904746" lon="113.9264734338"><ele>107.000</ele></trkpt>
      <trkpt lat="22.2331240762" lon="113.9265065285"><ele>107.000</ele></trkpt>
      <trkpt lat="22.2331670766" lon="113.9265424895"><ele>107.000</ele></trkpt>
      <trkpt lat="22.2332073733" lon="113.9265654825"><ele>111.000</ele></trkpt>
      <trkpt lat="22.2332543619" lon="113.9265769304"><ele>112.000</ele></trkpt>
      <trkpt lat="22.2333094044" lon="113.9265898063"><ele>108.000</ele></trkpt>
      <trkpt lat="22.2333469794" lon="113.9265882982"><ele>107.000</ele></trkpt>
      <trkpt lat="22.2333966386" lon="113.9265910929"><ele>106.000</ele></trkpt>
      <trkpt lat="22.2334355600" lon="113.9265924652"><ele>106.000</ele></trkpt>
      <trkpt lat="22.2334825376" lon="113.9265967071"><ele>105.000</ele></trkpt>
      <trkpt lat="22.2335174389" lon="113.9266024108"><ele>106.000</ele></trkpt>
      <trkpt lat="22.2335550339" lon="113.9266138764"><ele>108.000</ele></trkpt>
      <trkpt lat="22.2335805593" lon="113.9266311290"><ele>108.000</ele></trkpt>
      <trkpt lat="22.2336033977" lon="113.9266469450"><ele>108.000</ele></trkpt>
      <trkpt lat="22.2336262547" lon="113.9266742934"><ele>112.000</ele></trkpt>
      <trkpt lat="22.2336437807" lon="113.9267261562"><ele>106.000</ele></trkpt>
      <trkpt lat="22.2336492372" lon="113.9267838062"><ele>106.000</ele></trkpt>
      <trkpt lat="22.2336466552" lon="113.9268501208"><ele>106.000</ele></trkpt>
      <trkpt lat="22.2336400443" lon="113.9269150002"><ele>106.000</ele></trkpt>
      <trkpt lat="22.2336241083" lon="113.9270245820"><ele>106.000</ele></trkpt>
      <trkpt lat="22.2336175004" lon="113.9270909038"><ele>106.000</ele></trkpt>
      <trkpt lat="22.2336095585" lon="113.9271629926"><ele>108.000</ele></trkpt>
      <trkpt lat="22.2336163576" lon="113.9272206412"><ele>113.000</ele></trkpt>
      <trkpt lat="22.2336379137" lon="113.9272753798"><ele>110.000</ele></trkpt>
      <trkpt lat="22.2336607950" lon="113.9273185848"><ele>108.000</ele></trkpt>
      <trkpt lat="22.2337078212" lon="113.9273545389"><ele>107.000</ele></trkpt>
      <trkpt lat="22.2337588763" lon="113.9273919284"><ele>110.000</ele></trkpt>
      <trkpt lat="22.2338233729" lon="113.9274437083"><ele>107.000</ele></trkpt>
      <trkpt lat="22.2338838283" lon="113.9274854045"><ele>109.000</ele></trkpt>
      <trkpt lat="22.2339267932" lon="113.9274983022"><ele>108.000</ele></trkpt>
      <trkpt lat="22.2339791518" lon="113.9275111834"><ele>106.000</ele></trkpt>
      <trkpt lat="22.2340342084" lon="113.9275327083"><ele>107.000</ele></trkpt>
      <trkpt lat="22.2340664412" lon="113.9275485079"><ele>106.000</ele></trkpt>
      <trkpt lat="22.2340825830" lon="113.9275729855"><ele>106.000</ele></trkpt>
      <trkpt lat="22.2340906887" lon="113.9276075672"><ele>108.000</ele></trkpt>
      <trkpt lat="22.2340961139" lon="113.9276450366"><ele>106.000</ele></trkpt>
      <trkpt lat="22.2341232041" lon="113.9278078801"><ele>108.000</ele></trkpt>
      <trkpt lat="22.2341273226" lon="113.9278684155"><ele>110.000</ele></trkpt>
      <trkpt lat="22.2341220255" lon="113.9279145533"><ele>108.000</ele></trkpt>
      <trkpt lat="22.2341086647" lon="113.9279534983"><ele>106.000</ele></trkpt>
      <trkpt lat="22.2340979899" lon="113.9279938789"><ele>106.000</ele></trkpt>
      <trkpt lat="22.2340886505" lon="113.9280299338"><ele>106.000</ele></trkpt>
      <trkpt lat="22.2340699395" lon="113.9280804195"><ele>106.000</ele></trkpt>
      <trkpt lat="22.2340458664" lon="113.9281352390"><ele>106.000</ele></trkpt>
      <trkpt lat="22.2340271532" lon="113.9281842833"><ele>106.000</ele></trkpt>
      <trkpt lat="22.2340097863" lon="113.9282362080"><ele>106.000</ele></trkpt>
      <trkpt lat="22.2340031647" lon="113.9282938804"><ele>106.000</ele></trkpt>
      <trkpt lat="22.2340032440" lon="113.9283457744"><ele>106.000</ele></trkpt>
      <trkpt lat="22.2340140642" lon="113.9284005332"><ele>106.000</ele></trkpt>
      <trkpt lat="22.2340289035" lon="113.9284509597"><ele>106.000</ele></trkpt>
      <trkpt lat="22.2340504372" lon="113.9284912835"><ele>106.000</ele></trkpt>
      <trkpt lat="22.2340786772" lon="113.9285287137"><ele>106.000</ele></trkpt>
      <trkpt lat="22.2341203309" lon="113.9285617950"><ele>106.000</ele></trkpt>
      <trkpt lat="22.2341606307" lon="113.9285876706"><ele>106.000</ele></trkpt>
      <trkpt lat="22.2342062992" lon="113.9286135377"><ele>107.000</ele></trkpt>
      <trkpt lat="22.2343083728" lon="113.9286652522"><ele>108.000</ele></trkpt>
      <trkpt lat="22.2343862749" lon="113.9287069193"><ele>107.000</ele></trkpt>
      <trkpt lat="22.2344749237" lon="113.9287557747"><ele>108.000</ele></trkpt>
      <trkpt lat="22.2345273041" lon="113.9287830716"><ele>106.000</ele></trkpt>
      <trkpt lat="22.2345769830" lon="113.9287988408"><ele>109.000</ele></trkpt>
      <trkpt lat="22.2346226252" lon="113.9288074091"><ele>109.000</ele></trkpt>
      <trkpt lat="22.2346655790" lon="113.9288131002"><ele>107.000</ele></trkpt>
      <trkpt lat="22.2347004767" lon="113.9288159216"><ele>106.000</ele></trkpt>
      <trkpt lat="22.2347286651" lon="113.9288201963"><ele>106.000</ele></trkpt>
      <trkpt lat="22.2347582039" lon="113.9288287939"><ele>106.000</ele></trkpt>
      <trkpt lat="22.2347823796" lon="113.9288417242"><ele>109.000</ele></trkpt>
      <trkpt lat="22.2348132748" lon="113.9288604104"><ele>106.000</ele></trkpt>
      <trkpt lat="22.2348482165" lon="113.9288920624"><ele>112.000</ele></trkpt>
      <trkpt lat="22.2349019652" lon="113.9289366541"><ele>106.000</ele></trkpt>
      <trkpt lat="22.2349718455" lon="113.9289985167"><ele>107.000</ele></trkpt>
      <trkpt lat="22.2350054465" lon="113.9290316125"><ele>106.000</ele></trkpt>
      <trkpt lat="22.2350296516" lon="113.9290632834"><ele>106.000</ele></trkpt>
      <trkpt lat="22.2350484881" lon="113.9290949637"><ele>107.000</ele></trkpt>
      <trkpt lat="22.2350606127" lon="113.9291252144"><ele>107.000</ele></trkpt>
      <trkpt lat="22.2350647022" lon="113.9291670117"><ele>106.000</ele></trkpt>
      <trkpt lat="22.2350674453" lon="113.9292059275"><ele>106.000</ele></trkpt>
      <trkpt lat="22.2350621434" lon="113.9292491827"><ele>107.000</ele></trkpt>
      <trkpt lat="22.2350554710" lon="113.9292737007"><ele>107.000</ele></trkpt>
      <trkpt lat="22.2350407503" lon="113.9293011148"><ele>106.000</ele></trkpt>
      <trkpt lat="22.2350112652" lon="113.9293271143"><ele>106.000</ele></trkpt>
      <trkpt lat="22.2349375500" lon="113.9293906705"><ele>106.000</ele></trkpt>
      <trkpt lat="22.2348772377" lon="113.9294426708"><ele>108.000</ele></trkpt>
      <trkpt lat="22.2348383492" lon="113.9294629201"><ele>108.000</ele></trkpt>
      <trkpt lat="22.2347860360" lon="113.9294803100"><ele>108.000</ele></trkpt>
      <trkpt lat="22.2347457933" lon="113.9294919130"><ele>106.000</ele></trkpt>
      <trkpt lat="22.2346733455" lon="113.9295064554"><ele>106.000</ele></trkpt>
      <trkpt lat="22.2345834647" lon="113.9295296769"><ele>106.000</ele></trkpt>
      <trkpt lat="22.2344466261" lon="113.9295616303"><ele>106.000</ele></trkpt>
      <trkpt lat="22.2343808859" lon="113.9295747194"><ele>106.000</ele></trkpt>
      <trkpt lat="22.2343339326" lon="113.9295863342"><ele>106.000</ele></trkpt>
      <trkpt lat="22.2343044320" lon="113.9296022425"><ele>107.000</ele></trkpt>
      <trkpt lat="22.2342829832" lon="113.9296181368"><ele>106.000</ele></trkpt>
      <trkpt lat="22.2342615374" lon="113.9296354725"><ele>107.000</ele></trkpt>
      <trkpt lat="22.2342414379" lon="113.9296556886"><ele>107.000</ele></trkpt>
      <trkpt lat="22.2342226861" lon="113.9296802277"><ele>106.000</ele></trkpt>
      <trkpt lat="22.2341999137" lon="113.9297076566"><ele>108.000</ele></trkpt>
      <trkpt lat="22.2341624482" lon="113.9297812387"><ele>107.000</ele></trkpt>
      <trkpt lat="22.2341316472" lon="113.9298245383"><ele>106.000</ele></trkpt>
      <trkpt lat="22.2340874500" lon="113.9298837180"><ele>106.000</ele></trkpt>
      <trkpt lat="22.2340566381" lon="113.9299198094"><ele>106.000</ele></trkpt>
      <trkpt lat="22.2340271485" lon="113.9299429248"><ele>106.000</ele></trkpt>
      <trkpt lat="22.2339936155" lon="113.9299545159"><ele>108.000</ele></trkpt>
      <trkpt lat="22.2339641040" lon="113.9299632171"><ele>106.000</ele></trkpt>
      <trkpt lat="22.2338903251" lon="113.9299849686"><ele>107.000</ele></trkpt>
      <trkpt lat="22.2338406944" lon="113.9300009121"><ele>109.000</ele></trkpt>
      <trkpt lat="22.2338044744" lon="113.9300110664"><ele>106.000</ele></trkpt>
      <trkpt lat="22.2337816823" lon="113.9300255205"><ele>106.000</ele></trkpt>
      <trkpt lat="22.2337629204" lon="113.9300428513"><ele>108.000</ele></trkpt>
      <trkpt lat="22.2337454951" lon="113.9300572970"><ele>106.000</ele></trkpt>
      <trkpt lat="22.2337321054" lon="113.9300775023"><ele>106.000</ele></trkpt>
      <trkpt lat="22.2337160514" lon="113.9301106849"><ele>107.000</ele></trkpt>
      <trkpt lat="22.2336879518" lon="113.9301655109"><ele>107.000</ele></trkpt>
      <trkpt lat="22.2336558743" lon="113.9302520580"><ele>113.000</ele></trkpt>
      <trkpt lat="22.2336331412" lon="113.9303054331"><ele>109.000</ele></trkpt>
      <trkpt lat="22.2336197645" lon="113.9303342868"><ele>109.000</ele></trkpt>
      <trkpt lat="22.2335956382" lon="113.9303545098"><ele>106.000</ele></trkpt>
      <trkpt lat="22.2335701731" lon="113.9303761766"><ele>108.000</ele></trkpt>
      <trkpt lat="22.2335406681" lon="113.9303892019"><ele>110.000</ele></trkpt>
      <trkpt lat="22.2335004200" lon="113.9303979217"><ele>111.000</ele></trkpt>
      <trkpt lat="22.2334534570" lon="113.9304037695"><ele>108.000</ele></trkpt>
      <trkpt lat="22.2334105150" lon="113.9304052860"><ele>108.000</ele></trkpt>
      <trkpt lat="22.2333850140" lon="113.9304038891"><ele>108.000</ele></trkpt>
      <trkpt lat="22.2333662324" lon="113.9304082462"><ele>108.000</ele></trkpt>
      <trkpt lat="22.2332964553" lon="113.9304141348"><ele>108.000</ele></trkpt>
      <trkpt lat="22.2332535168" lon="113.9304185341"><ele>108.000</ele></trkpt>
      <trkpt lat="22.2332186331" lon="113.9304243607"><ele>110.000</ele></trkpt>
      <trkpt lat="22.2331851023" lon="113.9304373930"><ele>110.000</ele></trkpt>
      <trkpt lat="22.2331529168" lon="113.9304533058"><ele>109.000</ele></trkpt>
      <trkpt lat="22.2331261032" lon="113.9304706506"><ele>114.000</ele></trkpt>
      <trkpt lat="22.2331059984" lon="113.9304879837"><ele>114.000</ele></trkpt>
      <trkpt lat="22.2330791969" lon="113.9305139779"><ele>116.000</ele></trkpt>
      <trkpt lat="22.2330551086" lon="113.9305587066"><ele>115.000</ele></trkpt>
      <trkpt lat="22.2330323613" lon="113.9306034330"><ele>118.000</ele></trkpt>
      <trkpt lat="22.2330069420" lon="113.9306553712"><ele>118.000</ele></trkpt>
      <trkpt lat="22.2329882162" lon="113.9306972068"><ele>112.000</ele></trkpt>
      <trkpt lat="22.2329667899" lon="113.9307275157"><ele>112.000</ele></trkpt>
      <trkpt lat="22.2329440055" lon="113.9307477372"><ele>109.000</ele></trkpt>
      <trkpt lat="22.2329131585" lon="113.9307607638"><ele>109.000</ele></trkpt>
      <trkpt lat="22.2328755996" lon="113.9307723616"><ele>112.000</ele></trkpt>
      <trkpt lat="22.2328433976" lon="113.9307767420"><ele>119.000</ele></trkpt>
      <trkpt lat="22.2328098397" lon="113.9307724764"><ele>120.000</ele></trkpt>
      <trkpt lat="22.2327803019" lon="113.9307638794"><ele>120.000</ele></trkpt>
      <trkpt lat="22.2327480694" lon="113.9307480792"><ele>120.000</ele></trkpt>
      <trkpt lat="22.2327158325" lon="113.9307293953"><ele>120.000</ele></trkpt>
      <trkpt lat="22.2326526809" lon="113.9306790533"><ele>118.000</ele></trkpt>
      <trkpt lat="22.2325761047" lon="113.9306258520"><ele>116.000</ele></trkpt>
      <trkpt lat="22.2325250590" lon="113.9305942283"><ele>111.000</ele></trkpt>
      <trkpt lat="22.2324874303" lon="113.9305596983"><ele>111.000</ele></trkpt>
      <trkpt lat="22.2324511600" lon="113.9305366973"><ele>111.000</ele></trkpt>
      <trkpt lat="22.2324162458" lon="113.9305223432"><ele>111.000</ele></trkpt>
      <trkpt lat="22.2323799886" lon="113.9305079925"><ele>108.000</ele></trkpt>
      <trkpt lat="22.2323370357" lon="113.9305023010"><ele>108.000</ele></trkpt>
      <trkpt lat="22.2323048263" lon="113.9305023573"><ele>108.000</ele></trkpt>
      <trkpt lat="22.2322739684" lon="113.9305081778"><ele>108.000</ele></trkpt>
      <trkpt lat="22.2322417817" lon="113.9305226480"><ele>108.000</ele></trkpt>
      <trkpt lat="22.2322082443" lon="113.9305313560"><ele>108.000</ele></trkpt>
      <trkpt lat="22.2321814297" lon="113.9305487007"><ele>107.000</ele></trkpt>
      <trkpt lat="22.2321573056" lon="113.9305703648"><ele>107.000</ele></trkpt>
      <trkpt lat="22.2321291674" lon="113.9305992440"><ele>106.000</ele></trkpt>
      <trkpt lat="22.2321050607" lon="113.9306324403"><ele>106.000</ele></trkpt>
      <trkpt lat="22.2320501681" lon="113.9307190261"><ele>108.000</ele></trkpt>
      <trkpt lat="22.2319671351" lon="113.9308330485"><ele>107.000</ele></trkpt>
      <trkpt lat="22.2318801057" lon="113.9309672583"><ele>108.000</ele></trkpt>
      <trkpt lat="22.2318546810" lon="113.9310163132"><ele>108.000</ele></trkpt>
      <trkpt lat="22.2318346206" lon="113.9310624759"><ele>106.000</ele></trkpt>
      <trkpt lat="22.2318239472" lon="113.9311042980"><ele>108.000</ele></trkpt>
      <trkpt lat="22.2318240039" lon="113.9311417762"><ele>108.000</ele></trkpt>
      <trkpt lat="22.2318280841" lon="113.9311778060"><ele>108.000</ele></trkpt>
      <trkpt lat="22.2318361977" lon="113.9312181540"><ele>108.000</ele></trkpt>
      <trkpt lat="22.2318483349" lon="113.9312570526"><ele>108.000</ele></trkpt>
      <trkpt lat="22.2318631603" lon="113.9312988303"><ele>108.000</ele></trkpt>
      <trkpt lat="22.2318739394" lon="113.9313276414"><ele>108.000</ele></trkpt>
      <trkpt lat="22.2319143616" lon="113.9314342405"><ele>108.000</ele></trkpt>
      <trkpt lat="22.2319655909" lon="113.9315883910"><ele>112.000</ele></trkpt>
      <trkpt lat="22.2320114229" lon="113.9317223703"><ele>108.000</ele></trkpt>
      <trkpt lat="22.2320410561" lon="113.9317943928"><ele>108.000</ele></trkpt>
      <trkpt lat="22.2320652990" lon="113.9318520106"><ele>108.000</ele></trkpt>
      <trkpt lat="22.2321002631" lon="113.9318995191"><ele>111.000</ele></trkpt>
      <trkpt lat="22.2321217751" lon="113.9319254279"><ele>108.000</ele></trkpt>
      <trkpt lat="22.2321432884" lon="113.9319527791"><ele>108.000</ele></trkpt>
      <trkpt lat="22.2321567565" lon="113.9319844685"><ele>109.000</ele></trkpt>
      <trkpt lat="22.2321783402" lon="113.9320579475"><ele>108.000</ele></trkpt>
      <trkpt lat="22.2322013104" lon="113.9321616945"><ele>108.000</ele></trkpt>
      <trkpt lat="22.2322134820" lon="113.9322236576"><ele>110.000</ele></trkpt>
      <trkpt lat="22.2322283376" lon="113.9322856160"><ele>110.000</ele></trkpt>
      <trkpt lat="22.2322337444" lon="113.9323115529"><ele>109.000</ele></trkpt>
      <trkpt lat="22.2322351219" lon="113.9323346149"><ele>108.000</ele></trkpt>
      <trkpt lat="22.2322338094" lon="113.9323547978"><ele>108.000</ele></trkpt>
      <trkpt lat="22.2322284719" lon="113.9323749877"><ele>108.000</ele></trkpt>
      <trkpt lat="22.2322164216" lon="113.9323937488"><ele>109.000</ele></trkpt>
      <trkpt lat="22.2321989949" lon="113.9324067516"><ele>109.000</ele></trkpt>
      <trkpt lat="22.2321802219" lon="113.9324168750"><ele>108.000</ele></trkpt>
      <trkpt lat="22.2321534093" lon="113.9324356607"><ele>108.000</ele></trkpt>
      <trkpt lat="22.2321198999" lon="113.9324631074"><ele>108.000</ele></trkpt>
      <trkpt lat="22.2320837166" lon="113.9324977657"><ele>108.000</ele></trkpt>
      <trkpt lat="22.2320448580" lon="113.9325381952"><ele>108.000</ele></trkpt>
      <trkpt lat="22.2320207388" lon="113.9325627418"><ele>108.000</ele></trkpt>
      <trkpt lat="22.2320019918" lon="113.9325901628"><ele>109.000</ele></trkpt>
      <trkpt lat="22.2319832577" lon="113.9326262323"><ele>109.000</ele></trkpt>
      <trkpt lat="22.2319672045" lon="113.9326608556"><ele>116.000</ele></trkpt>
      <trkpt lat="22.2319484963" lon="113.9327142238"><ele>113.000</ele></trkpt>
      <trkpt lat="22.2319190928" lon="113.9327949980"><ele>110.000</ele></trkpt>
      <trkpt lat="22.2318789938" lon="113.9329031782"><ele>108.000</ele></trkpt>
      <trkpt lat="22.2318549437" lon="113.9329738533"><ele>108.000</ele></trkpt>
      <trkpt lat="22.2318228605" lon="113.9330575148"><ele>108.000</ele></trkpt>
      <trkpt lat="22.2317921170" lon="113.9331397326"><ele>108.000</ele></trkpt>
      <trkpt lat="22.2317653885" lon="113.9332147364"><ele>110.000</ele></trkpt>
      <trkpt lat="22.2317466932" lon="113.9332767528"><ele>108.000</ele></trkpt>
      <trkpt lat="22.2317346946" lon="113.9333301082"><ele>111.000</ele></trkpt>
      <trkpt lat="22.2317347615" lon="113.9333747943"><ele>113.000</ele></trkpt>
      <trkpt lat="22.2317415144" lon="113.9334036126"><ele>113.000</ele></trkpt>
      <trkpt lat="22.2317549973" lon="113.9334453918"><ele>108.000</ele></trkpt>
      <trkpt lat="22.2317711857" lon="113.9335015823"><ele>108.000</ele></trkpt>
      <trkpt lat="22.2317914107" lon="113.9335649729"><ele>109.000</ele></trkpt>
      <trkpt lat="22.2318089613" lon="113.9336341337"><ele>108.000</ele></trkpt>
      <trkpt lat="22.2318211173" lon="113.9336860070"><ele>108.000</ele></trkpt>
      <trkpt lat="22.2318265541" lon="113.9337321243"><ele>108.000</ele></trkpt>
      <trkpt lat="22.2318279650" lon="113.9337782496"><ele>108.000</ele></trkpt>
      <trkpt lat="22.2318240016" lon="113.9338200599"><ele>109.000</ele></trkpt>
      <trkpt lat="22.2318092974" lon="113.9338590050"><ele>113.000</ele></trkpt>
      <trkpt lat="22.2317892159" lon="113.9338921937"><ele>118.000</ele></trkpt>
      <trkpt lat="22.2317691245" lon="113.9339181755"><ele>110.000</ele></trkpt>
      <trkpt lat="22.2317423225" lon="113.9339441688"><ele>110.000</ele></trkpt>
      <trkpt lat="22.2317048064" lon="113.9339845945"><ele>111.000</ele></trkpt>
      <trkpt lat="22.2316592463" lon="113.9340308007"><ele>112.000</ele></trkpt>
      <trkpt lat="22.2316270971" lon="113.9340712181"><ele>114.000</ele></trkpt>
      <trkpt lat="22.2316043196" lon="113.9340957620"><ele>114.000</ele></trkpt>
      <trkpt lat="22.2315869228" lon="113.9341289461"><ele>114.000</ele></trkpt>
      <trkpt lat="22.2315708680" lon="113.9341621278"><ele>112.000</ele></trkpt>
      <trkpt lat="22.2315601939" lon="113.9342039496"><ele>113.000</ele></trkpt>
      <trkpt lat="22.2315268304" lon="113.9343294163"><ele>109.000</ele></trkpt>
      <trkpt lat="22.2315188423" lon="113.9343726739"><ele>109.000</ele></trkpt>
      <trkpt lat="22.2315081552" lon="113.9344058473"><ele>110.000</ele></trkpt>
      <trkpt lat="22.2314947842" lon="113.9344390243"><ele>110.000</ele></trkpt>
      <trkpt lat="22.2314773809" lon="113.9344678832"><ele>110.000</ele></trkpt>
      <trkpt lat="22.2314559432" lon="113.9344909843"><ele>111.000</ele></trkpt>
      <trkpt lat="22.2314291497" lon="113.9345227430"><ele>110.000</ele></trkpt>
      <trkpt lat="22.2313943045" lon="113.9345545155"><ele>111.000</ele></trkpt>
      <trkpt lat="22.2313715196" lon="113.9345747352"><ele>110.000</ele></trkpt>
      <trkpt lat="22.2313527593" lon="113.9345935065"><ele>110.000</ele></trkpt>
      <trkpt lat="22.2313366872" lon="113.9346151570"><ele>110.000</ele></trkpt>
      <trkpt lat="22.2313259829" lon="113.9346367973"><ele>110.000</ele></trkpt>
      <trkpt lat="22.2312979118" lon="113.9347118029"><ele>108.000</ele></trkpt>
      <trkpt lat="22.2312644986" lon="113.9348041143"><ele>109.000</ele></trkpt>
      <trkpt lat="22.2312204088" lon="113.9349368070"><ele>112.000</ele></trkpt>
      <trkpt lat="22.2311803213" lon="113.9350536354"><ele>112.000</ele></trkpt>
      <trkpt lat="22.2311175052" lon="113.9352281623"><ele>110.000</ele></trkpt>
      <trkpt lat="22.2310934404" lon="113.9352901873"><ele>110.000</ele></trkpt>
      <trkpt lat="22.2310827626" lon="113.9353291252"><ele>110.000</ele></trkpt>
      <trkpt lat="22.2310801386" lon="113.9353694916"><ele>108.000</ele></trkpt>
      <trkpt lat="22.2310801878" lon="113.9354026454"><ele>108.000</ele></trkpt>
      <trkpt lat="22.2310896414" lon="113.9354429902"><ele>110.000</ele></trkpt>
      <trkpt lat="22.2311004335" lon="113.9354804508"><ele>110.000</ele></trkpt>
      <trkpt lat="22.2311166019" lon="113.9355236678"><ele>113.000</ele></trkpt>
      <trkpt lat="22.2311341294" lon="113.9355784137"><ele>118.000</ele></trkpt>
      <trkpt lat="22.2311543558" lon="113.9356432456"><ele>110.000</ele></trkpt>
      <trkpt lat="22.2311745723" lon="113.9357008707"><ele>110.000</ele></trkpt>
      <trkpt lat="22.2311961298" lon="113.9357584924"><ele>111.000</ele></trkpt>
      <trkpt lat="22.2312203465" lon="113.9357988130"><ele>109.000</ele></trkpt>
      <trkpt lat="22.2312472493" lon="113.9358405694"><ele>116.000</ele></trkpt>
      <trkpt lat="22.2312741370" lon="113.9358722360"><ele>110.000</ele></trkpt>
      <trkpt lat="22.2313023637" lon="113.9359024590"><ele>110.000</ele></trkpt>
      <trkpt lat="22.2313279052" lon="113.9359312452"><ele>114.000</ele></trkpt>
      <trkpt lat="22.2313453856" lon="113.9359542796"><ele>111.000</ele></trkpt>
      <trkpt lat="22.2313588444" lon="113.9359802027"><ele>116.000</ele></trkpt>
      <trkpt lat="22.2313723033" lon="113.9360061267"><ele>116.000</ele></trkpt>
      <trkpt lat="22.2313871339" lon="113.9360522290"><ele>110.000</ele></trkpt>
      <trkpt lat="22.2314342947" lon="113.9361804404"><ele>110.000</ele></trkpt>
      <trkpt lat="22.2314908989" lon="113.9363417899"><ele>108.000</ele></trkpt>
      <trkpt lat="22.2314940614" lon="113.9363503081"><ele>108.000</ele></trkpt>
      <trkpt lat="22.2315609629" lon="113.9365305051"><ele>114.000</ele></trkpt>
      <trkpt lat="22.2315744481" lon="113.9365737260"><ele>108.000</ele></trkpt>
      <trkpt lat="22.2315825637" lon="113.9366169570"><ele>108.000</ele></trkpt>
      <trkpt lat="22.2315786060" lon="113.9366630914"><ele>108.000</ele></trkpt>
      <trkpt lat="22.2315759902" lon="113.9367092235"><ele>108.000</ele></trkpt>
      <trkpt lat="22.2315747291" lon="113.9367640016"><ele>108.000</ele></trkpt>
      <trkpt lat="22.2315801777" lon="113.9368187693"><ele>108.000</ele></trkpt>
      <trkpt lat="22.2315936513" lon="113.9368547833"><ele>109.000</ele></trkpt>
      <trkpt lat="22.2316124777" lon="113.9368806974"><ele>108.000</ele></trkpt>
      <trkpt lat="22.2316353352" lon="113.9369094884"><ele>108.000</ele></trkpt>
      <trkpt lat="22.2316608735" lon="113.9369368334"><ele>108.000</ele></trkpt>
      <trkpt lat="22.2316958264" lon="113.9369771360"><ele>108.000</ele></trkpt>
      <trkpt lat="22.2317644076" lon="113.9370707152"><ele>110.000</ele></trkpt>
      <trkpt lat="22.2318208856" lon="113.9371470182"><ele>111.000</ele></trkpt>
      <trkpt lat="22.2318598728" lon="113.9371930796"><ele>112.000</ele></trkpt>
      <trkpt lat="22.2318921239" lon="113.9372218548"><ele>111.000</ele></trkpt>
      <trkpt lat="22.2319257041" lon="113.9372419783"><ele>117.000</ele></trkpt>
      <trkpt lat="22.2319565877" lon="113.9372534580"><ele>118.000</ele></trkpt>
      <trkpt lat="22.2319888027" lon="113.9372577274"><ele>114.000</ele></trkpt>
      <trkpt lat="22.2320169875" lon="113.9372591209"><ele>114.000</ele></trkpt>
      <trkpt lat="22.2320505347" lon="113.9372561811"><ele>111.000</ele></trkpt>
      <trkpt lat="22.2320867585" lon="113.9372489125"><ele>111.000</ele></trkpt>
      <trkpt lat="22.2321176209" lon="113.9372459763"><ele>111.000</ele></trkpt>
      <trkpt lat="22.2321538520" lon="113.9372430319"><ele>111.000</ele></trkpt>
      <trkpt lat="22.2321860606" lon="113.9372429772"><ele>110.000</ele></trkpt>
      <trkpt lat="22.2322182798" lon="113.9372501304"><ele>110.000</ele></trkpt>
      <trkpt lat="22.2322437968" lon="113.9372630607"><ele>110.000</ele></trkpt>
      <trkpt lat="22.2322666393" lon="113.9372817611"><ele>110.000</ele></trkpt>
      <trkpt lat="22.2322827797" lon="113.9373062385"><ele>110.000</ele></trkpt>
      <trkpt lat="22.2322935565" lon="113.9373336088"><ele>110.000</ele></trkpt>
      <trkpt lat="22.2323043419" lon="113.9373667448"><ele>110.000</ele></trkpt>
      <trkpt lat="22.2323057241" lon="113.9373941311"><ele>110.000</ele></trkpt>
      <trkpt lat="22.2323004063" lon="113.9374287358"><ele>110.000</ele></trkpt>
      <trkpt lat="22.2322924056" lon="113.9374633450"><ele>110.000</ele></trkpt>
      <trkpt lat="22.2322777048" lon="113.9375051736"><ele>111.000</ele></trkpt>
      <trkpt lat="22.2322603264" lon="113.9375513310"><ele>110.000</ele></trkpt>
      <trkpt lat="22.2322335789" lon="113.9376148021"><ele>112.000</ele></trkpt>
      <trkpt lat="22.2322148458" lon="113.9376523123"><ele>110.000</ele></trkpt>
      <trkpt lat="22.2321947932" lon="113.9377056812"><ele>115.000</ele></trkpt>
      <trkpt lat="22.2321841085" lon="113.9377402949"><ele>111.000</ele></trkpt>
      <trkpt lat="22.2321761131" lon="113.9377792293"><ele>109.000</ele></trkpt>
      <trkpt lat="22.2321775038" lon="113.9378123811"><ele>109.000</ele></trkpt>
      <trkpt lat="22.2321788923" lon="113.9378440916"><ele>110.000</ele></trkpt>
      <trkpt lat="22.2321843034" lon="113.9378729125"><ele>110.000</ele></trkpt>
      <trkpt lat="22.2321950771" lon="113.9378988405"><ele>110.000</ele></trkpt>
      <trkpt lat="22.2322098796" lon="113.9379262040"><ele>109.000</ele></trkpt>
      <trkpt lat="22.2322287174" lon="113.9379593263"><ele>109.000</ele></trkpt>
      <trkpt lat="22.2322596560" lon="113.9380082845"><ele>109.000</ele></trkpt>
      <trkpt lat="22.2322905937" lon="113.9380572428"><ele>110.000</ele></trkpt>
      <trkpt lat="22.2323296082" lon="113.9381220439"><ele>110.000</ele></trkpt>
      <trkpt lat="22.2323538222" lon="113.9381609237"><ele>110.000</ele></trkpt>
      <trkpt lat="22.2323793675" lon="113.9381925933"><ele>110.000</ele></trkpt>
      <trkpt lat="22.2324075841" lon="113.9382156090"><ele>110.000</ele></trkpt>
      <trkpt lat="22.2324438524" lon="113.9382386121"><ele>110.000</ele></trkpt>
      <trkpt lat="22.2324760863" lon="113.9382558554"><ele>114.000</ele></trkpt>
      <trkpt lat="22.2325110063" lon="113.9382745356"><ele>114.000</ele></trkpt>
      <trkpt lat="22.2325405479" lon="113.9382860178"><ele>112.000</ele></trkpt>
      <trkpt lat="22.2325647365" lon="113.9383075990"><ele>110.000</ele></trkpt>
      <trkpt lat="22.2325862581" lon="113.9383407169"><ele>110.000</ele></trkpt>
      <trkpt lat="22.2326050949" lon="113.9383738393"><ele>112.000</ele></trkpt>
      <trkpt lat="22.2326212583" lon="113.9384141734"><ele>112.000</ele></trkpt>
      <trkpt lat="22.2326266726" lon="113.9384458781"><ele>118.000</ele></trkpt>
      <trkpt lat="22.2326253792" lon="113.9384790346"><ele>118.000</ele></trkpt>
      <trkpt lat="22.2326133515" lon="113.9385136507"><ele>123.000</ele></trkpt>
      <trkpt lat="22.2325999797" lon="113.9385468276"><ele>120.000</ele></trkpt>
      <trkpt lat="22.2325785583" lon="113.9385814596"><ele>120.000</ele></trkpt>
      <trkpt lat="22.2325517660" lon="113.9386146592"><ele>119.000</ele></trkpt>
      <trkpt lat="22.2325276586" lon="113.9386478542"><ele>112.000</ele></trkpt>
      <trkpt lat="22.2325102621" lon="113.9386824803"><ele>116.000</ele></trkpt>
      <trkpt lat="22.2324942169" lon="113.9387228687"><ele>113.000</ele></trkpt>
      <trkpt lat="22.2324808704" lon="113.9387733434"><ele>108.000</ele></trkpt>
      <trkpt lat="22.2324688562" lon="113.9388166088"><ele>111.000</ele></trkpt>
      <trkpt lat="22.2324514828" lon="113.9388670903"><ele>109.000</ele></trkpt>
      <trkpt lat="22.2324287489" lon="113.9389219060"><ele>109.000</ele></trkpt>
      <trkpt lat="22.2324073413" lon="113.9389666277"><ele>108.000</ele></trkpt>
      <trkpt lat="22.2323738709" lon="113.9390214614"><ele>110.000</ele></trkpt>
      <trkpt lat="22.2323256486" lon="113.9390835271"><ele>108.000</ele></trkpt>
      <trkpt lat="22.2323002109" lon="113.9391253727"><ele>108.000</ele></trkpt>
      <trkpt lat="22.2322841656" lon="113.9391657620"><ele>110.000</ele></trkpt>
      <trkpt lat="22.2322694664" lon="113.9392090309"><ele>110.000</ele></trkpt>
      <trkpt lat="22.2322695275" lon="113.9392508344"><ele>110.000</ele></trkpt>
      <trkpt lat="22.2322722619" lon="113.9392854254"><ele>110.000</ele></trkpt>
      <trkpt lat="22.2322870853" lon="113.9393272041"><ele>110.000</ele></trkpt>
      <trkpt lat="22.2323126241" lon="113.9393545488"><ele>110.000</ele></trkpt>
      <trkpt lat="22.2323529295" lon="113.9393847523"><ele>110.000</ele></trkpt>
      <trkpt lat="22.2324106664" lon="113.9394048367"><ele>110.000</ele></trkpt>
      <trkpt lat="22.2324549618" lon="113.9394105277"><ele>110.000</ele></trkpt>
      <trkpt lat="22.2325086320" lon="113.9394032303"><ele>110.000</ele></trkpt>
      <trkpt lat="22.2325475428" lon="113.9393973982"><ele>110.000</ele></trkpt>
      <trkpt lat="22.2325797598" lon="113.9394031105"><ele>111.000</ele></trkpt>
      <trkpt lat="22.2326254119" lon="113.9394188901"><ele>110.000</ele></trkpt>
      <trkpt lat="22.2326576541" lon="113.9394418993"><ele>112.000</ele></trkpt>
      <trkpt lat="22.2326832077" lon="113.9394793349"><ele>111.000</ele></trkpt>
      <trkpt lat="22.2327087570" lon="113.9395138886"><ele>112.000</ele></trkpt>
      <trkpt lat="22.2327356684" lon="113.9395628541"><ele>113.000</ele></trkpt>
      <trkpt lat="22.2327491350" lon="113.9395945444"><ele>114.000</ele></trkpt>
      <trkpt lat="22.2327532122" lon="113.9396291333"><ele>112.000</ele></trkpt>
      <trkpt lat="22.2327572843" lon="113.9396608394"><ele>110.000</ele></trkpt>
      <trkpt lat="22.2327667230" lon="113.9396910951"><ele>110.000</ele></trkpt>
      <trkpt lat="22.2327801908" lon="113.9397242268"><ele>112.000</ele></trkpt>
      <trkpt lat="22.2327963864" lon="113.9397861841"><ele>110.000</ele></trkpt>
      <trkpt lat="22.2328085899" lon="113.9398726531"><ele>111.000</ele></trkpt>
      <trkpt lat="22.2328167391" lon="113.9399389481"><ele>112.000</ele></trkpt>
      <trkpt lat="22.2328221972" lon="113.9400009235"><ele>111.000</ele></trkpt>
      <trkpt lat="22.2328262839" lon="113.9400427195"><ele>111.000</ele></trkpt>
      <trkpt lat="22.2328370938" lon="113.9400931546"><ele>110.000</ele></trkpt>
      <trkpt lat="22.2328492289" lon="113.9401320542"><ele>110.000</ele></trkpt>
      <trkpt lat="22.2328586843" lon="113.9401738422"><ele>110.000</ele></trkpt>
      <trkpt lat="22.2328775333" lon="113.9402156144"><ele>110.000</ele></trkpt>
      <trkpt lat="22.2329112243" lon="113.9403121382"><ele>110.000</ele></trkpt>
      <trkpt lat="22.2329422020" lon="113.9403884849"><ele>110.000</ele></trkpt>
      <trkpt lat="22.2329691518" lon="113.9404633980"><ele>110.000</ele></trkpt>
      <trkpt lat="22.2329786071" lon="113.9405051860"><ele>110.000</ele></trkpt>
      <trkpt lat="22.2329880489" lon="113.9405383246"><ele>110.000</ele></trkpt>
      <trkpt lat="22.2329922034" lon="113.9406262487"><ele>110.000</ele></trkpt>
      <trkpt lat="22.2329936332" lon="113.9406867895"><ele>110.000</ele></trkpt>
      <trkpt lat="22.2329977491" lon="113.9407487672"><ele>110.000</ele></trkpt>
      <trkpt lat="22.2330005229" lon="113.9408107471"><ele>110.000</ele></trkpt>
      <trkpt lat="22.2330032779" lon="113.9408597535"><ele>110.000</ele></trkpt>
      <trkpt lat="22.2330127352" lon="113.9409029829"><ele>110.000</ele></trkpt>
      <trkpt lat="22.2330248764" lon="113.9409462069"><ele>110.000</ele></trkpt>
      <trkpt lat="22.2330437252" lon="113.9409879793"><ele>110.000</ele></trkpt>
      <trkpt lat="22.2330665819" lon="113.9410167712"><ele>112.000</ele></trkpt>
      <trkpt lat="22.2330974820" lon="113.9410397831"><ele>112.000</ele></trkpt>
      <trkpt lat="22.2331297177" lon="113.9410584686"><ele>110.000</ele></trkpt>
      <trkpt lat="22.2331767096" lon="113.9410728051"><ele>112.000</ele></trkpt>
      <trkpt lat="22.2332223427" lon="113.9410756116"><ele>112.000</ele></trkpt>
      <trkpt lat="22.2332612494" lon="113.9410668980"><ele>115.000</ele></trkpt>
      <trkpt lat="22.2333001489" lon="113.9410538593"><ele>111.000</ele></trkpt>
      <trkpt lat="22.2333444088" lon="113.9410350459"><ele>115.000</ele></trkpt>
      <trkpt lat="22.2333913588" lon="113.9410205522"><ele>118.000</ele></trkpt>
      <trkpt lat="22.2334383118" lon="113.9410074999"><ele>112.000</ele></trkpt>
      <trkpt lat="22.2334785658" lon="113.9410031083"><ele>112.000</ele></trkpt>
      <trkpt lat="22.2335161536" lon="113.9410102526"><ele>110.000</ele></trkpt>
      <trkpt lat="22.2335591279" lon="113.9410303625"><ele>115.000</ele></trkpt>
      <trkpt lat="22.2335913699" lon="113.9410533722"><ele>111.000</ele></trkpt>
      <trkpt lat="22.2336222950" lon="113.9410936831"><ele>111.000</ele></trkpt>
      <trkpt lat="22.2336451613" lon="113.9411296823"><ele>112.000</ele></trkpt>
      <trkpt lat="22.2336613199" lon="113.9411671341"><ele>112.000</ele></trkpt>
      <trkpt lat="22.2336788151" lon="113.9412002594"><ele>112.000</ele></trkpt>
      <trkpt lat="22.2336922814" lon="113.9412319501"><ele>113.000</ele></trkpt>
      <trkpt lat="22.2337097632" lon="113.9412564270"><ele>114.000</ele></trkpt>
      <trkpt lat="22.2337272512" lon="113.9412852281"><ele>114.000</ele></trkpt>
      <trkpt lat="22.2337541274" lon="113.9413096883"><ele>117.000</ele></trkpt>
      <trkpt lat="22.2337783210" lon="113.9413355954"><ele>117.000</ele></trkpt>
      <trkpt lat="22.2338535957" lon="113.9414190769"><ele>113.000</ele></trkpt>
      <trkpt lat="22.2339382690" lon="113.9415054257"><ele>117.000</ele></trkpt>
      <trkpt lat="22.2340121954" lon="113.9415845854"><ele>113.000</ele></trkpt>
      <trkpt lat="22.2340229549" lon="113.9416004240"><ele>110.000</ele></trkpt>
      <trkpt lat="22.2340364107" lon="113.9416249077"><ele>110.000</ele></trkpt>
      <trkpt lat="22.2340431580" lon="113.9416508440"><ele>112.000</ele></trkpt>
      <trkpt lat="22.2340539820" lon="113.9417113686"><ele>114.000</ele></trkpt>
      <trkpt lat="22.2340635620" lon="113.9418396471"><ele>111.000</ele></trkpt>
      <trkpt lat="22.2340717761" lon="113.9419520712"><ele>110.000</ele></trkpt>
      <trkpt lat="22.2340718115" lon="113.9419765773"><ele>110.000</ele></trkpt>
      <trkpt lat="22.2340691671" lon="113.9420039707"><ele>110.000</ele></trkpt>
      <trkpt lat="22.2340624919" lon="113.9420284870"><ele>110.000</ele></trkpt>
      <trkpt lat="22.2340518041" lon="113.9420616595"><ele>110.000</ele></trkpt>
      <trkpt lat="22.2340224084" lon="113.9421510825"><ele>110.000</ele></trkpt>
      <trkpt lat="22.2339743035" lon="113.9422953135"><ele>110.000</ele></trkpt>
      <trkpt lat="22.2339208526" lon="113.9424554100"><ele>111.000</ele></trkpt>
      <trkpt lat="22.2338874454" lon="113.9425549294"><ele>110.000</ele></trkpt>
      <trkpt lat="22.2338781173" lon="113.9426010734"><ele>112.000</ele></trkpt>
      <trkpt lat="22.2338728097" lon="113.9426428863"><ele>110.000</ele></trkpt>
      <trkpt lat="22.2338768832" lon="113.9426760342"><ele>110.000</ele></trkpt>
      <trkpt lat="22.2338930373" lon="113.9427106034"><ele>112.000</ele></trkpt>
      <trkpt lat="22.2339158979" lon="113.9427422787"><ele>112.000</ele></trkpt>
      <trkpt lat="22.2339427814" lon="113.9427725058"><ele>113.000</ele></trkpt>
      <trkpt lat="22.2339777059" lon="113.9427940701"><ele>111.000</ele></trkpt>
      <trkpt lat="22.2340341264" lon="113.9428328978"><ele>112.000</ele></trkpt>
      <trkpt lat="22.2340784570" lon="113.9428630960"><ele>112.000</ele></trkpt>
      <trkpt lat="22.2341133857" lon="113.9428875432"><ele>110.000</ele></trkpt>
      <trkpt lat="22.2341442813" lon="113.9429076729"><ele>112.000</ele></trkpt>
      <trkpt lat="22.2341671389" lon="113.9429379068"><ele>110.000</ele></trkpt>
      <trkpt lat="22.2341832959" lon="113.9429739176"><ele>111.000</ele></trkpt>
      <trkpt lat="22.2341980900" lon="113.9430431173"><ele>110.000</ele></trkpt>
      <trkpt lat="22.2342035803" lon="113.9431226688"><ele>110.000</ele></trkpt>
      <trkpt lat="22.2342120717" lon="113.9432118398"><ele>110.000</ele></trkpt>
      <trkpt lat="22.2342175628" lon="113.9432920325"><ele>110.000</ele></trkpt>
      <trkpt lat="22.2342265690" lon="113.9433240985"><ele>110.000</ele></trkpt>
      <trkpt lat="22.2342355780" lon="113.9433580900"><ele>110.000</ele></trkpt>
      <trkpt lat="22.2342481639" lon="113.9433875834"><ele>110.000</ele></trkpt>
      <trkpt lat="22.2342673242" lon="113.9434189905"><ele>110.000</ele></trkpt>
      <trkpt lat="22.2342852749" lon="113.9434401350"><ele>111.000</ele></trkpt>
      <trkpt lat="22.2343079982" lon="113.9434574207"><ele>111.000</ele></trkpt>
      <trkpt lat="22.2343277295" lon="113.9434708623"><ele>111.000</ele></trkpt>
      <trkpt lat="22.2343486483" lon="113.9434785266"><ele>110.000</ele></trkpt>
      <trkpt lat="22.2343707553" lon="113.9434823399"><ele>110.000</ele></trkpt>
      <trkpt lat="22.2343988361" lon="113.9434867846"><ele>112.000</ele></trkpt>
      <trkpt lat="22.2344275046" lon="113.9434841705"><ele>110.000</ele></trkpt>
      <trkpt lat="22.2344585580" lon="113.9434783447"><ele>110.000</ele></trkpt>
      <trkpt lat="22.2344955843" lon="113.9434718678"><ele>111.000</ele></trkpt>
      <trkpt lat="22.2345487318" lon="113.9434608720"><ele>111.000</ele></trkpt>
      <trkpt lat="22.2345785951" lon="113.9434582560"><ele>111.000</ele></trkpt>
      <trkpt lat="22.2346114540" lon="113.9434620515"><ele>111.000</ele></trkpt>
      <trkpt lat="22.2346520857" lon="113.9434709665"><ele>110.000</ele></trkpt>
      <trkpt lat="22.2346891414" lon="113.9434850207"><ele>112.000</ele></trkpt>
      <trkpt lat="22.2347285921" lon="113.9435035631"><ele>111.000</ele></trkpt>
      <trkpt lat="22.2347602802" lon="113.9435240418"><ele>110.000</ele></trkpt>
      <trkpt lat="22.2347871856" lon="113.9435413216"><ele>112.000</ele></trkpt>
      <trkpt lat="22.2348081061" lon="113.9435509114"><ele>112.000</ele></trkpt>
      <trkpt lat="22.2348308092" lon="113.9435534394"><ele>113.000</ele></trkpt>
      <trkpt lat="22.2348493310" lon="113.9435566176"><ele>113.000</ele></trkpt>
      <trkpt lat="22.2348714261" lon="113.9435520889"><ele>113.000</ele></trkpt>
      <trkpt lat="22.2348953110" lon="113.9435462749"><ele>116.000</ele></trkpt>
      <trkpt lat="22.2349167981" lon="113.9435340493"><ele>116.000</ele></trkpt>
      <trkpt lat="22.2349430606" lon="113.9435198893"><ele>112.000</ele></trkpt>
      <trkpt lat="22.2350397627" lon="113.9434735325"><ele>116.000</ele></trkpt>
      <trkpt lat="22.2351286985" lon="113.9434259053"><ele>112.000</ele></trkpt>
      <trkpt lat="22.2351704835" lon="113.9434059460"><ele>114.000</ele></trkpt>
      <trkpt lat="22.2352015304" lon="113.9433956290"><ele>116.000</ele></trkpt>
      <trkpt lat="22.2352289968" lon="113.9433878836"><ele>116.000</ele></trkpt>
      <trkpt lat="22.2352642351" lon="113.9433846174"><ele>111.000</ele></trkpt>
      <trkpt lat="22.2352905205" lon="113.9433858572"><ele>113.000</ele></trkpt>
      <trkpt lat="22.2353377155" lon="113.9433896290"><ele>122.000</ele></trkpt>
      <trkpt lat="22.2354088064" lon="113.9433946436"><ele>122.000</ele></trkpt>
      <trkpt lat="22.2354583900" lon="113.9433977703"><ele>123.000</ele></trkpt>
      <trkpt lat="22.2354995965" lon="113.9433912854"><ele>124.000</ele></trkpt>
      <trkpt lat="22.2355467666" lon="113.9433770917"><ele>120.000</ele></trkpt>
      <trkpt lat="22.2355819901" lon="113.9433635589"><ele>119.000</ele></trkpt>
      <trkpt lat="22.2356428911" lon="113.9433442090"><ele>119.000</ele></trkpt>
      <trkpt lat="22.2356805207" lon="113.9433422222"><ele>119.000</ele></trkpt>
      <trkpt lat="22.2357091984" lon="113.9433460247"><ele>118.000</ele></trkpt>
      <trkpt lat="22.2357510341" lon="113.9433613544"><ele>116.000</ele></trkpt>
      <trkpt lat="22.2357785410" lon="113.9433818411"><ele>113.000</ele></trkpt>
      <trkpt lat="22.2358060645" lon="113.9434138768"><ele>112.000</ele></trkpt>
      <trkpt lat="22.2358270265" lon="113.9434523390"><ele>112.000</ele></trkpt>
      <trkpt lat="22.2358366342" lon="113.9434869711"><ele>112.000</ele></trkpt>
      <trkpt lat="22.2358456560" lon="113.9435299453"><ele>112.000</ele></trkpt>
      <trkpt lat="22.2358469051" lon="113.9435684402"><ele>112.000</ele></trkpt>
      <trkpt lat="22.2358511617" lon="113.9436204055"><ele>112.000</ele></trkpt>
      <trkpt lat="22.2358542181" lon="113.9436691641"><ele>113.000</ele></trkpt>
      <trkpt lat="22.2358578492" lon="113.9437018805"><ele>120.000</ele></trkpt>
      <trkpt lat="22.2358674606" lon="113.9437397204"><ele>123.000</ele></trkpt>
      <trkpt lat="22.2358758707" lon="113.9437724300"><ele>123.000</ele></trkpt>
      <trkpt lat="22.2358908460" lon="113.9438019199"><ele>120.000</ele></trkpt>
      <trkpt lat="22.2359058066" lon="113.9438205020"><ele>120.000</ele></trkpt>
      <trkpt lat="22.2359243533" lon="113.9438410036"><ele>115.000</ele></trkpt>
      <trkpt lat="22.2359452904" lon="113.9438621425"><ele>115.000</ele></trkpt>
      <trkpt lat="22.2359763751" lon="113.9438781313"><ele>119.000</ele></trkpt>
      <trkpt lat="22.2360050657" lon="113.9438909172"><ele>118.000</ele></trkpt>
      <trkpt lat="22.2360373294" lon="113.9438959962"><ele>118.000</ele></trkpt>
      <trkpt lat="22.2360594356" lon="113.9438991685"><ele>118.000</ele></trkpt>
      <trkpt lat="22.2360833260" lon="113.9438972036"><ele>118.000</ele></trkpt>
      <trkpt lat="22.2361096059" lon="113.9438952356"><ele>116.000</ele></trkpt>
      <trkpt lat="22.2361322988" lon="113.9438907069"><ele>116.000</ele></trkpt>
      <trkpt lat="22.2361866356" lon="113.9438758593"><ele>116.000</ele></trkpt>
      <trkpt lat="22.2362427651" lon="113.9438616508"><ele>111.000</ele></trkpt>
      <trkpt lat="22.2362923256" lon="113.9438487366"><ele>113.000</ele></trkpt>
      <trkpt lat="22.2363478636" lon="113.9438383781"><ele>113.000</ele></trkpt>
      <trkpt lat="22.2364045918" lon="113.9438254519"><ele>113.000</ele></trkpt>
      <trkpt lat="22.2364601408" lon="113.9438227934"><ele>115.000</ele></trkpt>
      <trkpt lat="22.2364959769" lon="113.9438195263"><ele>112.000</ele></trkpt>
      <trkpt lat="22.2365246371" lon="113.9438111378"><ele>112.000</ele></trkpt>
      <trkpt lat="22.2365491134" lon="113.9438008316"><ele>112.000</ele></trkpt>
      <trkpt lat="22.2365640308" lon="113.9437898991"><ele>112.000</ele></trkpt>
      <trkpt lat="22.2365801457" lon="113.9437808891"><ele>112.000</ele></trkpt>
      <trkpt lat="22.2366972083" lon="113.9437691464"><ele>112.000</ele></trkpt>
      <trkpt lat="22.2368459240" lon="113.9437541436"><ele>114.000</ele></trkpt>
      <trkpt lat="22.2368955030" lon="113.9437540616"><ele>114.000</ele></trkpt>
      <trkpt lat="22.2369307596" lon="113.9437636269"><ele>117.000</ele></trkpt>
      <trkpt lat="22.2369600517" lon="113.9437789775"><ele>120.000</ele></trkpt>
      <trkpt lat="22.2369821854" lon="113.9438013979"><ele>120.000</ele></trkpt>
      <trkpt lat="22.2370169233" lon="113.9438661458"><ele>115.000</ele></trkpt>
      <trkpt lat="22.2370277615" lon="113.9439257998"><ele>112.000</ele></trkpt>
      <trkpt lat="22.2370482110" lon="113.9440239352"><ele>113.000</ele></trkpt>
      <trkpt lat="22.2370596801" lon="113.9441073286"><ele>112.000</ele></trkpt>
      <trkpt lat="22.2370806869" lon="113.9441772316"><ele>115.000</ele></trkpt>
      <trkpt lat="22.2371046333" lon="113.9442137648"><ele>114.000</ele></trkpt>
      <trkpt lat="22.2371375335" lon="113.9442464343"><ele>112.000</ele></trkpt>
      <trkpt lat="22.2371698165" lon="113.9442649880"><ele>115.000</ele></trkpt>
      <trkpt lat="22.2372176231" lon="113.9442790249"><ele>114.000</ele></trkpt>
      <trkpt lat="22.2372504810" lon="113.9442815374"><ele>116.000</ele></trkpt>
      <trkpt lat="22.2372910934" lon="113.9442769792"><ele>114.000</ele></trkpt>
      <trkpt lat="22.2373370661" lon="113.9442615042"><ele>114.000</ele></trkpt>
      <trkpt lat="22.2373782561" lon="113.9442428282"><ele>112.000</ele></trkpt>
      <trkpt lat="22.2374254024" lon="113.9442125943"><ele>112.000</ele></trkpt>
      <trkpt lat="22.2374862750" lon="113.9441733542"><ele>112.000</ele></trkpt>
      <trkpt lat="22.2375656438" lon="113.9441193256"><ele>112.000</ele></trkpt>
      <trkpt lat="22.2376055745" lon="113.9440946908"><ele>112.000</ele></trkpt>
      <trkpt lat="22.2376402592" lon="113.9440826295"><ele>112.000</ele></trkpt>
      <trkpt lat="22.2376707176" lon="113.9440787291"><ele>112.000</ele></trkpt>
      <trkpt lat="22.2376993870" lon="113.9440767573"><ele>112.000</ele></trkpt>
      <trkpt lat="22.2377346445" lon="113.9440863227"><ele>112.000</ele></trkpt>
      <trkpt lat="22.2377633332" lon="113.9440978254"><ele>112.000</ele></trkpt>
      <trkpt lat="22.2377914269" lon="113.9441112537"><ele>114.000</ele></trkpt>
      <trkpt lat="22.2378189273" lon="113.9441272487"><ele>115.000</ele></trkpt>
      <trkpt lat="22.2378972491" lon="113.9441758837"><ele>113.000</ele></trkpt>
      <trkpt lat="22.2379253574" lon="113.9441995778"><ele>112.000</ele></trkpt>
      <trkpt lat="22.2379391223" lon="113.9442181621"><ele>112.000</ele></trkpt>
      <trkpt lat="22.2379546990" lon="113.9442495770"><ele>112.000</ele></trkpt>
      <trkpt lat="22.2379627063" lon="113.9442797666"><ele>112.000</ele></trkpt>
      <trkpt lat="22.2379691379" lon="113.9443214159"><ele>112.000</ele></trkpt>
      <trkpt lat="22.2379702363" lon="113.9443671150"><ele>112.000</ele></trkpt>
      <trkpt lat="22.2379680724" lon="113.9444118884"><ele>113.000</ele></trkpt>
      <trkpt lat="22.2379629674" lon="113.9444624227"><ele>114.000</ele></trkpt>
      <trkpt lat="22.2379598513" lon="113.9445113551"><ele>115.000</ele></trkpt>
      <trkpt lat="22.2379631092" lon="113.9445616856"><ele>114.000</ele></trkpt>
      <trkpt lat="22.2379707287" lon="113.9445986001"><ele>118.000</ele></trkpt>
      <trkpt lat="22.2379815190" lon="113.9446255307"><ele>118.000</ele></trkpt>
      <trkpt lat="22.2379938553" lon="113.9446479675"><ele>116.000</ele></trkpt>
      <trkpt lat="22.2380066683" lon="113.9446684790"><ele>116.000</ele></trkpt>
      <trkpt lat="22.2380735154" lon="113.9447371760"><ele>112.000</ele></trkpt>
      <trkpt lat="22.2381171930" lon="113.9447838650"><ele>112.000</ele></trkpt>
      <trkpt lat="22.2382452153" lon="113.9449207140"><ele>112.000</ele></trkpt>
      <trkpt lat="22.2383732375" lon="113.9450575633"><ele>112.000</ele></trkpt>
      <trkpt lat="22.2383968886" lon="113.9450860132"><ele>112.000</ele></trkpt>
      <trkpt lat="22.2384215079" lon="113.9451176482"><ele>113.000</ele></trkpt>
      <trkpt lat="22.2384569598" lon="113.9451635200"><ele>112.000</ele></trkpt>
      <trkpt lat="22.2384872540" lon="113.9452060682"><ele>114.000</ele></trkpt>
      <trkpt lat="22.2385801299" lon="113.9453420714"><ele>113.000</ele></trkpt>
      <trkpt lat="22.2386359335" lon="113.9454262340"><ele>112.000</ele></trkpt>
      <trkpt lat="22.2386827350" lon="113.9454956174"><ele>112.000</ele></trkpt>
      <trkpt lat="22.2387248797" lon="113.9455537464"><ele>112.000</ele></trkpt>
      <trkpt lat="22.2387573860" lon="113.9456017350"><ele>112.000</ele></trkpt>
      <trkpt lat="22.2387879247" lon="113.9456486705"><ele>112.000</ele></trkpt>
      <trkpt lat="22.2388155239" lon="113.9457024738"><ele>114.000</ele></trkpt>
      <trkpt lat="22.2388391980" lon="113.9457605071"><ele>114.000</ele></trkpt>
      <trkpt lat="22.2388574570" lon="113.9458132704"><ele>114.000</ele></trkpt>
      <trkpt lat="22.2388722748" lon="113.9458649830"><ele>114.000</ele></trkpt>
      <trkpt lat="22.2388885627" lon="113.9459135260"><ele>114.000</ele></trkpt>
      <trkpt lat="22.2389024526" lon="113.9459573265"><ele>114.000</ele></trkpt>
      <trkpt lat="22.2389094209" lon="113.9459848515"><ele>114.000</ele></trkpt>
      <trkpt lat="22.2389143126" lon="113.9460146129"><ele>114.000</ele></trkpt>
      <trkpt lat="22.2389136633" lon="113.9460451284"><ele>114.000</ele></trkpt>
      <trkpt lat="22.2389074741" lon="113.9460778850"><ele>114.000</ele></trkpt>
    </trkseg>
  </trk>
</gpx>
