<?xml version="1.0" encoding="UTF-8"?>
<gpx xmlns:xsi="http://www.w3.org/2001/XMLSchema-instance"
     xsi:schemaLocation="http://www.topografix.com/GPX/1/1 http://www.topografix.com/GPX/1/1/gpx.xsd"
     version="1.1" creator="json3d_batch_to_gpx"
     xmlns="http://www.topografix.com/GPX/1/1">
  <metadata>
    <name>LantauTrail(Section6)ManCheungPotoTaiO</name>
  </metadata>
  <trk>
    <name>LantauTrail(Section6)ManCheungPotoTaiO</name>
    <type>hike</type>
    <trkseg>
      <trkpt lat="22.2364744359" lon="113.8703795407"><ele>218.000</ele></trkpt>
      <trkpt lat="22.2365063103" lon="113.8703810069"><ele>218.000</ele></trkpt>
      <trkpt lat="22.2365361758" lon="113.8703803008"><ele>218.000</ele></trkpt>
      <trkpt lat="22.2365744106" lon="113.8703827843"><ele>218.000</ele></trkpt>
      <trkpt lat="22.2366227933" lon="113.8703820370"><ele>216.000</ele></trkpt>
      <trkpt lat="22.2366908867" lon="113.8703806056"><ele>216.000</ele></trkpt>
      <trkpt lat="22.2367362794" lon="113.8703779412"><ele>216.000</ele></trkpt>
      <trkpt lat="22.2367715145" lon="113.8703733724"><ele>218.000</ele></trkpt>
      <trkpt lat="22.2368079437" lon="113.8703694432"><ele>216.000</ele></trkpt>
      <trkpt lat="22.2368509333" lon="113.8703590841"><ele>214.000</ele></trkpt>
      <trkpt lat="22.2368897384" lon="113.8703474507"><ele>214.000</ele></trkpt>
      <trkpt lat="22.2369279481" lon="113.8703371019"><ele>215.000</ele></trkpt>
      <trkpt lat="22.2369625708" lon="113.8703248354"><ele>215.000</ele></trkpt>
      <trkpt lat="22.2369840538" lon="113.8703138808"><ele>213.000</ele></trkpt>
      <trkpt lat="22.2370144894" lon="113.8702984156"><ele>214.000</ele></trkpt>
      <trkpt lat="22.2370508989" lon="113.8702835785"><ele>212.000</ele></trkpt>
      <trkpt lat="22.2370926832" lon="113.8702680886"><ele>212.000</ele></trkpt>
      <trkpt lat="22.2371207380" lon="113.8702577619"><ele>211.000</ele></trkpt>
      <trkpt lat="22.2371517729" lon="113.8702435786"><ele>211.000</ele></trkpt>
      <trkpt lat="22.2371750364" lon="113.8702262045"><ele>211.000</ele></trkpt>
      <trkpt lat="22.2372012753" lon="113.8702030483"><ele>212.000</ele></trkpt>
      <trkpt lat="22.2372233474" lon="113.8701869591"><ele>214.000</ele></trkpt>
      <trkpt lat="22.2372454209" lon="113.8701721541"><ele>212.000</ele></trkpt>
      <trkpt lat="22.2372627216" lon="113.8701605674"><ele>212.000</ele></trkpt>
      <trkpt lat="22.2372818208" lon="113.8701521846"><ele>210.000</ele></trkpt>
      <trkpt lat="22.2373015242" lon="113.8701476496"><ele>210.000</ele></trkpt>
      <trkpt lat="22.2373277959" lon="113.8701418179"><ele>210.000</ele></trkpt>
      <trkpt lat="22.2373618317" lon="113.8701353281"><ele>210.000</ele></trkpt>
      <trkpt lat="22.2373899031" lon="113.8701333416"><ele>208.000</ele></trkpt>
      <trkpt lat="22.2374179749" lon="113.8701319971"><ele>208.000</ele></trkpt>
      <trkpt lat="22.2374412758" lon="113.8701345131"><ele>208.000</ele></trkpt>
      <trkpt lat="22.2374592045" lon="113.8701389663"><ele>208.000</ele></trkpt>
      <trkpt lat="22.2374711583" lon="113.8701427893"><ele>211.000</ele></trkpt>
      <trkpt lat="22.2374902793" lon="113.8701459556"><ele>211.000</ele></trkpt>
      <trkpt lat="22.2375070073" lon="113.8701472025"><ele>212.000</ele></trkpt>
      <trkpt lat="22.2375213433" lon="113.8701471713"><ele>212.000</ele></trkpt>
      <trkpt lat="22.2375338876" lon="113.8701471440"><ele>212.000</ele></trkpt>
      <trkpt lat="22.2375494162" lon="113.8701464690"><ele>212.000</ele></trkpt>
      <trkpt lat="22.2375745013" lon="113.8701444899"><ele>215.000</ele></trkpt>
      <trkpt lat="22.2376007838" lon="113.8701444327"><ele>216.000</ele></trkpt>
      <trkpt lat="22.2376246744" lon="113.8701430974"><ele>216.000</ele></trkpt>
      <trkpt lat="22.2376455811" lon="113.8701430519"><ele>216.000</ele></trkpt>
      <trkpt lat="22.2376658908" lon="113.8701430077"><ele>216.000</ele></trkpt>
      <trkpt lat="22.2376885924" lon="113.8701442416"><ele>216.000</ele></trkpt>
      <trkpt lat="22.2377130860" lon="113.8701461129"><ele>214.000</ele></trkpt>
      <trkpt lat="22.2377369836" lon="113.8701479854"><ele>214.000</ele></trkpt>
      <trkpt lat="22.2377662561" lon="113.8701498472"><ele>214.000</ele></trkpt>
      <trkpt lat="22.2377973188" lon="113.8701504208"><ele>214.000</ele></trkpt>
      <trkpt lat="22.2378194214" lon="113.8701510148"><ele>214.000</ele></trkpt>
      <trkpt lat="22.2378385376" lon="113.8701516144"><ele>216.000</ele></trkpt>
      <trkpt lat="22.2378576574" lon="113.8701541395"><ele>216.000</ele></trkpt>
      <trkpt lat="22.2378827549" lon="113.8701592183"><ele>216.000</ele></trkpt>
      <trkpt lat="22.2379042690" lon="113.8701643039"><ele>216.000</ele></trkpt>
      <trkpt lat="22.2379293713" lon="113.8701719493"><ele>218.000</ele></trkpt>
      <trkpt lat="22.2379544700" lon="113.8701776692"><ele>218.000</ele></trkpt>
      <trkpt lat="22.2379783748" lon="113.8701833918"><ele>220.000</ele></trkpt>
      <trkpt lat="22.2380022787" lon="113.8701891143"><ele>220.000</ele></trkpt>
      <trkpt lat="22.2380261815" lon="113.8701941957"><ele>218.000</ele></trkpt>
      <trkpt lat="22.2380441077" lon="113.8701973646"><ele>218.000</ele></trkpt>
      <trkpt lat="22.2380614386" lon="113.8702018181"><ele>215.000</ele></trkpt>
      <trkpt lat="22.2380763749" lon="113.8702030690"><ele>215.000</ele></trkpt>
      <trkpt lat="22.2380972839" lon="113.8702043068"><ele>215.000</ele></trkpt>
      <trkpt lat="22.2381193853" lon="113.8702042587"><ele>215.000</ele></trkpt>
      <trkpt lat="22.2381444731" lon="113.8702042041"><ele>215.000</ele></trkpt>
      <trkpt lat="22.2381731414" lon="113.8702022172"><ele>215.000</ele></trkpt>
      <trkpt lat="22.2382065912" lon="113.8702015023"><ele>215.000</ele></trkpt>
      <trkpt lat="22.2382400373" lon="113.8701988638"><ele>215.000</ele></trkpt>
      <trkpt lat="22.2382687118" lon="113.8702000848"><ele>215.000</ele></trkpt>
      <trkpt lat="22.2382824500" lon="113.8702000549"><ele>215.000</ele></trkpt>
      <trkpt lat="22.2382955933" lon="113.8702006675"><ele>215.000</ele></trkpt>
      <trkpt lat="22.2383093291" lon="113.8701993542"><ele>215.000</ele></trkpt>
      <trkpt lat="22.2383248489" lon="113.8701935459"><ele>213.000</ele></trkpt>
      <trkpt lat="22.2383433516" lon="113.8701858056"><ele>218.000</ele></trkpt>
      <trkpt lat="22.2383576731" lon="113.8701780753"><ele>218.000</ele></trkpt>
      <trkpt lat="22.2383702005" lon="113.8701690646"><ele>213.000</ele></trkpt>
      <trkpt lat="22.2383827254" lon="113.8701587715"><ele>213.000</ele></trkpt>
      <trkpt lat="22.2383964346" lon="113.8701433425"><ele>216.000</ele></trkpt>
      <trkpt lat="22.2384053705" lon="113.8701304906"><ele>216.000</ele></trkpt>
      <trkpt lat="22.2384113236" lon="113.8701195697"><ele>213.000</ele></trkpt>
      <trkpt lat="22.2384190624" lon="113.8701054370"><ele>213.000</ele></trkpt>
      <trkpt lat="22.2384303796" lon="113.8700887298"><ele>214.000</ele></trkpt>
      <trkpt lat="22.2384416989" lon="113.8700726648"><ele>214.000</ele></trkpt>
      <trkpt lat="22.2384536225" lon="113.8700604475"><ele>214.000</ele></trkpt>
      <trkpt lat="22.2384643582" lon="113.8700514407"><ele>214.000</ele></trkpt>
      <trkpt lat="22.2384786797" lon="113.8700437104"><ele>216.000</ele></trkpt>
      <trkpt lat="22.2384930024" lon="113.8700366213"><ele>216.000</ele></trkpt>
      <trkpt lat="22.2385091240" lon="113.8700333783"><ele>216.000</ele></trkpt>
      <trkpt lat="22.2385258519" lon="113.8700346243"><ele>216.000</ele></trkpt>
      <trkpt lat="22.2385395994" lon="113.8700390856"><ele>216.000</ele></trkpt>
      <trkpt lat="22.2385497679" lon="113.8700467635"><ele>216.000</ele></trkpt>
      <trkpt lat="22.2385629355" lon="113.8700602096"><ele>212.000</ele></trkpt>
      <trkpt lat="22.2385773066" lon="113.8700787854"><ele>212.000</ele></trkpt>
      <trkpt lat="22.2385958818" lon="113.8701095434"><ele>211.000</ele></trkpt>
      <trkpt lat="22.2386060851" lon="113.8701351872"><ele>211.000</ele></trkpt>
      <trkpt lat="22.2386198777" lon="113.8701640301"><ele>210.000</ele></trkpt>
      <trkpt lat="22.2386306816" lon="113.8701915971"><ele>210.000</ele></trkpt>
      <trkpt lat="22.2386402770" lon="113.8702114667"><ele>210.000</ele></trkpt>
      <trkpt lat="22.2386552644" lon="113.8702403080"><ele>210.000</ele></trkpt>
      <trkpt lat="22.2386678510" lon="113.8702627378"><ele>209.000</ele></trkpt>
      <trkpt lat="22.2386822584" lon="113.8703005628"><ele>210.000</ele></trkpt>
      <trkpt lat="22.2386912621" lon="113.8703236426"><ele>210.000</ele></trkpt>
      <trkpt lat="22.2386984744" lon="113.8703473674"><ele>210.000</ele></trkpt>
      <trkpt lat="22.2387063002" lon="113.8703794322"><ele>210.000</ele></trkpt>
      <trkpt lat="22.2387111251" lon="113.8704038034"><ele>210.000</ele></trkpt>
      <trkpt lat="22.2387171427" lon="113.8704275308"><ele>210.000</ele></trkpt>
      <trkpt lat="22.2387255445" lon="113.8704480452"><ele>210.000</ele></trkpt>
      <trkpt lat="22.2387351415" lon="113.8704691982"><ele>210.000</ele></trkpt>
      <trkpt lat="22.2387489180" lon="113.8704890587"><ele>210.000</ele></trkpt>
      <trkpt lat="22.2387644802" lon="113.8705057074"><ele>210.000</ele></trkpt>
      <trkpt lat="22.2387806369" lon="113.8705210716"><ele>211.000</ele></trkpt>
      <trkpt lat="22.2387973853" lon="113.8705332265"><ele>210.000</ele></trkpt>
      <trkpt lat="22.2388141314" lon="113.8705440981"><ele>210.000</ele></trkpt>
      <trkpt lat="22.2388344519" lon="113.8705498285"><ele>213.000</ele></trkpt>
      <trkpt lat="22.2388523770" lon="113.8705523563"><ele>213.000</ele></trkpt>
      <trkpt lat="22.2388720901" lon="113.8705529546"><ele>216.000</ele></trkpt>
      <trkpt lat="22.2388918008" lon="113.8705522706"><ele>216.000</ele></trkpt>
      <trkpt lat="22.2389126953" lon="113.8705458084"><ele>216.000</ele></trkpt>
      <trkpt lat="22.2389270217" lon="113.8705406448"><ele>216.000</ele></trkpt>
      <trkpt lat="22.2389395554" lon="113.8705354842"><ele>216.000</ele></trkpt>
      <trkpt lat="22.2389509002" lon="113.8705328928"><ele>216.000</ele></trkpt>
      <trkpt lat="22.2389622498" lon="113.8705328682"><ele>212.000</ele></trkpt>
      <trkpt lat="22.2389795674" lon="113.8705302638"><ele>212.000</ele></trkpt>
      <trkpt lat="22.2389932992" lon="113.8705263839"><ele>212.000</ele></trkpt>
      <trkpt lat="22.2390088082" lon="113.8705148010"><ele>209.000</ele></trkpt>
      <trkpt lat="22.2390284850" lon="113.8704961511"><ele>209.000</ele></trkpt>
      <trkpt lat="22.2390511383" lon="113.8704717191"><ele>208.000</ele></trkpt>
      <trkpt lat="22.2390773616" lon="113.8704402224"><ele>208.000</ele></trkpt>
      <trkpt lat="22.2390958376" lon="113.8704183662"><ele>206.000</ele></trkpt>
      <trkpt lat="22.2391149151" lon="113.8703984342"><ele>206.000</ele></trkpt>
      <trkpt lat="22.2391351755" lon="113.8703727250"><ele>204.000</ele></trkpt>
      <trkpt lat="22.2391548448" lon="113.8703495828"><ele>204.000</ele></trkpt>
      <trkpt lat="22.2391792707" lon="113.8703155232"><ele>203.000</ele></trkpt>
      <trkpt lat="22.2391989399" lon="113.8702923811"><ele>203.000</ele></trkpt>
      <trkpt lat="22.2392108610" lon="113.8702788804"><ele>203.000</ele></trkpt>
      <trkpt lat="22.2392346960" lon="113.8702480300"><ele>202.000</ele></trkpt>
      <trkpt lat="22.2392603296" lon="113.8702203845"><ele>202.000</ele></trkpt>
      <trkpt lat="22.2392782087" lon="113.8701985295"><ele>200.000</ele></trkpt>
      <trkpt lat="22.2392883405" lon="113.8701863161"><ele>199.000</ele></trkpt>
      <trkpt lat="22.2393032432" lon="113.8701702432"><ele>199.000</ele></trkpt>
      <trkpt lat="22.2393169460" lon="113.8701509640"><ele>198.000</ele></trkpt>
      <trkpt lat="22.2393294495" lon="113.8701297629"><ele>198.000</ele></trkpt>
      <trkpt lat="22.2393461362" lon="113.8701091938"><ele>198.000</ele></trkpt>
      <trkpt lat="22.2393610325" lon="113.8700892709"><ele>198.000</ele></trkpt>
      <trkpt lat="22.2393747417" lon="113.8700738417"><ele>198.000</ele></trkpt>
      <trkpt lat="22.2393860743" lon="113.8700648336"><ele>198.000</ele></trkpt>
      <trkpt lat="22.2394009915" lon="113.8700564598"><ele>198.000</ele></trkpt>
      <trkpt lat="22.2394177037" lon="113.8700493654"><ele>198.000</ele></trkpt>
      <trkpt lat="22.2394326278" lon="113.8700442005"><ele>200.000</ele></trkpt>
      <trkpt lat="22.2394481392" lon="113.8700338999"><ele>200.000</ele></trkpt>
      <trkpt lat="22.2394720068" lon="113.8700203741"><ele>200.000</ele></trkpt>
      <trkpt lat="22.2394887105" lon="113.8700087875"><ele>200.000</ele></trkpt>
      <trkpt lat="22.2395101919" lon="113.8699965503"><ele>198.000</ele></trkpt>
      <trkpt lat="22.2395382322" lon="113.8699785232"><ele>196.000</ele></trkpt>
      <trkpt lat="22.2395692537" lon="113.8699572817"><ele>196.000</ele></trkpt>
      <trkpt lat="22.2395907270" lon="113.8699411935"><ele>196.000</ele></trkpt>
      <trkpt lat="22.2396128002" lon="113.8699257461"><ele>196.000</ele></trkpt>
      <trkpt lat="22.2396318925" lon="113.8699141553"><ele>196.000</ele></trkpt>
      <trkpt lat="22.2396474002" lon="113.8699019301"><ele>196.000</ele></trkpt>
      <trkpt lat="22.2396623125" lon="113.8698909895"><ele>196.000</ele></trkpt>
      <trkpt lat="22.2396778260" lon="113.8698813310"><ele>194.000</ele></trkpt>
      <trkpt lat="22.2396963274" lon="113.8698729494"><ele>194.000</ele></trkpt>
      <trkpt lat="22.2397189991" lon="113.8698587840"><ele>194.000</ele></trkpt>
      <trkpt lat="22.2397398754" lon="113.8698426980"><ele>194.000</ele></trkpt>
      <trkpt lat="22.2397607466" lon="113.8698234031"><ele>194.000</ele></trkpt>
      <trkpt lat="22.2397786320" lon="113.8698053981"><ele>192.000</ele></trkpt>
      <trkpt lat="22.2397971113" lon="113.8697848251"><ele>192.000</ele></trkpt>
      <trkpt lat="22.2398108107" lon="113.8697642634"><ele>190.000</ele></trkpt>
      <trkpt lat="22.2398239095" lon="113.8697417775"><ele>192.000</ele></trkpt>
      <trkpt lat="22.2398322315" lon="113.8697199432"><ele>192.000</ele></trkpt>
      <trkpt lat="22.2398393567" lon="113.8696974704"><ele>193.000</ele></trkpt>
      <trkpt lat="22.2398452952" lon="113.8696788501"><ele>193.000</ele></trkpt>
      <trkpt lat="22.2398488467" lon="113.8696615175"><ele>193.000</ele></trkpt>
      <trkpt lat="22.2398523985" lon="113.8696448271"><ele>194.000</ele></trkpt>
      <trkpt lat="22.2398559415" lon="113.8696230042"><ele>190.000</ele></trkpt>
      <trkpt lat="22.2398582837" lon="113.8695979750"><ele>190.000</ele></trkpt>
      <trkpt lat="22.2398582389" lon="113.8695742344"><ele>190.000</ele></trkpt>
      <trkpt lat="22.2398593997" lon="113.8695562658"><ele>192.000</ele></trkpt>
      <trkpt lat="22.2398623533" lon="113.8695389345"><ele>192.000</ele></trkpt>
      <trkpt lat="22.2398671044" lon="113.8695241669"><ele>192.000</ele></trkpt>
      <trkpt lat="22.2398736569" lon="113.8695145279"><ele>192.000</ele></trkpt>
      <trkpt lat="22.2398814077" lon="113.8695068108"><ele>194.000</ele></trkpt>
      <trkpt lat="22.2398909586" lon="113.8695035821"><ele>194.000</ele></trkpt>
      <trkpt lat="22.2399023058" lon="113.8695022740"><ele>190.000</ele></trkpt>
      <trkpt lat="22.2399112659" lon="113.8695022544"><ele>190.000</ele></trkpt>
      <trkpt lat="22.2399232136" lon="113.8695028706"><ele>190.000</ele></trkpt>
      <trkpt lat="22.2399381560" lon="113.8695073292"><ele>190.000</ele></trkpt>
      <trkpt lat="22.2399542982" lon="113.8695149932"><ele>192.000</ele></trkpt>
      <trkpt lat="22.2399674600" lon="113.8695258726"><ele>192.000</ele></trkpt>
      <trkpt lat="22.2399794296" lon="113.8695380380"><ele>192.000</ele></trkpt>
      <trkpt lat="22.2399896148" lon="113.8695540563"><ele>195.000</ele></trkpt>
      <trkpt lat="22.2400022015" lon="113.8695764872"><ele>194.000</ele></trkpt>
      <trkpt lat="22.2400135951" lon="113.8696002031"><ele>194.000</ele></trkpt>
      <trkpt lat="22.2400279635" lon="113.8696168535"><ele>193.000</ele></trkpt>
      <trkpt lat="22.2400447220" lon="113.8696347831"><ele>196.000</ele></trkpt>
      <trkpt lat="22.2400614827" lon="113.8696533548"><ele>196.000</ele></trkpt>
      <trkpt lat="22.2400842110" lon="113.8696687047"><ele>197.000</ele></trkpt>
      <trkpt lat="22.2400997672" lon="113.8696821446"><ele>197.000</ele></trkpt>
      <trkpt lat="22.2401141335" lon="113.8696981549"><ele>197.000</ele></trkpt>
      <trkpt lat="22.2401308977" lon="113.8697186511"><ele>198.000</ele></trkpt>
      <trkpt lat="22.2401488595" lon="113.8697410694"><ele>198.000</ele></trkpt>
      <trkpt lat="22.2401668185" lon="113.8697615621"><ele>196.000</ele></trkpt>
      <trkpt lat="22.2401829809" lon="113.8697794930"><ele>199.000</ele></trkpt>
      <trkpt lat="22.2401961452" lon="113.8697916558"><ele>199.000</ele></trkpt>
      <trkpt lat="22.2402087129" lon="113.8698044611"><ele>196.000</ele></trkpt>
      <trkpt lat="22.2402224750" lon="113.8698166226"><ele>198.000</ele></trkpt>
      <trkpt lat="22.2402368340" lon="113.8698287828"><ele>198.000</ele></trkpt>
      <trkpt lat="22.2402565665" lon="113.8698396469"><ele>198.000</ele></trkpt>
      <trkpt lat="22.2402762953" lon="113.8698485875"><ele>200.000</ele></trkpt>
      <trkpt lat="22.2402948267" lon="113.8698556051"><ele>196.000</ele></trkpt>
      <trkpt lat="22.2403103687" lon="113.8698619881"><ele>196.000</ele></trkpt>
      <trkpt lat="22.2403265021" lon="113.8698645187"><ele>196.000</ele></trkpt>
      <trkpt lat="22.2403492016" lon="113.8698651114"><ele>196.000</ele></trkpt>
      <trkpt lat="22.2403677163" lon="113.8698637877"><ele>197.000</ele></trkpt>
      <trkpt lat="22.2403856317" lon="113.8698611820"><ele>197.000</ele></trkpt>
      <trkpt lat="22.2404077246" lon="113.8698566426"><ele>198.000</ele></trkpt>
      <trkpt lat="22.2404244452" lon="113.8698540394"><ele>198.000</ele></trkpt>
      <trkpt lat="22.2404423666" lon="113.8698546416"><ele>199.000</ele></trkpt>
      <trkpt lat="22.2404602929" lon="113.8698578114"><ele>199.000</ele></trkpt>
      <trkpt lat="22.2404788234" lon="113.8698648291"><ele>199.000</ele></trkpt>
      <trkpt lat="22.2404949701" lon="113.8698744187"><ele>200.000</ele></trkpt>
      <trkpt lat="22.2405099260" lon="113.8698865766"><ele>200.000</ele></trkpt>
      <trkpt lat="22.2405242875" lon="113.8699000202"><ele>198.000</ele></trkpt>
      <trkpt lat="22.2405404442" lon="113.8699153844"><ele>200.000</ele></trkpt>
      <trkpt lat="22.2405524207" lon="113.8699307578"><ele>200.000</ele></trkpt>
      <trkpt lat="22.2405691828" lon="113.8699506120"><ele>198.000</ele></trkpt>
      <trkpt lat="22.2405871382" lon="113.8699691812"><ele>200.000</ele></trkpt>
      <trkpt lat="22.2406068815" lon="113.8699858210"><ele>200.000</ele></trkpt>
      <trkpt lat="22.2406236337" lon="113.8699999006"><ele>200.000</ele></trkpt>
      <trkpt lat="22.2406397937" lon="113.8700165483"><ele>200.000</ele></trkpt>
      <trkpt lat="22.2406589417" lon="113.8700344718"><ele>200.000</ele></trkpt>
      <trkpt lat="22.2406822741" lon="113.8700536705"><ele>200.000</ele></trkpt>
      <trkpt lat="22.2407044045" lon="113.8700690218"><ele>200.000</ele></trkpt>
      <trkpt lat="22.2407259307" lon="113.8700805252"><ele>201.000</ele></trkpt>
      <trkpt lat="22.2407492414" lon="113.8700881737"><ele>201.000</ele></trkpt>
      <trkpt lat="22.2407701565" lon="113.8700926195"><ele>199.000</ele></trkpt>
      <trkpt lat="22.2407874789" lon="113.8700925818"><ele>199.000</ele></trkpt>
      <trkpt lat="22.2408089845" lon="113.8700931772"><ele>200.000</ele></trkpt>
      <trkpt lat="22.2408334754" lon="113.8700931239"><ele>200.000</ele></trkpt>
      <trkpt lat="22.2408651326" lon="113.8700924128"><ele>200.000</ele></trkpt>
      <trkpt lat="22.2408925990" lon="113.8700865783"><ele>200.000</ele></trkpt>
      <trkpt lat="22.2409182688" lon="113.8700781810"><ele>200.000</ele></trkpt>
      <trkpt lat="22.2409415407" lon="113.8700652976"><ele>200.000</ele></trkpt>
      <trkpt lat="22.2409624231" lon="113.8700524194"><ele>200.000</ele></trkpt>
      <trkpt lat="22.2409791111" lon="113.8700324923"><ele>200.000</ele></trkpt>
      <trkpt lat="22.2409969865" lon="113.8700087125"><ele>198.000</ele></trkpt>
      <trkpt lat="22.2410112813" lon="113.8699868650"><ele>200.000</ele></trkpt>
      <trkpt lat="22.2410207911" lon="113.8699618200"><ele>200.000</ele></trkpt>
      <trkpt lat="22.2410279099" lon="113.8699354969"><ele>200.000</ele></trkpt>
      <trkpt lat="22.2410338319" lon="113.8699085352"><ele>200.000</ele></trkpt>
      <trkpt lat="22.2410445170" lon="113.8698732216"><ele>202.000</ele></trkpt>
      <trkpt lat="22.2410587779" lon="113.8698334080"><ele>200.000</ele></trkpt>
      <trkpt lat="22.2410754149" lon="113.8697865321"><ele>197.000</ele></trkpt>
      <trkpt lat="22.2410920471" lon="113.8697370884"><ele>199.000</ele></trkpt>
      <trkpt lat="22.2411068791" lon="113.8696831574"><ele>199.000</ele></trkpt>
      <trkpt lat="22.2411211339" lon="113.8696401368"><ele>196.000</ele></trkpt>
      <trkpt lat="22.2411318117" lon="113.8696009731"><ele>198.000</ele></trkpt>
      <trkpt lat="22.2411383351" lon="113.8695759346"><ele>198.000</ele></trkpt>
      <trkpt lat="22.2411406870" lon="113.8695560387"><ele>199.000</ele></trkpt>
      <trkpt lat="22.2411472212" lon="113.8695367748"><ele>199.000</ele></trkpt>
      <trkpt lat="22.2411537664" lon="113.8695232856"><ele>199.000</ele></trkpt>
      <trkpt lat="22.2411615172" lon="113.8695155694"><ele>199.000</ele></trkpt>
      <trkpt lat="22.2411722617" lon="113.8695116959"><ele>199.000</ele></trkpt>
      <trkpt lat="22.2411854030" lon="113.8695116672"><ele>199.000</ele></trkpt>
      <trkpt lat="22.2412003368" lon="113.8695116346"><ele>199.000</ele></trkpt>
      <trkpt lat="22.2412218452" lon="113.8695141545"><ele>196.000</ele></trkpt>
      <trkpt lat="22.2412451498" lon="113.8695185950"><ele>196.000</ele></trkpt>
      <trkpt lat="22.2412702494" lon="113.8695243149"><ele>193.000</ele></trkpt>
      <trkpt lat="22.2412929573" lon="113.8695293989"><ele>193.000</ele></trkpt>
      <trkpt lat="22.2413180621" lon="113.8695383268"><ele>193.000</ele></trkpt>
      <trkpt lat="22.2413419694" lon="113.8695453327"><ele>193.000</ele></trkpt>
      <trkpt lat="22.2413569095" lon="113.8695491503"><ele>193.000</ele></trkpt>
      <trkpt lat="22.2413706547" lon="113.8695523283"><ele>193.000</ele></trkpt>
      <trkpt lat="22.2413843917" lon="113.8695516571"><ele>193.000</ele></trkpt>
      <trkpt lat="22.2413987264" lon="113.8695509837"><ele>193.000</ele></trkpt>
      <trkpt lat="22.2414130588" lon="113.8695490278"><ele>193.000</ele></trkpt>
      <trkpt lat="22.2414261949" lon="113.8695457912"><ele>193.000</ele></trkpt>
      <trkpt lat="22.2414387262" lon="113.8695393470"><ele>192.000</ele></trkpt>
      <trkpt lat="22.2414494695" lon="113.8695348323"><ele>192.000</ele></trkpt>
      <trkpt lat="22.2414626153" lon="113.8695367282"><ele>192.000</ele></trkpt>
      <trkpt lat="22.2414745630" lon="113.8695373443"><ele>192.000</ele></trkpt>
      <trkpt lat="22.2414990575" lon="113.8695392155"><ele>192.000</ele></trkpt>
      <trkpt lat="22.2415253436" lon="113.8695410827"><ele>192.000</ele></trkpt>
      <trkpt lat="22.2415498369" lon="113.8695423127"><ele>192.000</ele></trkpt>
      <trkpt lat="22.2415683553" lon="113.8695429145"><ele>192.000</ele></trkpt>
      <trkpt lat="22.2415844841" lon="113.8695435205"><ele>192.000</ele></trkpt>
      <trkpt lat="22.2416023983" lon="113.8695402735"><ele>192.000</ele></trkpt>
      <trkpt lat="22.2416149414" lon="113.8695396049"><ele>192.000</ele></trkpt>
      <trkpt lat="22.2416316633" lon="113.8695376429"><ele>192.000</ele></trkpt>
      <trkpt lat="22.2416448033" lon="113.8695369731"><ele>192.000</ele></trkpt>
      <trkpt lat="22.2416615348" lon="113.8695401445"><ele>193.000</ele></trkpt>
      <trkpt lat="22.2416758793" lon="113.8695446046"><ele>193.000</ele></trkpt>
      <trkpt lat="22.2416890315" lon="113.8695503506"><ele>193.000</ele></trkpt>
      <trkpt lat="22.2417027879" lon="113.8695599455"><ele>190.000</ele></trkpt>
      <trkpt lat="22.2417135575" lon="113.8695689056"><ele>191.000</ele></trkpt>
      <trkpt lat="22.2417249195" lon="113.8695759389"><ele>191.000</ele></trkpt>
      <trkpt lat="22.2417428555" lon="113.8695842413"><ele>191.000</ele></trkpt>
      <trkpt lat="22.2417625844" lon="113.8695931809"><ele>192.000</ele></trkpt>
      <trkpt lat="22.2417787238" lon="113.8695989205"><ele>192.000</ele></trkpt>
      <trkpt lat="22.2418038250" lon="113.8696059238"><ele>191.000</ele></trkpt>
      <trkpt lat="22.2418241459" lon="113.8696122964"><ele>191.000</ele></trkpt>
      <trkpt lat="22.2418468560" lon="113.8696180216"><ele>191.000</ele></trkpt>
      <trkpt lat="22.2418689658" lon="113.8696224647"><ele>191.000</ele></trkpt>
      <trkpt lat="22.2418970458" lon="113.8696249703"><ele>192.000</ele></trkpt>
      <trkpt lat="22.2419209448" lon="113.8696281271"><ele>192.000</ele></trkpt>
      <trkpt lat="22.2419454333" lon="113.8696267903"><ele>193.000</ele></trkpt>
      <trkpt lat="22.2419663399" lon="113.8696267448"><ele>193.000</ele></trkpt>
      <trkpt lat="22.2419836635" lon="113.8696273482"><ele>195.000</ele></trkpt>
      <trkpt lat="22.2419992003" lon="113.8696305223"><ele>195.000</ele></trkpt>
      <trkpt lat="22.2420219128" lon="113.8696375309"><ele>197.000</ele></trkpt>
      <trkpt lat="22.2420452210" lon="113.8696438970"><ele>197.000</ele></trkpt>
      <trkpt lat="22.2420703185" lon="113.8696489758"><ele>198.000</ele></trkpt>
      <trkpt lat="22.2420942188" lon="113.8696527729"><ele>192.000</ele></trkpt>
      <trkpt lat="22.2421217079" lon="113.8696584886"><ele>192.000</ele></trkpt>
      <trkpt lat="22.2421468029" lon="113.8696622831"><ele>192.000</ele></trkpt>
      <trkpt lat="22.2421784759" lon="113.8696699143"><ele>192.000</ele></trkpt>
      <trkpt lat="22.2422155292" lon="113.8696794584"><ele>196.000</ele></trkpt>
      <trkpt lat="22.2422442170" lon="113.8696877374"><ele>196.000</ele></trkpt>
      <trkpt lat="22.2422752942" lon="113.8696960112"><ele>196.000</ele></trkpt>
      <trkpt lat="22.2422950206" lon="113.8697036675"><ele>193.000</ele></trkpt>
      <trkpt lat="22.2423135547" lon="113.8697126108"><ele>193.000</ele></trkpt>
      <trkpt lat="22.2423320949" lon="113.8697247610"><ele>193.000</ele></trkpt>
      <trkpt lat="22.2423524288" lon="113.8697375505"><ele>195.000</ele></trkpt>
      <trkpt lat="22.2423727628" lon="113.8697503391"><ele>193.000</ele></trkpt>
      <trkpt lat="22.2423907076" lon="113.8697637741"><ele>198.000</ele></trkpt>
      <trkpt lat="22.2424074597" lon="113.8697778548"><ele>198.000</ele></trkpt>
      <trkpt lat="22.2424242118" lon="113.8697919345"><ele>198.000</ele></trkpt>
      <trkpt lat="22.2424397680" lon="113.8698053747"><ele>198.000</ele></trkpt>
      <trkpt lat="22.2424565201" lon="113.8698194544"><ele>198.000</ele></trkpt>
      <trkpt lat="22.2424720715" lon="113.8698303288"><ele>199.000</ele></trkpt>
      <trkpt lat="22.2424900123" lon="113.8698411980"><ele>199.000</ele></trkpt>
      <trkpt lat="22.2425061521" lon="113.8698475798"><ele>194.000</ele></trkpt>
      <trkpt lat="22.2425258664" lon="113.8698488192"><ele>197.000</ele></trkpt>
      <trkpt lat="22.2425467694" lon="113.8698468491"><ele>197.000</ele></trkpt>
      <trkpt lat="22.2425658783" lon="113.8698435995"><ele>199.000</ele></trkpt>
      <trkpt lat="22.2425843869" lon="113.8698390678"><ele>199.000</ele></trkpt>
      <trkpt lat="22.2426005299" lon="113.8698327758"><ele>199.000</ele></trkpt>
      <trkpt lat="22.2426052045" lon="113.8698305801"><ele>199.000</ele></trkpt>
      <trkpt lat="22.2426113010" lon="113.8698272162"><ele>198.000</ele></trkpt>
      <trkpt lat="22.2426180738" lon="113.8698223929"><ele>198.000</ele></trkpt>
      <trkpt lat="22.2426228118" lon="113.8698178669"><ele>198.000</ele></trkpt>
      <trkpt lat="22.2426248425" lon="113.8698158225"><ele>198.000</ele></trkpt>
      <trkpt lat="22.2426270109" lon="113.8698149437"><ele>198.000</ele></trkpt>
      <trkpt lat="22.2426295872" lon="113.8698144279"><ele>198.000</ele></trkpt>
      <trkpt lat="22.2426318926" lon="113.8698143501"><ele>198.000</ele></trkpt>
      <trkpt lat="22.2426340631" lon="113.8698145636"><ele>198.000</ele></trkpt>
      <trkpt lat="22.2426371161" lon="113.8698154320"><ele>198.000</ele></trkpt>
      <trkpt lat="22.2426410940" lon="113.8698177689"><ele>198.000</ele></trkpt>
      <trkpt lat="22.2426566344" lon="113.8698228686"><ele>195.000</ele></trkpt>
      <trkpt lat="22.2426745571" lon="113.8698241129"><ele>195.000</ele></trkpt>
      <trkpt lat="22.2426942714" lon="113.8698253533"><ele>195.000</ele></trkpt>
      <trkpt lat="22.2427139833" lon="113.8698253104"><ele>193.000</ele></trkpt>
      <trkpt lat="22.2427378687" lon="113.8698207670"><ele>193.000</ele></trkpt>
      <trkpt lat="22.2427611481" lon="113.8698123747"><ele>190.000</ele></trkpt>
      <trkpt lat="22.2427850239" lon="113.8698026978"><ele>190.000</ele></trkpt>
      <trkpt lat="22.2428106877" lon="113.8697910923"><ele>190.000</ele></trkpt>
      <trkpt lat="22.2428429151" lon="113.8697762637"><ele>190.000</ele></trkpt>
      <trkpt lat="22.2428614162" lon="113.8697672406"><ele>190.000</ele></trkpt>
      <trkpt lat="22.2428828955" lon="113.8697543599"><ele>188.000</ele></trkpt>
      <trkpt lat="22.2429073524" lon="113.8697363411"><ele>190.000</ele></trkpt>
      <trkpt lat="22.2429234546" lon="113.8697228309"><ele>190.000</ele></trkpt>
      <trkpt lat="22.2429377688" lon="113.8697112502"><ele>190.000</ele></trkpt>
      <trkpt lat="22.2429556660" lon="113.8696990195"><ele>190.000</ele></trkpt>
      <trkpt lat="22.2429753524" lon="113.8696855015"><ele>190.000</ele></trkpt>
      <trkpt lat="22.2430010040" lon="113.8696674791"><ele>190.000</ele></trkpt>
      <trkpt lat="22.2430165130" lon="113.8696558958"><ele>188.000</ele></trkpt>
      <trkpt lat="22.2430344089" lon="113.8696430238"><ele>187.000</ele></trkpt>
      <trkpt lat="22.2430499178" lon="113.8696314405"><ele>187.000</ele></trkpt>
      <trkpt lat="22.2430600569" lon="113.8696230768"><ele>186.000</ele></trkpt>
      <trkpt lat="22.2430725858" lon="113.8696153492"><ele>186.000</ele></trkpt>
      <trkpt lat="22.2430863152" lon="113.8696101857"><ele>186.000</ele></trkpt>
      <trkpt lat="22.2430982556" lon="113.8696069516"><ele>186.000</ele></trkpt>
      <trkpt lat="22.2431119959" lon="113.8696075639"><ele>185.000</ele></trkpt>
      <trkpt lat="22.2431269252" lon="113.8696056057"><ele>185.000</ele></trkpt>
      <trkpt lat="22.2431478233" lon="113.8696010688"><ele>185.000</ele></trkpt>
      <trkpt lat="22.2431687178" lon="113.8695946063"><ele>182.000</ele></trkpt>
      <trkpt lat="22.2431824484" lon="113.8695900850"><ele>182.000</ele></trkpt>
      <trkpt lat="22.2431967735" lon="113.8695842790"><ele>182.000</ele></trkpt>
      <trkpt lat="22.2432128902" lon="113.8695784690"><ele>182.000</ele></trkpt>
      <trkpt lat="22.2432290079" lon="113.8695726591"><ele>182.000</ele></trkpt>
      <trkpt lat="22.2432528766" lon="113.8695597741"><ele>183.000</ele></trkpt>
      <trkpt lat="22.2432737651" lon="113.8695501036"><ele>182.000</ele></trkpt>
      <trkpt lat="22.2432952465" lon="113.8695378650"><ele>182.000</ele></trkpt>
      <trkpt lat="22.2433203136" lon="113.8695269020"><ele>182.000</ele></trkpt>
      <trkpt lat="22.2433411972" lon="113.8695146647"><ele>182.000</ele></trkpt>
      <trkpt lat="22.2433704440" lon="113.8695024102"><ele>180.000</ele></trkpt>
      <trkpt lat="22.2434020732" lon="113.8694869414"><ele>178.000</ele></trkpt>
      <trkpt lat="22.2434319121" lon="113.8694721178"><ele>178.000</ele></trkpt>
      <trkpt lat="22.2434575722" lon="113.8694585867"><ele>178.000</ele></trkpt>
      <trkpt lat="22.2434683130" lon="113.8694527885"><ele>178.000</ele></trkpt>
      <trkpt lat="22.2434754706" lon="113.8694469981"><ele>178.000</ele></trkpt>
      <trkpt lat="22.2434855893" lon="113.8694283683"><ele>178.000</ele></trkpt>
      <trkpt lat="22.2434992884" lon="113.8694071638"><ele>178.000</ele></trkpt>
      <trkpt lat="22.2435129862" lon="113.8693853172"><ele>178.000</ele></trkpt>
      <trkpt lat="22.2435254908" lon="113.8693647566"><ele>178.000</ele></trkpt>
      <trkpt lat="22.2435380023" lon="113.8693474050"><ele>178.000</ele></trkpt>
      <trkpt lat="22.2435505139" lon="113.8693300533"><ele>178.000</ele></trkpt>
      <trkpt lat="22.2435678035" lon="113.8693126902"><ele>176.000</ele></trkpt>
      <trkpt lat="22.2435845072" lon="113.8693011042"><ele>176.000</ele></trkpt>
      <trkpt lat="22.2436024031" lon="113.8692882322"><ele>176.000</ele></trkpt>
      <trkpt lat="22.2436209081" lon="113.8692817748"><ele>176.000</ele></trkpt>
      <trkpt lat="22.2436424068" lon="113.8692791611"><ele>176.000</ele></trkpt>
      <trkpt lat="22.2436645106" lon="113.8692803962"><ele>176.000</ele></trkpt>
      <trkpt lat="22.2436884109" lon="113.8692841942"><ele>176.000</ele></trkpt>
      <trkpt lat="22.2437176928" lon="113.8692905463"><ele>176.000</ele></trkpt>
      <trkpt lat="22.2437445841" lon="113.8692962634"><ele>176.000</ele></trkpt>
      <trkpt lat="22.2437732682" lon="113.8693026168"><ele>176.000</ele></trkpt>
      <trkpt lat="22.2438061335" lon="113.8693089620"><ele>175.000</ele></trkpt>
      <trkpt lat="22.2438342182" lon="113.8693140334"><ele>176.000</ele></trkpt>
      <trkpt lat="22.2438676789" lon="113.8693190939"><ele>176.000</ele></trkpt>
      <trkpt lat="22.2438927751" lon="113.8693235306"><ele>176.000</ele></trkpt>
      <trkpt lat="22.2439238451" lon="113.8693279551"><ele>177.000</ele></trkpt>
      <trkpt lat="22.2439662698" lon="113.8693355619"><ele>177.000</ele></trkpt>
      <trkpt lat="22.2440009252" lon="113.8693406199"><ele>177.000</ele></trkpt>
      <trkpt lat="22.2440272126" lon="113.8693431293"><ele>176.000</ele></trkpt>
      <trkpt lat="22.2440624649" lon="113.8693481850"><ele>176.000</ele></trkpt>
      <trkpt lat="22.2440965234" lon="113.8693532443"><ele>176.000</ele></trkpt>
      <trkpt lat="22.2441287942" lon="113.8693608743"><ele>176.000</ele></trkpt>
      <trkpt lat="22.2441616655" lon="113.8693704266"><ele>176.000</ele></trkpt>
      <trkpt lat="22.2441957303" lon="113.8693793360"><ele>176.000</ele></trkpt>
      <trkpt lat="22.2442286004" lon="113.8693882471"><ele>176.000</ele></trkpt>
      <trkpt lat="22.2442596813" lon="113.8693984465"><ele>178.000</ele></trkpt>
      <trkpt lat="22.2442937559" lon="113.8694124886"><ele>177.000</ele></trkpt>
      <trkpt lat="22.2443266354" lon="113.8694258911"><ele>177.000</ele></trkpt>
      <trkpt lat="22.2443595176" lon="113.8694412192"><ele>177.000</ele></trkpt>
      <trkpt lat="22.2443959890" lon="113.8694591063"><ele>174.000</ele></trkpt>
      <trkpt lat="22.2444288748" lon="113.8694763600"><ele>172.000</ele></trkpt>
      <trkpt lat="22.2444629530" lon="113.8694923267"><ele>172.000</ele></trkpt>
      <trkpt lat="22.2444898625" lon="113.8695076679"><ele>172.000</ele></trkpt>
      <trkpt lat="22.2445185636" lon="113.8695230051"><ele>175.000</ele></trkpt>
      <trkpt lat="22.2445442698" lon="113.8695338575"><ele>175.000</ele></trkpt>
      <trkpt lat="22.2445735581" lon="113.8695440599"><ele>176.000</ele></trkpt>
      <trkpt lat="22.2446040372" lon="113.8695516938"><ele>176.000</ele></trkpt>
      <trkpt lat="22.2446279362" lon="113.8695548497"><ele>176.000</ele></trkpt>
      <trkpt lat="22.2446596016" lon="113.8695579887"><ele>176.000</ele></trkpt>
      <trkpt lat="22.2446870776" lon="113.8695572875"><ele>176.000</ele></trkpt>
      <trkpt lat="22.2447139519" lon="113.8695540209"><ele>176.000</ele></trkpt>
      <trkpt lat="22.2447438056" lon="113.8695475387"><ele>176.000</ele></trkpt>
      <trkpt lat="22.2447658981" lon="113.8695423579"><ele>176.000</ele></trkpt>
      <trkpt lat="22.2447879849" lon="113.8695346093"><ele>176.000</ele></trkpt>
      <trkpt lat="22.2448160348" lon="113.8695217150"><ele>176.000</ele></trkpt>
      <trkpt lat="22.2448410947" lon="113.8695069017"><ele>176.000</ele></trkpt>
      <trkpt lat="22.2448655540" lon="113.8694901650"><ele>176.000</ele></trkpt>
      <trkpt lat="22.2448935902" lon="113.8694695713"><ele>176.000</ele></trkpt>
      <trkpt lat="22.2449210250" lon="113.8694470523"><ele>176.000</ele></trkpt>
      <trkpt lat="22.2449550207" lon="113.8694193874"><ele>174.000</ele></trkpt>
      <trkpt lat="22.2449866315" lon="113.8693936512"><ele>174.000</ele></trkpt>
      <trkpt lat="22.2450212168" lon="113.8693621347"><ele>172.000</ele></trkpt>
      <trkpt lat="22.2450480558" lon="113.8693402592"><ele>172.000</ele></trkpt>
      <trkpt lat="22.2450802550" lon="113.8693100312"><ele>172.000</ele></trkpt>
      <trkpt lat="22.2451070847" lon="113.8692836633"><ele>172.000</ele></trkpt>
      <trkpt lat="22.2451285442" lon="113.8692598758"><ele>172.000</ele></trkpt>
      <trkpt lat="22.2451494083" lon="113.8692373721"><ele>172.000</ele></trkpt>
      <trkpt lat="22.2451732564" lon="113.8692135784"><ele>172.000</ele></trkpt>
      <trkpt lat="22.2451929331" lon="113.8691949265"><ele>174.000</ele></trkpt>
      <trkpt lat="22.2452108241" lon="113.8691794875"><ele>174.000</ele></trkpt>
      <trkpt lat="22.2452418370" lon="113.8691537535"><ele>174.000</ele></trkpt>
      <trkpt lat="22.2452740361" lon="113.8691235246"><ele>172.000</ele></trkpt>
      <trkpt lat="22.2453133955" lon="113.8690894306"><ele>174.000</ele></trkpt>
      <trkpt lat="22.2453515659" lon="113.8690579052"><ele>174.000</ele></trkpt>
      <trkpt lat="22.2453748219" lon="113.8690366796"><ele>172.000</ele></trkpt>
      <trkpt lat="22.2453927069" lon="113.8690180325"><ele>172.000</ele></trkpt>
      <trkpt lat="22.2454058168" lon="113.8690019617"><ele>172.000</ele></trkpt>
      <trkpt lat="22.2454177315" lon="113.8689846111"><ele>172.000</ele></trkpt>
      <trkpt lat="22.2454278571" lon="113.8689691890"><ele>172.000</ele></trkpt>
      <trkpt lat="22.2454361890" lon="113.8689531286"><ele>172.000</ele></trkpt>
      <trkpt lat="22.2454439192" lon="113.8689345037"><ele>172.000</ele></trkpt>
      <trkpt lat="22.2454504485" lon="113.8689126734"><ele>172.000</ele></trkpt>
      <trkpt lat="22.2454557867" lon="113.8688927693"><ele>172.000</ele></trkpt>
      <trkpt lat="22.2454593308" lon="113.8688715868"><ele>172.000</ele></trkpt>
      <trkpt lat="22.2454610884" lon="113.8688536161"><ele>170.000</ele></trkpt>
      <trkpt lat="22.2454646252" lon="113.8688285833"><ele>170.000</ele></trkpt>
      <trkpt lat="22.2454675712" lon="113.8688067609"><ele>170.000</ele></trkpt>
      <trkpt lat="22.2454717134" lon="113.8687862182"><ele>170.000</ele></trkpt>
      <trkpt lat="22.2454746609" lon="113.8687656781"><ele>170.000</ele></trkpt>
      <trkpt lat="22.2454770139" lon="113.8687464228"><ele>170.000</ele></trkpt>
      <trkpt lat="22.2454781722" lon="113.8687271710"><ele>170.000</ele></trkpt>
      <trkpt lat="22.2454781369" lon="113.8687085621"><ele>168.000</ele></trkpt>
      <trkpt lat="22.2454787071" lon="113.8686944443"><ele>168.000</ele></trkpt>
      <trkpt lat="22.2454828675" lon="113.8686835267"><ele>168.000</ele></trkpt>
      <trkpt lat="22.2454923926" lon="113.8686661813"><ele>166.000</ele></trkpt>
      <trkpt lat="22.2455025125" lon="113.8686481923"><ele>165.000</ele></trkpt>
      <trkpt lat="22.2455132287" lon="113.8686289187"><ele>165.000</ele></trkpt>
      <trkpt lat="22.2455215593" lon="113.8686122171"><ele>164.000</ele></trkpt>
      <trkpt lat="22.2455263067" lon="113.8685955233"><ele>164.000</ele></trkpt>
      <trkpt lat="22.2455280606" lon="113.8685756281"><ele>164.000</ele></trkpt>
      <trkpt lat="22.2455304112" lon="113.8685550893"><ele>164.000</ele></trkpt>
      <trkpt lat="22.2455321636" lon="113.8685339106"><ele>164.000</ele></trkpt>
      <trkpt lat="22.2455339200" lon="113.8685152988"><ele>162.000</ele></trkpt>
      <trkpt lat="22.2455386575" lon="113.8684934714"><ele>162.000</ele></trkpt>
      <trkpt lat="22.2455434040" lon="113.8684767776"><ele>158.000</ele></trkpt>
      <trkpt lat="22.2455493436" lon="113.8684587988"><ele>158.000</ele></trkpt>
      <trkpt lat="22.2455564831" lon="113.8684440244"><ele>158.000</ele></trkpt>
      <trkpt lat="22.2455660131" lon="113.8684292448"><ele>158.000</ele></trkpt>
      <trkpt lat="22.2455755372" lon="113.8684118993"><ele>158.000</ele></trkpt>
      <trkpt lat="22.2455784944" lon="113.8683964929"><ele>158.000</ele></trkpt>
      <trkpt lat="22.2455814501" lon="113.8683798030"><ele>156.000</ele></trkpt>
      <trkpt lat="22.2455885835" lon="113.8683618206"><ele>153.000</ele></trkpt>
      <trkpt lat="22.2455986982" lon="113.8683406236"><ele>153.000</ele></trkpt>
      <trkpt lat="22.2456088141" lon="113.8683200678"><ele>152.000</ele></trkpt>
      <trkpt lat="22.2456129635" lon="113.8683033753"><ele>152.000</ele></trkpt>
      <trkpt lat="22.2456218920" lon="113.8682866724"><ele>152.000</ele></trkpt>
      <trkpt lat="22.2456355848" lon="113.8682622595"><ele>148.000</ele></trkpt>
      <trkpt lat="22.2456564293" lon="113.8682294882"><ele>148.000</ele></trkpt>
      <trkpt lat="22.2456719113" lon="113.8682037880"><ele>148.000</ele></trkpt>
      <trkpt lat="22.2456832137" lon="113.8681793803"><ele>145.000</ele></trkpt>
      <trkpt lat="22.2456915354" lon="113.8681575451"><ele>145.000</ele></trkpt>
      <trkpt lat="22.2457028497" lon="113.8681389122"><ele>145.000</ele></trkpt>
      <trkpt lat="22.2457153468" lon="113.8681145010"><ele>145.000</ele></trkpt>
      <trkpt lat="22.2457308337" lon="113.8680913675"><ele>142.000</ele></trkpt>
      <trkpt lat="22.2457433426" lon="113.8680727311"><ele>142.000</ele></trkpt>
      <trkpt lat="22.2457600279" lon="113.8680515197"><ele>142.000</ele></trkpt>
      <trkpt lat="22.2457773003" lon="113.8680251733"><ele>139.000</ele></trkpt>
      <trkpt lat="22.2457927823" lon="113.8679994730"><ele>139.000</ele></trkpt>
      <trkpt lat="22.2458094590" lon="113.8679737691"><ele>141.000</ele></trkpt>
      <trkpt lat="22.2458273304" lon="113.8679480636"><ele>136.000</ele></trkpt>
      <trkpt lat="22.2458386425" lon="113.8679287885"><ele>136.000</ele></trkpt>
      <trkpt lat="22.2458505448" lon="113.8679050207"><ele>136.000</ele></trkpt>
      <trkpt lat="22.2458582675" lon="113.8678825455"><ele>134.000</ele></trkpt>
      <trkpt lat="22.2458671816" lon="113.8678587842"><ele>134.000</ele></trkpt>
      <trkpt lat="22.2458737083" lon="113.8678356704"><ele>134.000</ele></trkpt>
      <trkpt lat="22.2458772535" lon="113.8678151289"><ele>134.000</ele></trkpt>
      <trkpt lat="22.2458802067" lon="113.8677971556"><ele>133.000</ele></trkpt>
      <trkpt lat="22.2458825574" lon="113.8677772590"><ele>133.000</ele></trkpt>
      <trkpt lat="22.2458884836" lon="113.8677522208"><ele>133.000</ele></trkpt>
      <trkpt lat="22.2458955877" lon="113.8677188384"><ele>132.000</ele></trkpt>
      <trkpt lat="22.2459014991" lon="113.8676861008"><ele>127.000</ele></trkpt>
      <trkpt lat="22.2459074265" lon="113.8676617039"><ele>127.000</ele></trkpt>
      <trkpt lat="22.2459115698" lon="113.8676418033"><ele>128.000</ele></trkpt>
      <trkpt lat="22.2459181026" lon="113.8676218975"><ele>128.000</ele></trkpt>
      <trkpt lat="22.2459246378" lon="113.8676032741"><ele>128.000</ele></trkpt>
      <trkpt lat="22.2459335637" lon="113.8675852876"><ele>128.000</ele></trkpt>
      <trkpt lat="22.2459448742" lon="113.8675647301"><ele>125.000</ele></trkpt>
      <trkpt lat="22.2459621551" lon="113.8675428751"><ele>126.000</ele></trkpt>
      <trkpt lat="22.2459776541" lon="113.8675261576"><ele>126.000</ele></trkpt>
      <trkpt lat="22.2459967300" lon="113.8675055820"><ele>124.000</ele></trkpt>
      <trkpt lat="22.2460158098" lon="113.8674875743"><ele>124.000</ele></trkpt>
      <trkpt lat="22.2460289206" lon="113.8674715033"><ele>124.000</ele></trkpt>
      <trkpt lat="22.2460414295" lon="113.8674528677"><ele>120.000</ele></trkpt>
      <trkpt lat="22.2460497573" lon="113.8674342404"><ele>120.000</ele></trkpt>
      <trkpt lat="22.2460568930" lon="113.8674175413"><ele>120.000</ele></trkpt>
      <trkpt lat="22.2460658092" lon="113.8673944221"><ele>122.000</ele></trkpt>
      <trkpt lat="22.2460723407" lon="113.8673738741"><ele>122.000</ele></trkpt>
      <trkpt lat="22.2460794652" lon="113.8673507589"><ele>120.000</ele></trkpt>
      <trkpt lat="22.2460842054" lon="113.8673308560"><ele>120.000</ele></trkpt>
      <trkpt lat="22.2460889501" lon="113.8673128797"><ele>120.000</ele></trkpt>
      <trkpt lat="22.2460907076" lon="113.8672949089"><ele>120.000</ele></trkpt>
      <trkpt lat="22.2460942503" lon="113.8672730840"><ele>120.000</ele></trkpt>
      <trkpt lat="22.2461007867" lon="113.8672551028"><ele>120.000</ele></trkpt>
      <trkpt lat="22.2461079261" lon="113.8672403293"><ele>120.000</ele></trkpt>
      <trkpt lat="22.2461144732" lon="113.8672274807"><ele>120.000</ele></trkpt>
      <trkpt lat="22.2461198173" lon="113.8672107855"><ele>118.000</ele></trkpt>
      <trkpt lat="22.2461245611" lon="113.8671928092"><ele>115.000</ele></trkpt>
      <trkpt lat="22.2461322947" lon="113.8671761087"><ele>115.000</ele></trkpt>
      <trkpt lat="22.2461418245" lon="113.8671613290"><ele>115.000</ele></trkpt>
      <trkpt lat="22.2461513534" lon="113.8671465492"><ele>115.000</ele></trkpt>
      <trkpt lat="22.2461608872" lon="113.8671343372"><ele>115.000</ele></trkpt>
      <trkpt lat="22.2461704293" lon="113.8671259745"><ele>112.000</ele></trkpt>
      <trkpt lat="22.2461823636" lon="113.8671195312"><ele>112.000</ele></trkpt>
      <trkpt lat="22.2461925062" lon="113.8671130928"><ele>112.000</ele></trkpt>
      <trkpt lat="22.2462026464" lon="113.8671053700"><ele>112.000</ele></trkpt>
      <trkpt lat="22.2462175572" lon="113.8670937874"><ele>110.000</ele></trkpt>
      <trkpt lat="22.2462348589" lon="113.8670828408"><ele>110.000</ele></trkpt>
      <trkpt lat="22.2462503712" lon="113.8670731816"><ele>110.000</ele></trkpt>
      <trkpt lat="22.2462658836" lon="113.8670635223"><ele>108.000</ele></trkpt>
      <trkpt lat="22.2462831800" lon="113.8670493676"><ele>108.000</ele></trkpt>
      <trkpt lat="22.2462986802" lon="113.8670332923"><ele>108.000</ele></trkpt>
      <trkpt lat="22.2463117908" lon="113.8670172212"><ele>106.000</ele></trkpt>
      <trkpt lat="22.2463213185" lon="113.8670018002"><ele>106.000</ele></trkpt>
      <trkpt lat="22.2463344267" lon="113.8669844466"><ele>106.000</ele></trkpt>
      <trkpt lat="22.2463481291" lon="113.8669651662"><ele>106.000</ele></trkpt>
      <trkpt lat="22.2463606358" lon="113.8669458884"><ele>104.000</ele></trkpt>
      <trkpt lat="22.2463737330" lon="113.8669227590"><ele>102.000</ele></trkpt>
      <trkpt lat="22.2463838573" lon="113.8669066954"><ele>102.000</ele></trkpt>
      <trkpt lat="22.2463927832" lon="113.8668887089"><ele>102.000</ele></trkpt>
      <trkpt lat="22.2463993244" lon="113.8668732944"><ele>98.000</ele></trkpt>
      <trkpt lat="22.2464040728" lon="113.8668572427"><ele>98.000</ele></trkpt>
      <trkpt lat="22.2464082258" lon="113.8668424747"><ele>98.000</ele></trkpt>
      <trkpt lat="22.2464165621" lon="113.8668283397"><ele>99.000</ele></trkpt>
      <trkpt lat="22.2464254977" lon="113.8668154868"><ele>99.000</ele></trkpt>
      <trkpt lat="22.2464368133" lon="113.8667981362"><ele>99.000</ele></trkpt>
      <trkpt lat="22.2464493222" lon="113.8667795006"><ele>98.000</ele></trkpt>
      <trkpt lat="22.2464642159" lon="113.8667589340"><ele>98.000</ele></trkpt>
      <trkpt lat="22.2464761315" lon="113.8667422243"><ele>98.000</ele></trkpt>
      <trkpt lat="22.2464880437" lon="113.8667242312"><ele>96.000</ele></trkpt>
      <trkpt lat="22.2464987637" lon="113.8667075251"><ele>96.000</ele></trkpt>
      <trkpt lat="22.2465106698" lon="113.8666863229"><ele>96.000</ele></trkpt>
      <trkpt lat="22.2465231725" lon="113.8666644782"><ele>95.000</ele></trkpt>
      <trkpt lat="22.2465350712" lon="113.8666394277"><ele>94.000</ele></trkpt>
      <trkpt lat="22.2465505517" lon="113.8666130850"><ele>92.000</ele></trkpt>
      <trkpt lat="22.2465588843" lon="113.8665970243"><ele>92.000</ele></trkpt>
      <trkpt lat="22.2465666386" lon="113.8665912324"><ele>92.000</ele></trkpt>
      <trkpt lat="22.2465743970" lon="113.8665880072"><ele>92.000</ele></trkpt>
      <trkpt lat="22.2465827626" lon="113.8665892722"><ele>91.000</ele></trkpt>
      <trkpt lat="22.2465929224" lon="113.8665918167"><ele>91.000</ele></trkpt>
      <trkpt lat="22.2466018910" lon="113.8665962884"><ele>91.000</ele></trkpt>
      <trkpt lat="22.2466180444" lon="113.8666097283"><ele>91.000</ele></trkpt>
      <trkpt lat="22.2466383871" lon="113.8666270082"><ele>90.000</ele></trkpt>
      <trkpt lat="22.2466575330" lon="113.8666436496"><ele>92.000</ele></trkpt>
      <trkpt lat="22.2466659084" lon="113.8666500482"><ele>89.000</ele></trkpt>
      <trkpt lat="22.2466730809" lon="113.8666525983"><ele>89.000</ele></trkpt>
      <trkpt lat="22.2466808462" lon="113.8666525812"><ele>89.000</ele></trkpt>
      <trkpt lat="22.2466892073" lon="113.8666519216"><ele>89.000</ele></trkpt>
      <trkpt lat="22.2466975607" lon="113.8666467695"><ele>89.000</ele></trkpt>
      <trkpt lat="22.2467005177" lon="113.8666313629"><ele>88.000</ele></trkpt>
      <trkpt lat="22.2466998865" lon="113.8666133973"><ele>88.000</ele></trkpt>
      <trkpt lat="22.2467004271" lon="113.8665838794"><ele>86.000</ele></trkpt>
      <trkpt lat="22.2467027749" lon="113.8665620580"><ele>86.000</ele></trkpt>
      <trkpt lat="22.2467045344" lon="113.8665447284"><ele>86.000</ele></trkpt>
      <trkpt lat="22.2467104766" lon="113.8665286740"><ele>82.000</ele></trkpt>
      <trkpt lat="22.2467169995" lon="113.8665036343"><ele>82.000</ele></trkpt>
      <trkpt lat="22.2467205445" lon="113.8664830927"><ele>82.000</ele></trkpt>
      <trkpt lat="22.2467246901" lon="113.8664644754"><ele>82.000</ele></trkpt>
      <trkpt lat="22.2467324065" lon="113.8664387909"><ele>81.000</ele></trkpt>
      <trkpt lat="22.2467407292" lon="113.8664175976"><ele>81.000</ele></trkpt>
      <trkpt lat="22.2467556168" lon="113.8663938229"><ele>80.000</ele></trkpt>
      <trkpt lat="22.2467681231" lon="113.8663739038"><ele>78.000</ele></trkpt>
      <trkpt lat="22.2467830082" lon="113.8663488456"><ele>78.000</ele></trkpt>
      <trkpt lat="22.2467996797" lon="113.8663205755"><ele>78.000</ele></trkpt>
      <trkpt lat="22.2468091997" lon="113.8663006629"><ele>76.000</ele></trkpt>
      <trkpt lat="22.2468163378" lon="113.8662852471"><ele>76.000</ele></trkpt>
      <trkpt lat="22.2468264375" lon="113.8662563493"><ele>76.000</ele></trkpt>
      <trkpt lat="22.2468335621" lon="113.8662338751"><ele>73.000</ele></trkpt>
      <trkpt lat="22.2468418713" lon="113.8662056234"><ele>73.000</ele></trkpt>
      <trkpt lat="22.2468466147" lon="113.8661870038"><ele>70.000</ele></trkpt>
      <trkpt lat="22.2468495705" lon="113.8661709559"><ele>70.000</ele></trkpt>
      <trkpt lat="22.2468507383" lon="113.8661568367"><ele>70.000</ele></trkpt>
      <trkpt lat="22.2468495153" lon="113.8661420805"><ele>69.000</ele></trkpt>
      <trkpt lat="22.2468465019" lon="113.8661279704"><ele>69.000</ele></trkpt>
      <trkpt lat="22.2468422892" lon="113.8661119374"><ele>70.000</ele></trkpt>
      <trkpt lat="22.2468362710" lon="113.8660882088"><ele>72.000</ele></trkpt>
      <trkpt lat="22.2468332433" lon="113.8660670405"><ele>72.000</ele></trkpt>
      <trkpt lat="22.2468278171" lon="113.8660407437"><ele>72.000</ele></trkpt>
      <trkpt lat="22.2468230022" lon="113.8660215049"><ele>72.000</ele></trkpt>
      <trkpt lat="22.2468163899" lon="113.8659997023"><ele>70.000</ele></trkpt>
      <trkpt lat="22.2468061725" lon="113.8659670000"><ele>70.000</ele></trkpt>
      <trkpt lat="22.2468001558" lon="113.8659445538"><ele>67.000</ele></trkpt>
      <trkpt lat="22.2467959428" lon="113.8659278796"><ele>70.000</ele></trkpt>
      <trkpt lat="22.2467941253" lon="113.8659144091"><ele>70.000</ele></trkpt>
      <trkpt lat="22.2467964783" lon="113.8658957957"><ele>68.000</ele></trkpt>
      <trkpt lat="22.2468012156" lon="113.8658739680"><ele>66.000</ele></trkpt>
      <trkpt lat="22.2468077383" lon="113.8658489284"><ele>66.000</ele></trkpt>
      <trkpt lat="22.2468160573" lon="113.8658258093"><ele>66.000</ele></trkpt>
      <trkpt lat="22.2468291482" lon="113.8657994727"><ele>64.000</ele></trkpt>
      <trkpt lat="22.2468440357" lon="113.8657756979"><ele>63.000</ele></trkpt>
      <trkpt lat="22.2468589314" lon="113.8657557725"><ele>62.000</ele></trkpt>
      <trkpt lat="22.2468797840" lon="113.8657274930"><ele>62.000</ele></trkpt>
      <trkpt lat="22.2468958760" lon="113.8657088493"><ele>60.000</ele></trkpt>
      <trkpt lat="22.2469066057" lon="113.8656972748"><ele>60.000</ele></trkpt>
      <trkpt lat="22.2469185383" lon="113.8656895489"><ele>60.000</ele></trkpt>
      <trkpt lat="22.2469364405" lon="113.8656805263"><ele>59.000</ele></trkpt>
      <trkpt lat="22.2469597120" lon="113.8656676407"><ele>59.000</ele></trkpt>
      <trkpt lat="22.2469740332" lon="113.8656599095"><ele>58.000</ele></trkpt>
      <trkpt lat="22.2469859647" lon="113.8656515413"><ele>56.000</ele></trkpt>
      <trkpt lat="22.2469990826" lon="113.8656393203"><ele>56.000</ele></trkpt>
      <trkpt lat="22.2470074215" lon="113.8656271098"><ele>56.000</ele></trkpt>
      <trkpt lat="22.2470199326" lon="113.8656097574"><ele>56.000</ele></trkpt>
      <trkpt lat="22.2470318509" lon="113.8655949722"><ele>53.000</ele></trkpt>
      <trkpt lat="22.2470461611" lon="113.8655814660"><ele>53.000</ele></trkpt>
      <trkpt lat="22.2470586845" lon="113.8655705297"><ele>53.000</ele></trkpt>
      <trkpt lat="22.2470777727" lon="113.8655570121"><ele>52.000</ele></trkpt>
      <trkpt lat="22.2470896968" lon="113.8655447947"><ele>52.000</ele></trkpt>
      <trkpt lat="22.2471004277" lon="113.8655338623"><ele>52.000</ele></trkpt>
      <trkpt lat="22.2471153225" lon="113.8655139368"><ele>49.000</ele></trkpt>
      <trkpt lat="22.2471290259" lon="113.8654952983"><ele>49.000</ele></trkpt>
      <trkpt lat="22.2471409478" lon="113.8654824386"><ele>49.000</ele></trkpt>
      <trkpt lat="22.2471522814" lon="113.8654740718"><ele>49.000</ele></trkpt>
      <trkpt lat="22.2471642169" lon="113.8654682705"><ele>46.000</ele></trkpt>
      <trkpt lat="22.2471749502" lon="113.8654586215"><ele>46.000</ele></trkpt>
      <trkpt lat="22.2471797095" lon="113.8654483446"><ele>46.000</ele></trkpt>
      <trkpt lat="22.2471844663" lon="113.8654367832"><ele>46.000</ele></trkpt>
      <trkpt lat="22.2471880288" lon="113.8654258667"><ele>46.000</ele></trkpt>
      <trkpt lat="22.2471951800" lon="113.8654168679"><ele>46.000</ele></trkpt>
      <trkpt lat="22.2472041192" lon="113.8654059395"><ele>46.000</ele></trkpt>
      <trkpt lat="22.2472094840" lon="113.8654001527"><ele>44.000</ele></trkpt>
      <trkpt lat="22.2472166466" lon="113.8653975700"><ele>44.000</ele></trkpt>
      <trkpt lat="22.2472244120" lon="113.8653975528"><ele>44.000</ele></trkpt>
      <trkpt lat="22.2472351659" lon="113.8653981712"><ele>44.000</ele></trkpt>
      <trkpt lat="22.2472441297" lon="113.8654000761"><ele>44.000</ele></trkpt>
      <trkpt lat="22.2472542836" lon="113.8654000536"><ele>42.000</ele></trkpt>
      <trkpt lat="22.2472638391" lon="113.8653987491"><ele>42.000</ele></trkpt>
      <trkpt lat="22.2472727918" lon="113.8653948790"><ele>42.000</ele></trkpt>
      <trkpt lat="22.2472841159" lon="113.8653820207"><ele>42.000</ele></trkpt>
      <trkpt lat="22.2472930453" lon="113.8653659595"><ele>40.000</ele></trkpt>
      <trkpt lat="22.2473031608" lon="113.8653454033"><ele>39.000</ele></trkpt>
      <trkpt lat="22.2473114809" lon="113.8653229264"><ele>39.000</ele></trkpt>
      <trkpt lat="22.2473233770" lon="113.8652965913"><ele>39.000</ele></trkpt>
      <trkpt lat="22.2473340783" lon="113.8652702588"><ele>40.000</ele></trkpt>
      <trkpt lat="22.2473447797" lon="113.8652439263"><ele>38.000</ele></trkpt>
      <trkpt lat="22.2473560763" lon="113.8652163100"><ele>38.000</ele></trkpt>
      <trkpt lat="22.2473643956" lon="113.8651938331"><ele>38.000</ele></trkpt>
      <trkpt lat="22.2473732954" lon="113.8651623708"><ele>36.000</ele></trkpt>
      <trkpt lat="22.2473816106" lon="113.8651373270"><ele>36.000</ele></trkpt>
      <trkpt lat="22.2473881455" lon="113.8651187043"><ele>34.000</ele></trkpt>
      <trkpt lat="22.2473994521" lon="113.8650962208"><ele>34.000</ele></trkpt>
      <trkpt lat="22.2474107687" lon="113.8650795121"><ele>33.000</ele></trkpt>
      <trkpt lat="22.2474208953" lon="113.8650647308"><ele>33.000</ele></trkpt>
      <trkpt lat="22.2474316212" lon="113.8650512325"><ele>32.000</ele></trkpt>
      <trkpt lat="22.2474459227" lon="113.8650332328"><ele>32.000</ele></trkpt>
      <trkpt lat="22.2474620131" lon="113.8650133055"><ele>30.000</ele></trkpt>
      <trkpt lat="22.2474751248" lon="113.8649978763"><ele>27.000</ele></trkpt>
      <trkpt lat="22.2474912180" lon="113.8649798737"><ele>27.000</ele></trkpt>
      <trkpt lat="22.2475091000" lon="113.8649599424"><ele>27.000</ele></trkpt>
      <trkpt lat="22.2475257898" lon="113.8649412971"><ele>24.000</ele></trkpt>
      <trkpt lat="22.2475430740" lon="113.8649213672"><ele>26.000</ele></trkpt>
      <trkpt lat="22.2475561857" lon="113.8649059379"><ele>26.000</ele></trkpt>
      <trkpt lat="22.2475710911" lon="113.8648911460"><ele>28.000</ele></trkpt>
      <trkpt lat="22.2475865948" lon="113.8648769949"><ele>29.000</ele></trkpt>
      <trkpt lat="22.2476026929" lon="113.8648615590"><ele>29.000</ele></trkpt>
      <trkpt lat="22.2476199866" lon="113.8648461205"><ele>28.000</ele></trkpt>
      <trkpt lat="22.2476366825" lon="113.8648306834"><ele>26.000</ele></trkpt>
      <trkpt lat="22.2476599382" lon="113.8648100979"><ele>25.000</ele></trkpt>
      <trkpt lat="22.2476793950" lon="113.8647910158"><ele>25.000</ele></trkpt>
      <trkpt lat="22.2477339522" lon="113.8647377883"><ele>24.000</ele></trkpt>
      <trkpt lat="22.2477631940" lon="113.8647151465"><ele>26.000</ele></trkpt>
      <trkpt lat="22.2477872813" lon="113.8646991778"><ele>26.000</ele></trkpt>
      <trkpt lat="22.2478117226" lon="113.8646883906"><ele>25.000</ele></trkpt>
      <trkpt lat="22.2478203340" lon="113.8646868911"><ele>25.000</ele></trkpt>
      <trkpt lat="22.2478292829" lon="113.8646824302"><ele>25.000</ele></trkpt>
      <trkpt lat="22.2478368531" lon="113.8646772312"><ele>20.000</ele></trkpt>
      <trkpt lat="22.2478499200" lon="113.8646638780"><ele>20.000</ele></trkpt>
      <trkpt lat="22.2478691775" lon="113.8646449602"><ele>20.000</ele></trkpt>
      <trkpt lat="22.2478812120" lon="113.8646319790"><ele>16.000</ele></trkpt>
      <trkpt lat="22.2478887793" lon="113.8646256702"><ele>16.000</ele></trkpt>
      <trkpt lat="22.2478939347" lon="113.8646189971"><ele>16.000</ele></trkpt>
      <trkpt lat="22.2478970165" lon="113.8646089973"><ele>16.000</ele></trkpt>
      <trkpt lat="22.2478993943" lon="113.8645915964"><ele>13.000</ele></trkpt>
      <trkpt lat="22.2479045219" lon="113.8645704884"><ele>13.000</ele></trkpt>
      <trkpt lat="22.2479089677" lon="113.8645530828"><ele>13.000</ele></trkpt>
      <trkpt lat="22.2479144444" lon="113.8645345652"><ele>12.000</ele></trkpt>
      <trkpt lat="22.2479208202" lon="113.8645196727"><ele>12.000</ele></trkpt>
      <trkpt lat="22.2479274799" lon="113.8645049271"><ele>7.000</ele></trkpt>
      <trkpt lat="22.2479357208" lon="113.8644901042"><ele>7.000</ele></trkpt>
      <trkpt lat="22.2479439666" lon="113.8644778725"><ele>7.000</ele></trkpt>
      <trkpt lat="22.2479535902" lon="113.8644660073"><ele>7.000</ele></trkpt>
      <trkpt lat="22.2479618417" lon="113.8644567362"><ele>7.000</ele></trkpt>
      <trkpt lat="22.2479694091" lon="113.8644500568"><ele>7.000</ele></trkpt>
      <trkpt lat="22.2479783551" lon="113.8644441156"><ele>6.000</ele></trkpt>
      <trkpt lat="22.2479890284" lon="113.8644403910"><ele>6.000</ele></trkpt>
      <trkpt lat="22.2479962573" lon="113.8644370436"><ele>6.000</ele></trkpt>
      <trkpt lat="22.2480021060" lon="113.8644325896"><ele>6.000</ele></trkpt>
      <trkpt lat="22.2480072614" lon="113.8644259156"><ele>6.000</ele></trkpt>
      <trkpt lat="22.2480127624" lon="113.8644196113"><ele>6.000</ele></trkpt>
      <trkpt lat="22.2480175707" lon="113.8644118283"><ele>6.000</ele></trkpt>
      <trkpt lat="22.2480223832" lon="113.8644062657"><ele>6.000</ele></trkpt>
      <trkpt lat="22.2480258191" lon="113.8644014474"><ele>6.000</ele></trkpt>
      <trkpt lat="22.2480330425" lon="113.8643947688"><ele>6.000</ele></trkpt>
      <trkpt lat="22.2480925322" lon="113.8643350488"><ele>6.000</ele></trkpt>
      <trkpt lat="22.2480997484" lon="113.8643246693"><ele>6.000</ele></trkpt>
      <trkpt lat="22.2481059298" lon="113.8643142920"><ele>4.000</ele></trkpt>
      <trkpt lat="22.2481261707" lon="113.8642690931"><ele>4.000</ele></trkpt>
      <trkpt lat="22.2481292597" lon="113.8642627942"><ele>4.000</ele></trkpt>
      <trkpt lat="22.2481295799" lon="113.8642560397"><ele>4.000</ele></trkpt>
      <trkpt lat="22.2481282008" lon="113.8642498429"><ele>4.000</ele></trkpt>
      <trkpt lat="22.2481261223" lon="113.8642439261"><ele>4.000</ele></trkpt>
      <trkpt lat="22.2481212648" lon="113.8642265411"><ele>4.000</ele></trkpt>
      <trkpt lat="22.2480940065" lon="113.8641188309"><ele>4.000</ele></trkpt>
      <trkpt lat="22.2480733452" lon="113.8640323366"><ele>4.000</ele></trkpt>
      <trkpt lat="22.2480618874" lon="113.8639864679"><ele>4.000</ele></trkpt>
      <trkpt lat="22.2480424304" lon="113.8639021246"><ele>4.000</ele></trkpt>
      <trkpt lat="22.2480296002" lon="113.8638592196"><ele>4.000</ele></trkpt>
      <trkpt lat="22.2480167679" lon="113.8638152049"><ele>4.000</ele></trkpt>
      <trkpt lat="22.2480119103" lon="113.8637978200"><ele>4.000</ele></trkpt>
      <trkpt lat="22.2480042853" lon="113.8637741501"><ele>4.000</ele></trkpt>
      <trkpt lat="22.2479891159" lon="113.8637385834"><ele>4.000</ele></trkpt>
      <trkpt lat="22.2479814393" lon="113.8637190530"><ele>4.000</ele></trkpt>
      <trkpt lat="22.2479769267" lon="113.8637016683"><ele>4.000</ele></trkpt>
      <trkpt lat="22.2479737914" lon="113.8636839090"><ele>4.000</ele></trkpt>
      <trkpt lat="22.2479706477" lon="113.8636613390"><ele>4.000</ele></trkpt>
      <trkpt lat="22.2479692333" lon="113.8636424670"><ele>4.000</ele></trkpt>
      <trkpt lat="22.2479681622" lon="113.8636232228"><ele>7.000</ele></trkpt>
      <trkpt lat="22.2479684815" lon="113.8636098978"><ele>7.000</ele></trkpt>
      <trkpt lat="22.2479708691" lon="113.8635976791"><ele>4.000</ele></trkpt>
      <trkpt lat="22.2479742900" lon="113.8635850874"><ele>4.000</ele></trkpt>
      <trkpt lat="22.2479792247" lon="113.8635731074"><ele>4.000</ele></trkpt>
    </trkseg>
  </trk>
</gpx>
