<?xml version="1.0" encoding="UTF-8"?>
<gpx xmlns:xsi="http://www.w3.org/2001/XMLSchema-instance"
     xsi:schemaLocation="http://www.topografix.com/GPX/1/1 http://www.topografix.com/GPX/1/1/gpx.xsd"
     version="1.1" creator="json3d_batch_to_gpx"
     xmlns="http://www.topografix.com/GPX/1/1">
  <metadata>
    <name>MacLehoseTrail(Section9)RouteTwisktoTinFuTsai</name>
  </metadata>
  <trk>
    <name>MacLehoseTrail(Section9)RouteTwisktoTinFuTsai</name>
    <type>hike</type>
    <trkseg>
      <trkpt lat="22.4066154053" lon="114.1052806163"><ele>472.000</ele></trkpt>
      <trkpt lat="22.4066154053" lon="114.1052806153"><ele>472.000</ele></trkpt>
      <trkpt lat="22.4065987610" lon="114.1052537497"><ele>472.000</ele></trkpt>
      <trkpt lat="22.4066026362" lon="114.1052236357"><ele>470.000</ele></trkpt>
      <trkpt lat="22.4066244034" lon="114.1051993678"><ele>472.000</ele></trkpt>
      <trkpt lat="22.4066702776" lon="114.1051692312"><ele>470.000</ele></trkpt>
      <trkpt lat="22.4067122662" lon="114.1051457891"><ele>468.000</ele></trkpt>
      <trkpt lat="22.4067931399" lon="114.1051156355"><ele>470.000</ele></trkpt>
      <trkpt lat="22.4068429040" lon="114.1050888427"><ele>468.000</ele></trkpt>
      <trkpt lat="22.4068810000" lon="114.1050562014"><ele>468.000</ele></trkpt>
      <trkpt lat="22.4069089792" lon="114.1050093459"><ele>468.000</ele></trkpt>
      <trkpt lat="22.4069711401" lon="114.1048763174"><ele>466.000</ele></trkpt>
      <trkpt lat="22.4070465200" lon="114.1047357531"><ele>464.000</ele></trkpt>
      <trkpt lat="22.4070830571" lon="114.1046947475"><ele>464.000</ele></trkpt>
      <trkpt lat="22.4071032715" lon="114.1046796815"><ele>464.000</ele></trkpt>
      <trkpt lat="22.4071398172" lon="114.1046579144"><ele>464.000</ele></trkpt>
      <trkpt lat="22.4072603510" lon="114.1046160291"><ele>464.000</ele></trkpt>
      <trkpt lat="22.4073007821" lon="114.1045892418"><ele>464.000</ele></trkpt>
      <trkpt lat="22.4073419811" lon="114.1045390325"><ele>464.000</ele></trkpt>
      <trkpt lat="22.4073917184" lon="114.1044503415"><ele>464.000</ele></trkpt>
      <trkpt lat="22.4074212391" lon="114.1043758812"><ele>469.000</ele></trkpt>
      <trkpt lat="22.4074297725" lon="114.1043265259"><ele>469.000</ele></trkpt>
      <trkpt lat="22.4074243077" lon="114.1042813599"><ele>469.000</ele></trkpt>
      <trkpt lat="22.4074087351" lon="114.1042420545"><ele>466.000</ele></trkpt>
      <trkpt lat="22.4073539598" lon="114.1040654507"><ele>467.000</ele></trkpt>
      <trkpt lat="22.4073229501" lon="114.1039474362"><ele>468.000</ele></trkpt>
      <trkpt lat="22.4073097935" lon="114.1038732274"><ele>468.000</ele></trkpt>
      <trkpt lat="22.4073066568" lon="114.1038163494"><ele>469.000</ele></trkpt>
      <trkpt lat="22.4073105277" lon="114.1037753606"><ele>470.000</ele></trkpt>
      <trkpt lat="22.4073283362" lon="114.1036005313"><ele>472.000</ele></trkpt>
      <trkpt lat="22.4073331476" lon="114.1034530386"><ele>474.000</ele></trkpt>
      <trkpt lat="22.4073282330" lon="114.1033730138"><ele>474.000</ele></trkpt>
      <trkpt lat="22.4073149658" lon="114.1032726457"><ele>474.000</ele></trkpt>
      <trkpt lat="22.4073102761" lon="114.1032207877"><ele>474.000</ele></trkpt>
      <trkpt lat="22.4073149063" lon="114.1031421584"><ele>476.000</ele></trkpt>
      <trkpt lat="22.4073242188" lon="114.1030969846"><ele>476.000</ele></trkpt>
      <trkpt lat="22.4073376123" lon="114.1030545139"><ele>478.000</ele></trkpt>
      <trkpt lat="22.4073956223" lon="114.1028705646"><ele>478.000</ele></trkpt>
      <trkpt lat="22.4074391605" lon="114.1027313910"><ele>480.000</ele></trkpt>
      <trkpt lat="22.4074601208" lon="114.1026477327"><ele>480.000</ele></trkpt>
      <trkpt lat="22.4074882561" lon="114.1024615112"><ele>484.000</ele></trkpt>
      <trkpt lat="22.4075172231" lon="114.1022697844"><ele>485.000</ele></trkpt>
      <trkpt lat="22.4075461898" lon="114.1020780574"><ele>486.000</ele></trkpt>
      <trkpt lat="22.4075453948" lon="114.1020404168"><ele>486.000</ele></trkpt>
      <trkpt lat="22.4075337090" lon="114.1019985999"><ele>486.000</ele></trkpt>
      <trkpt lat="22.4075150279" lon="114.1019659881"><ele>486.000</ele></trkpt>
      <trkpt lat="22.4074920718" lon="114.1019376653"><ele>486.000</ele></trkpt>
      <trkpt lat="22.4073733948" lon="114.1017912439"><ele>490.000</ele></trkpt>
      <trkpt lat="22.4073567776" lon="114.1017734863"><ele>491.000</ele></trkpt>
      <trkpt lat="22.4072286599" lon="114.1016365766"><ele>494.000</ele></trkpt>
      <trkpt lat="22.4071944146" lon="114.1015864071"><ele>494.000</ele></trkpt>
      <trkpt lat="22.4071718331" lon="114.1015287044"><ele>496.000</ele></trkpt>
      <trkpt lat="22.4071601401" lon="114.1014718311"><ele>496.000</ele></trkpt>
      <trkpt lat="22.4071601000" lon="114.1013856756"><ele>496.000</ele></trkpt>
      <trkpt lat="22.4071592728" lon="114.1012794457"><ele>498.000</ele></trkpt>
      <trkpt lat="22.4071615878" lon="114.1012418044"><ele>498.000</ele></trkpt>
      <trkpt lat="22.4071732363" lon="114.1012033209"><ele>499.000</ele></trkpt>
      <trkpt lat="22.4071879985" lon="114.1011706912"><ele>499.000</ele></trkpt>
      <trkpt lat="22.4072424985" lon="114.1010807380"><ele>502.000</ele></trkpt>
      <trkpt lat="22.4073410985" lon="114.1009179966"><ele>506.000</ele></trkpt>
      <trkpt lat="22.4073574123" lon="114.1008761647"><ele>506.000</ele></trkpt>
      <trkpt lat="22.4073527281" lon="114.1008393634"><ele>508.000</ele></trkpt>
      <trkpt lat="22.4073379376" lon="114.1008117679"><ele>508.000</ele></trkpt>
      <trkpt lat="22.4073161531" lon="114.1007958869"><ele>508.000</ele></trkpt>
      <trkpt lat="22.4072453723" lon="114.1007867242"><ele>508.000</ele></trkpt>
      <trkpt lat="22.4071514407" lon="114.1007866044"><ele>510.000</ele></trkpt>
      <trkpt lat="22.4070921464" lon="114.1007709158"><ele>512.000</ele></trkpt>
      <trkpt lat="22.4070703623" lon="114.1007558711"><ele>512.000</ele></trkpt>
      <trkpt lat="22.4070454647" lon="114.1007374822"><ele>512.000</ele></trkpt>
      <trkpt lat="22.4070291211" lon="114.1007140706"><ele>513.000</ele></trkpt>
      <trkpt lat="22.4070143318" lon="114.1006889847"><ele>513.000</ele></trkpt>
      <trkpt lat="22.4070104180" lon="114.1006354541"><ele>514.000</ele></trkpt>
      <trkpt lat="22.4070290371" lon="114.1005359052"><ele>514.000</ele></trkpt>
      <trkpt lat="22.4070383456" lon="114.1004840398"><ele>514.000</ele></trkpt>
      <trkpt lat="22.4070344393" lon="114.1004464010"><ele>514.000</ele></trkpt>
      <trkpt lat="22.4070243137" lon="114.1004146210"><ele>516.000</ele></trkpt>
      <trkpt lat="22.4070080970" lon="114.1003788449"><ele>514.000</ele></trkpt>
      <trkpt lat="22.4069690500" lon="114.1003251500"><ele>514.000</ele></trkpt>
      <trkpt lat="22.4069309198" lon="114.1002816755"><ele>512.000</ele></trkpt>
      <trkpt lat="22.4068951254" lon="114.1002448904"><ele>512.000</ele></trkpt>
      <trkpt lat="22.4068243275" lon="114.1001997606"><ele>512.000</ele></trkpt>
      <trkpt lat="22.4068102799" lon="114.1001944351"><ele>512.000</ele></trkpt>
      <trkpt lat="22.4066399428" lon="114.1001298608"><ele>508.000</ele></trkpt>
      <trkpt lat="22.4064696056" lon="114.1000652866"><ele>508.000</ele></trkpt>
      <trkpt lat="22.4064151447" lon="114.1000276757"><ele>506.000</ele></trkpt>
      <trkpt lat="22.4064026465" lon="114.1000125104"><ele>506.000</ele></trkpt>
      <trkpt lat="22.4062828493" lon="114.0998671491"><ele>502.000</ele></trkpt>
      <trkpt lat="22.4061824792" lon="114.0997860686"><ele>502.000</ele></trkpt>
      <trkpt lat="22.4061070072" lon="114.0997242128"><ele>502.000</ele></trkpt>
      <trkpt lat="22.4059560738" lon="114.0996230848"><ele>502.000</ele></trkpt>
      <trkpt lat="22.4058806024" lon="114.0995645751"><ele>502.000</ele></trkpt>
      <trkpt lat="22.4058269103" lon="114.0995068896"><ele>500.000</ele></trkpt>
      <trkpt lat="22.4057845932" lon="114.0994592439"><ele>500.000</ele></trkpt>
      <trkpt lat="22.4056598428" lon="114.0993187850"><ele>500.000</ele></trkpt>
      <trkpt lat="22.4055350922" lon="114.0991783264"><ele>500.000</ele></trkpt>
      <trkpt lat="22.4054907297" lon="114.0991139444"><ele>500.000</ele></trkpt>
      <trkpt lat="22.4054043209" lon="114.0989533942"><ele>500.000</ele></trkpt>
      <trkpt lat="22.4053679959" lon="114.0989105241"><ele>500.000</ele></trkpt>
      <trkpt lat="22.4052463455" lon="114.0987669552"><ele>496.000</ele></trkpt>
      <trkpt lat="22.4052459010" lon="114.0987663219"><ele>496.000</ele></trkpt>
      <trkpt lat="22.4051370877" lon="114.0986112934"><ele>494.000</ele></trkpt>
      <trkpt lat="22.4050282743" lon="114.0984562651"><ele>494.000</ele></trkpt>
      <trkpt lat="22.4049194608" lon="114.0983012370"><ele>493.000</ele></trkpt>
      <trkpt lat="22.4048773056" lon="114.0982377409"><ele>492.000</ele></trkpt>
      <trkpt lat="22.4047723564" lon="114.0980796616"><ele>492.000</ele></trkpt>
      <trkpt lat="22.4047404516" lon="114.0980462221"><ele>492.000</ele></trkpt>
      <trkpt lat="22.4046501929" lon="114.0979668114"><ele>492.000</ele></trkpt>
      <trkpt lat="22.4045801638" lon="114.0979032810"><ele>492.000</ele></trkpt>
      <trkpt lat="22.4045428093" lon="114.0978572979"><ele>492.000</ele></trkpt>
      <trkpt lat="22.4044914428" lon="114.0977887379"><ele>492.000</ele></trkpt>
      <trkpt lat="22.4044360373" lon="114.0977060145"><ele>491.000</ele></trkpt>
      <trkpt lat="22.4043677060" lon="114.0976390851"><ele>490.000</ele></trkpt>
      <trkpt lat="22.4042961336" lon="114.0976014855"><ele>492.000</ele></trkpt>
      <trkpt lat="22.4042323481" lon="114.0975822835"><ele>492.000</ele></trkpt>
      <trkpt lat="22.4041833467" lon="114.0975764569"><ele>491.000</ele></trkpt>
      <trkpt lat="22.4041425791" lon="114.0975732382"><ele>491.000</ele></trkpt>
      <trkpt lat="22.4039624541" lon="114.0975590164"><ele>492.000</ele></trkpt>
      <trkpt lat="22.4039164054" lon="114.0975471922"><ele>492.000</ele></trkpt>
      <trkpt lat="22.4038714450" lon="114.0975356480"><ele>492.000</ele></trkpt>
      <trkpt lat="22.4038232113" lon="114.0975097458"><ele>492.000</ele></trkpt>
      <trkpt lat="22.4037749742" lon="114.0974771522"><ele>493.000</ele></trkpt>
      <trkpt lat="22.4037220604" lon="114.0974244860"><ele>494.000</ele></trkpt>
      <trkpt lat="22.4036823636" lon="114.0973609399"><ele>496.000</ele></trkpt>
      <trkpt lat="22.4036566659" lon="114.0972973849"><ele>496.000</ele></trkpt>
      <trkpt lat="22.4036515830" lon="114.0972752172"><ele>496.000</ele></trkpt>
      <trkpt lat="22.4036083410" lon="114.0970866305"><ele>498.000</ele></trkpt>
      <trkpt lat="22.4035802801" lon="114.0969611808"><ele>498.000</ele></trkpt>
      <trkpt lat="22.4035600279" lon="114.0969001323"><ele>498.000</ele></trkpt>
      <trkpt lat="22.4035460155" lon="114.0968750470"><ele>498.000</ele></trkpt>
      <trkpt lat="22.4035133342" lon="114.0968441171"><ele>498.000</ele></trkpt>
      <trkpt lat="22.4034728808" lon="114.0968232298"><ele>498.000</ele></trkpt>
      <trkpt lat="22.4034238760" lon="114.0968123836"><ele>498.000</ele></trkpt>
      <trkpt lat="22.4033686550" lon="114.0968115790"><ele>500.000</ele></trkpt>
      <trkpt lat="22.4033118847" lon="114.0968241582"><ele>500.000</ele></trkpt>
      <trkpt lat="22.4033056753" lon="114.0968265156"><ele>500.000</ele></trkpt>
      <trkpt lat="22.4031353663" lon="114.0968911742"><ele>500.000</ele></trkpt>
      <trkpt lat="22.4030832600" lon="114.0968978954"><ele>500.000</ele></trkpt>
      <trkpt lat="22.4030537079" lon="114.0969037676"><ele>500.000</ele></trkpt>
      <trkpt lat="22.4030047032" lon="114.0968912490"><ele>500.000</ele></trkpt>
      <trkpt lat="22.4029689129" lon="114.0968645039"><ele>502.000</ele></trkpt>
      <trkpt lat="22.4029237789" lon="114.0968160166"><ele>502.000</ele></trkpt>
      <trkpt lat="22.4028934248" lon="114.0967725389"><ele>502.000</ele></trkpt>
      <trkpt lat="22.4028677323" lon="114.0967198586"><ele>502.000</ele></trkpt>
      <trkpt lat="22.4028225663" lon="114.0966069661"><ele>503.000</ele></trkpt>
      <trkpt lat="22.4027968629" lon="114.0965308650"><ele>504.000</ele></trkpt>
      <trkpt lat="22.4027851664" lon="114.0964723216"><ele>504.000</ele></trkpt>
      <trkpt lat="22.4027734322" lon="114.0963343168"><ele>504.000</ele></trkpt>
      <trkpt lat="22.4027647162" lon="114.0962387690"><ele>502.000</ele></trkpt>
      <trkpt lat="22.4027414695" lon="114.0961854504"><ele>502.000</ele></trkpt>
      <trkpt lat="22.4027080013" lon="114.0961361204"><ele>502.000</ele></trkpt>
      <trkpt lat="22.4026698737" lon="114.0961018484"><ele>502.000</ele></trkpt>
      <trkpt lat="22.4025897426" lon="114.0960567274"><ele>502.000</ele></trkpt>
      <trkpt lat="22.4025321734" lon="114.0960283218"><ele>504.000</ele></trkpt>
      <trkpt lat="22.4024785038" lon="114.0960183158"><ele>504.000</ele></trkpt>
      <trkpt lat="22.4024263946" lon="114.0960208554"><ele>504.000</ele></trkpt>
      <trkpt lat="22.4023105236" lon="114.0960501973"><ele>506.000</ele></trkpt>
      <trkpt lat="22.4022677503" lon="114.0960585868"><ele>506.000</ele></trkpt>
      <trkpt lat="22.4022226361" lon="114.0960502481"><ele>506.000</ele></trkpt>
      <trkpt lat="22.4021502891" lon="114.0960193417"><ele>504.000</ele></trkpt>
      <trkpt lat="22.4020810544" lon="114.0959909439"><ele>506.000</ele></trkpt>
      <trkpt lat="22.4020359230" lon="114.0959483114"><ele>506.000</ele></trkpt>
      <trkpt lat="22.4019432594" lon="114.0958456378"><ele>508.000</ele></trkpt>
      <trkpt lat="22.4019182265" lon="114.0958156904"><ele>508.000</ele></trkpt>
      <trkpt lat="22.4017974829" lon="114.0956712423"><ele>512.000</ele></trkpt>
      <trkpt lat="22.4017614507" lon="114.0956266922"><ele>514.000</ele></trkpt>
      <trkpt lat="22.4016429193" lon="114.0954801405"><ele>516.000</ele></trkpt>
      <trkpt lat="22.4016172136" lon="114.0954451942"><ele>518.000</ele></trkpt>
      <trkpt lat="22.4015051614" lon="114.0952928616"><ele>520.000</ele></trkpt>
      <trkpt lat="22.4014429037" lon="114.0952201285"><ele>524.000</ele></trkpt>
      <trkpt lat="22.4013907700" lon="114.0951724835"><ele>524.000</ele></trkpt>
      <trkpt lat="22.4013347495" lon="114.0951298578"><ele>524.000</ele></trkpt>
      <trkpt lat="22.4012911827" lon="114.0951047914"><ele>526.000</ele></trkpt>
      <trkpt lat="22.4012452871" lon="114.0950905984"><ele>526.000</ele></trkpt>
      <trkpt lat="22.4011682823" lon="114.0950764247"><ele>528.000</ele></trkpt>
      <trkpt lat="22.4010803910" lon="114.0950689476"><ele>528.000</ele></trkpt>
      <trkpt lat="22.4009637135" lon="114.0950405783"><ele>528.000</ele></trkpt>
      <trkpt lat="22.4009139267" lon="114.0950213697"><ele>528.000</ele></trkpt>
      <trkpt lat="22.4008758019" lon="114.0949929535"><ele>526.000</ele></trkpt>
      <trkpt lat="22.4008345558" lon="114.0949444653"><ele>526.000</ele></trkpt>
      <trkpt lat="22.4007528365" lon="114.0948366144"><ele>526.000</ele></trkpt>
      <trkpt lat="22.4006983536" lon="114.0947580232"><ele>526.000</ele></trkpt>
      <trkpt lat="22.4006181676" lon="114.0946075144"><ele>525.000</ele></trkpt>
      <trkpt lat="22.4005374765" lon="114.0944578162"><ele>524.000</ele></trkpt>
      <trkpt lat="22.4004468985" lon="114.0942897765"><ele>522.000</ele></trkpt>
      <trkpt lat="22.4003877326" lon="114.0941785673"><ele>522.000</ele></trkpt>
      <trkpt lat="22.4003674931" lon="114.0941442867"><ele>520.000</ele></trkpt>
      <trkpt lat="22.4003394619" lon="114.0940815714"><ele>520.000</ele></trkpt>
      <trkpt lat="22.4003262103" lon="114.0940247035"><ele>520.000</ele></trkpt>
      <trkpt lat="22.4003012584" lon="114.0939000916"><ele>522.000</ele></trkpt>
      <trkpt lat="22.4002809871" lon="114.0938039154"><ele>522.000</ele></trkpt>
      <trkpt lat="22.4002552798" lon="114.0937227983"><ele>524.000</ele></trkpt>
      <trkpt lat="22.4002334688" lon="114.0936584071"><ele>524.000</ele></trkpt>
      <trkpt lat="22.4001937709" lon="114.0935956989"><ele>524.000</ele></trkpt>
      <trkpt lat="22.4001447594" lon="114.0935706363"><ele>524.000</ele></trkpt>
      <trkpt lat="22.4000739722" lon="114.0935497676"><ele>524.000</ele></trkpt>
      <trkpt lat="22.3999751746" lon="114.0935071695"><ele>524.000</ele></trkpt>
      <trkpt lat="22.3999168215" lon="114.0934653834"><ele>526.000</ele></trkpt>
      <trkpt lat="22.3998436800" lon="114.0934043687"><ele>526.000</ele></trkpt>
      <trkpt lat="22.3998218857" lon="114.0933709254"><ele>526.000</ele></trkpt>
      <trkpt lat="22.3997759515" lon="114.0932806201"><ele>528.000</ele></trkpt>
      <trkpt lat="22.3997159774" lon="114.0931133729"><ele>530.000</ele></trkpt>
      <trkpt lat="22.3996941440" lon="114.0930046519"><ele>532.000</ele></trkpt>
      <trkpt lat="22.3996941119" lon="114.0929427574"><ele>532.000</ele></trkpt>
      <trkpt lat="22.3997026353" lon="114.0928825302"><ele>532.000</ele></trkpt>
      <trkpt lat="22.3997080389" lon="114.0928039043"><ele>532.000</ele></trkpt>
      <trkpt lat="22.3996947830" lon="114.0927378351"><ele>534.000</ele></trkpt>
      <trkpt lat="22.3996667500" lon="114.0926742852"><ele>534.000</ele></trkpt>
      <trkpt lat="22.3996148710" lon="114.0925917141"><ele>536.000</ele></trkpt>
      <trkpt lat="22.3995873557" lon="114.0925530526"><ele>536.000</ele></trkpt>
      <trkpt lat="22.3995437571" lon="114.0924694375"><ele>538.000</ele></trkpt>
      <trkpt lat="22.3995009478" lon="114.0924067328"><ele>538.000</ele></trkpt>
      <trkpt lat="22.3994542526" lon="114.0923490484"><ele>538.000</ele></trkpt>
      <trkpt lat="22.3993990001" lon="114.0922896959"><ele>537.000</ele></trkpt>
      <trkpt lat="22.3993787584" lon="114.0922520702"><ele>538.000</ele></trkpt>
      <trkpt lat="22.3993678533" lon="114.0922194569"><ele>536.000</ele></trkpt>
      <trkpt lat="22.3993600416" lon="114.0921550578"><ele>538.000</ele></trkpt>
      <trkpt lat="22.3993607762" lon="114.0920714161"><ele>538.000</ele></trkpt>
      <trkpt lat="22.3993661820" lon="114.0919994807"><ele>538.000</ele></trkpt>
      <trkpt lat="22.3993786010" lon="114.0919517984"><ele>538.000</ele></trkpt>
      <trkpt lat="22.3994190042" lon="114.0918739867"><ele>538.000</ele></trkpt>
      <trkpt lat="22.3994617451" lon="114.0918062113"><ele>538.000</ele></trkpt>
      <trkpt lat="22.3994850486" lon="114.0917501578"><ele>538.000</ele></trkpt>
      <trkpt lat="22.3994927980" lon="114.0916957861"><ele>540.000</ele></trkpt>
      <trkpt lat="22.3994904367" lon="114.0916430938"><ele>540.000</ele></trkpt>
      <trkpt lat="22.3994748561" lon="114.0915945914"><ele>540.000</ele></trkpt>
      <trkpt lat="22.3994478953" lon="114.0915546159"><ele>540.000</ele></trkpt>
      <trkpt lat="22.3994088513" lon="114.0915106077"><ele>540.000</ele></trkpt>
      <trkpt lat="22.3993384196" lon="114.0914540132"><ele>542.000</ele></trkpt>
      <trkpt lat="22.3992943158" lon="114.0914065082"><ele>542.000</ele></trkpt>
      <trkpt lat="22.3992732928" lon="114.0913621919"><ele>542.000</ele></trkpt>
      <trkpt lat="22.3992569244" lon="114.0912944526"><ele>543.000</ele></trkpt>
      <trkpt lat="22.3992537762" lon="114.0912241958"><ele>544.000</ele></trkpt>
      <trkpt lat="22.3992544975" lon="114.0911179710"><ele>544.000</ele></trkpt>
      <trkpt lat="22.3992599185" lon="114.0910736376"><ele>544.000</ele></trkpt>
      <trkpt lat="22.3992809016" lon="114.0910426781"><ele>544.000</ele></trkpt>
      <trkpt lat="22.3993140114" lon="114.0910127279"><ele>543.000</ele></trkpt>
      <trkpt lat="22.3993703037" lon="114.0909665093"><ele>544.000</ele></trkpt>
      <trkpt lat="22.3994006189" lon="114.0909338707"><ele>542.000</ele></trkpt>
      <trkpt lat="22.3994604642" lon="114.0908543744"><ele>542.000</ele></trkpt>
      <trkpt lat="22.3995067183" lon="114.0907676658"><ele>542.000</ele></trkpt>
      <trkpt lat="22.3995226082" lon="114.0907096365"><ele>542.000</ele></trkpt>
      <trkpt lat="22.3995241396" lon="114.0906653064"><ele>542.000</ele></trkpt>
      <trkpt lat="22.3995141586" lon="114.0906303890"><ele>541.000</ele></trkpt>
      <trkpt lat="22.3994820688" lon="114.0905306696"><ele>542.000</ele></trkpt>
      <trkpt lat="22.3994656907" lon="114.0904453651"><ele>542.000</ele></trkpt>
      <trkpt lat="22.3994664485" lon="114.0904085629"><ele>542.000</ele></trkpt>
      <trkpt lat="22.3994757596" lon="114.0903675726"><ele>542.000</ele></trkpt>
      <trkpt lat="22.3994967439" lon="114.0903391224"><ele>543.000</ele></trkpt>
      <trkpt lat="22.3995216217" lon="114.0903198694"><ele>541.000</ele></trkpt>
      <trkpt lat="22.3995581677" lon="114.0903022816"><ele>540.000</ele></trkpt>
      <trkpt lat="22.3996965860" lon="114.0902595390"><ele>540.000</ele></trkpt>
      <trkpt lat="22.3997424588" lon="114.0902319085"><ele>540.000</ele></trkpt>
      <trkpt lat="22.3997681060" lon="114.0901959269"><ele>540.000</ele></trkpt>
      <trkpt lat="22.3997937419" lon="114.0901407078"><ele>538.000</ele></trkpt>
      <trkpt lat="22.3998100539" lon="114.0901005502"><ele>538.000</ele></trkpt>
      <trkpt lat="22.3998364700" lon="114.0900486752"><ele>537.000</ele></trkpt>
      <trkpt lat="22.3998686649" lon="114.0899987165"><ele>537.000</ele></trkpt>
      <trkpt lat="22.3999406191" lon="114.0899181301"><ele>534.000</ele></trkpt>
      <trkpt lat="22.3999802662" lon="114.0898838121"><ele>534.000</ele></trkpt>
      <trkpt lat="22.4000098099" lon="114.0898628837"><ele>534.000</ele></trkpt>
      <trkpt lat="22.4000766808" lon="114.0898310582"><ele>532.000</ele></trkpt>
      <trkpt lat="22.4001015636" lon="114.0898203432"><ele>532.000</ele></trkpt>
      <trkpt lat="22.4002692314" lon="114.0897481424"><ele>530.000</ele></trkpt>
      <trkpt lat="22.4003393332" lon="114.0896942578"><ele>528.000</ele></trkpt>
      <trkpt lat="22.4004615354" lon="114.0895782205"><ele>526.000</ele></trkpt>
      <trkpt lat="22.4005960193" lon="114.0894510002"><ele>524.000</ele></trkpt>
      <trkpt lat="22.4006411130" lon="114.0894208612"><ele>522.000</ele></trkpt>
      <trkpt lat="22.4006799938" lon="114.0894074543"><ele>522.000</ele></trkpt>
      <trkpt lat="22.4007266589" lon="114.0894074252"><ele>522.000</ele></trkpt>
      <trkpt lat="22.4007966578" lon="114.0894073814"><ele>520.000</ele></trkpt>
      <trkpt lat="22.4008565485" lon="114.0894131991"><ele>520.000</ele></trkpt>
      <trkpt lat="22.4009203192" lon="114.0894031222"><ele>520.000</ele></trkpt>
      <trkpt lat="22.4009747473" lon="114.0893754858"><ele>520.000</ele></trkpt>
      <trkpt lat="22.4010136240" lon="114.0893545514"><ele>517.000</ele></trkpt>
      <trkpt lat="22.4010532809" lon="114.0893386345"><ele>517.000</ele></trkpt>
      <trkpt lat="22.4010890556" lon="114.0893344293"><ele>517.000</ele></trkpt>
      <trkpt lat="22.4011396106" lon="114.0893352348"><ele>517.000</ele></trkpt>
      <trkpt lat="22.4012282774" lon="114.0893385250"><ele>519.000</ele></trkpt>
      <trkpt lat="22.4012687132" lon="114.0893251161"><ele>519.000</ele></trkpt>
      <trkpt lat="22.4013052564" lon="114.0893041831"><ele>518.000</ele></trkpt>
      <trkpt lat="22.4013767756" lon="114.0892397336"><ele>520.000</ele></trkpt>
      <trkpt lat="22.4014078675" lon="114.0892045842"><ele>520.000</ele></trkpt>
      <trkpt lat="22.4014288448" lon="114.0891652593"><ele>517.000</ele></trkpt>
      <trkpt lat="22.4014474845" lon="114.0891150617"><ele>514.000</ele></trkpt>
      <trkpt lat="22.4014544531" lon="114.0890581810"><ele>516.000</ele></trkpt>
      <trkpt lat="22.4014528667" lon="114.0890021410"><ele>513.000</ele></trkpt>
      <trkpt lat="22.4014473936" lon="114.0889477767"><ele>506.000</ele></trkpt>
      <trkpt lat="22.4014481329" lon="114.0888775173"><ele>500.000</ele></trkpt>
      <trkpt lat="22.4014550979" lon="114.0888122710"><ele>500.000</ele></trkpt>
      <trkpt lat="22.4014659563" lon="114.0887578974"><ele>499.000</ele></trkpt>
      <trkpt lat="22.4015061086" lon="114.0885939093"><ele>498.000</ele></trkpt>
      <trkpt lat="22.4015202689" lon="114.0885186448"><ele>496.000</ele></trkpt>
      <trkpt lat="22.4015287809" lon="114.0884391797"><ele>496.000</ele></trkpt>
      <trkpt lat="22.4015279677" lon="114.0883739392"><ele>496.000</ele></trkpt>
      <trkpt lat="22.4015170435" lon="114.0883095414"><ele>496.000</ele></trkpt>
      <trkpt lat="22.4014883935" lon="114.0882520704"><ele>493.000</ele></trkpt>
      <trkpt lat="22.4014500978" lon="114.0882025206"><ele>493.000</ele></trkpt>
      <trkpt lat="22.4013995084" lon="114.0881389851"><ele>487.000</ele></trkpt>
      <trkpt lat="22.4013756104" lon="114.0880852668"><ele>487.000</ele></trkpt>
      <trkpt lat="22.4013628956" lon="114.0880327825"><ele>486.000</ele></trkpt>
      <trkpt lat="22.4013675258" lon="114.0879675377"><ele>485.000</ele></trkpt>
      <trkpt lat="22.4013880246" lon="114.0878995237"><ele>483.000</ele></trkpt>
      <trkpt lat="22.4014159687" lon="114.0878320622"><ele>484.000</ele></trkpt>
      <trkpt lat="22.4014894620" lon="114.0876546372"><ele>480.000</ele></trkpt>
      <trkpt lat="22.4014987531" lon="114.0875785172"><ele>480.000</ele></trkpt>
      <trkpt lat="22.4015150255" lon="114.0874680980"><ele>476.000</ele></trkpt>
      <trkpt lat="22.4015359663" lon="114.0873635319"><ele>472.000</ele></trkpt>
      <trkpt lat="22.4015452710" lon="114.0873108314"><ele>472.000</ele></trkpt>
      <trkpt lat="22.4015584778" lon="114.0872840576"><ele>472.000</ele></trkpt>
      <trkpt lat="22.4015825762" lon="114.0872622949"><ele>470.000</ele></trkpt>
      <trkpt lat="22.4016385585" lon="114.0872321480"><ele>473.000</ele></trkpt>
      <trkpt lat="22.4016700991" lon="114.0872088839"><ele>472.000</ele></trkpt>
      <trkpt lat="22.4017131813" lon="114.0871559850"><ele>472.000</ele></trkpt>
      <trkpt lat="22.4017380434" lon="114.0871091287"><ele>471.000</ele></trkpt>
      <trkpt lat="22.4017504628" lon="114.0870647909"><ele>468.000</ele></trkpt>
      <trkpt lat="22.4017667507" lon="114.0869828101"><ele>466.000</ele></trkpt>
      <trkpt lat="22.4017737326" lon="114.0869510212"><ele>466.000</ele></trkpt>
      <trkpt lat="22.4017846067" lon="114.0869259222"><ele>463.000</ele></trkpt>
      <trkpt lat="22.4018048166" lon="114.0869041618"><ele>463.000</ele></trkpt>
      <trkpt lat="22.4018374723" lon="114.0868857392"><ele>462.000</ele></trkpt>
      <trkpt lat="22.4018755767" lon="114.0868748414"><ele>462.000</ele></trkpt>
      <trkpt lat="22.4019222339" lon="114.0868589192"><ele>462.000</ele></trkpt>
      <trkpt lat="22.4019587735" lon="114.0868321303"><ele>461.000</ele></trkpt>
      <trkpt lat="22.4019890883" lon="114.0868003264"><ele>461.000</ele></trkpt>
      <trkpt lat="22.4020061807" lon="114.0867668577"><ele>460.000</ele></trkpt>
      <trkpt lat="22.4020193686" lon="114.0867066270"><ele>458.000</ele></trkpt>
      <trkpt lat="22.4020216508" lon="114.0866146180"><ele>456.000</ele></trkpt>
      <trkpt lat="22.4020169241" lon="114.0865075584"><ele>453.000</ele></trkpt>
      <trkpt lat="22.4020153279" lon="114.0864339536"><ele>449.000</ele></trkpt>
      <trkpt lat="22.4020067392" lon="114.0863745732"><ele>447.000</ele></trkpt>
      <trkpt lat="22.4019864821" lon="114.0863118537"><ele>446.000</ele></trkpt>
      <trkpt lat="22.4019506634" lon="114.0862374349"><ele>444.000</ele></trkpt>
      <trkpt lat="22.4019405045" lon="114.0862187201"><ele>444.000</ele></trkpt>
      <trkpt lat="22.4018494497" lon="114.0860509771"><ele>442.000</ele></trkpt>
      <trkpt lat="22.4018144136" lon="114.0859840864"><ele>442.000</ele></trkpt>
      <trkpt lat="22.4017996140" lon="114.0859447832"><ele>442.000</ele></trkpt>
      <trkpt lat="22.4017865537" lon="114.0858943153"><ele>442.000</ele></trkpt>
      <trkpt lat="22.4017785576" lon="114.0858435896"><ele>440.000</ele></trkpt>
      <trkpt lat="22.4017800759" lon="114.0857783476"><ele>440.000</ele></trkpt>
      <trkpt lat="22.4017870476" lon="114.0857273208"><ele>440.000</ele></trkpt>
      <trkpt lat="22.4017971161" lon="114.0856528724"><ele>440.000</ele></trkpt>
      <trkpt lat="22.4018040468" lon="114.0855307494"><ele>438.000</ele></trkpt>
      <trkpt lat="22.4017993065" lon="114.0853994333"><ele>436.000</ele></trkpt>
      <trkpt lat="22.4017891595" lon="114.0853350350"><ele>434.000</ele></trkpt>
      <trkpt lat="22.4017689053" lon="114.0852781719"><ele>432.000</ele></trkpt>
      <trkpt lat="22.4017252911" lon="114.0851736466"><ele>432.000</ele></trkpt>
      <trkpt lat="22.4016770175" lon="114.0850808348"><ele>431.000</ele></trkpt>
      <trkpt lat="22.4016155150" lon="114.0849754862"><ele>432.000</ele></trkpt>
      <trkpt lat="22.4015773651" lon="114.0849060874"><ele>431.000</ele></trkpt>
      <trkpt lat="22.4015353409" lon="114.0848617843"><ele>430.000</ele></trkpt>
      <trkpt lat="22.4014941075" lon="114.0848409013"><ele>428.000</ele></trkpt>
      <trkpt lat="22.4014349894" lon="114.0848250481"><ele>428.000</ele></trkpt>
      <trkpt lat="22.4013331788" lon="114.0847950488"><ele>428.000</ele></trkpt>
      <trkpt lat="22.4012825203" lon="114.0847757997"><ele>428.000</ele></trkpt>
      <trkpt lat="22.4012436208" lon="114.0847557514"><ele>429.000</ele></trkpt>
      <trkpt lat="22.4011595938" lon="114.0847047848"><ele>426.000</ele></trkpt>
      <trkpt lat="22.4010926829" lon="114.0846646800"><ele>426.000</ele></trkpt>
      <trkpt lat="22.4009440827" lon="114.0845794634"><ele>424.000</ele></trkpt>
      <trkpt lat="22.4009054935" lon="114.0845587459"><ele>424.000</ele></trkpt>
      <trkpt lat="22.4008732852" lon="114.0845427071"><ele>424.000</ele></trkpt>
      <trkpt lat="22.4008281458" lon="114.0844992464"><ele>424.000</ele></trkpt>
      <trkpt lat="22.4008001241" lon="114.0844515858"><ele>424.000</ele></trkpt>
      <trkpt lat="22.4007824734" lon="114.0844100208"><ele>424.000</ele></trkpt>
      <trkpt lat="22.4007074457" lon="114.0842333410"><ele>422.000</ele></trkpt>
      <trkpt lat="22.4006715920" lon="114.0840995381"><ele>421.000</ele></trkpt>
      <trkpt lat="22.4006155272" lon="114.0839849853"><ele>420.000</ele></trkpt>
      <trkpt lat="22.4005781707" lon="114.0839423530"><ele>420.000</ele></trkpt>
      <trkpt lat="22.4005408189" lon="114.0839080852"><ele>420.000</ele></trkpt>
      <trkpt lat="22.4005120164" lon="114.0838646101"><ele>420.000</ele></trkpt>
      <trkpt lat="22.4004800919" lon="114.0838019003"><ele>420.000</ele></trkpt>
      <trkpt lat="22.4004722043" lon="114.0837574771"><ele>420.000</ele></trkpt>
      <trkpt lat="22.4004621231" lon="114.0836578915"><ele>420.000</ele></trkpt>
      <trkpt lat="22.4004520509" lon="114.0835583060"><ele>420.000</ele></trkpt>
      <trkpt lat="22.4004534613" lon="114.0834782234"><ele>422.000</ele></trkpt>
      <trkpt lat="22.4004674076" lon="114.0833853714"><ele>420.000</ele></trkpt>
      <trkpt lat="22.4004769737" lon="114.0833214240"><ele>420.000</ele></trkpt>
      <trkpt lat="22.4004611169" lon="114.0832666050"><ele>419.000</ele></trkpt>
      <trkpt lat="22.4004276502" lon="114.0832264788"><ele>420.000</ele></trkpt>
      <trkpt lat="22.4003778441" lon="114.0831763276"><ele>421.000</ele></trkpt>
      <trkpt lat="22.4003062518" lon="114.0831102980"><ele>420.000</ele></trkpt>
      <trkpt lat="22.4002015435" lon="114.0830144276"><ele>418.000</ele></trkpt>
      <trkpt lat="22.4000640236" lon="114.0828885155"><ele>414.000</ele></trkpt>
      <trkpt lat="22.3999265036" lon="114.0827626037"><ele>408.000</ele></trkpt>
      <trkpt lat="22.3999044091" lon="114.0827428857"><ele>406.000</ele></trkpt>
      <trkpt lat="22.3997654233" lon="114.0826188493"><ele>402.000</ele></trkpt>
      <trkpt lat="22.3997133035" lon="114.0826013192"><ele>400.000</ele></trkpt>
      <trkpt lat="22.3995423703" lon="114.0825765663"><ele>396.000</ele></trkpt>
      <trkpt lat="22.3993633759" lon="114.0825506460"><ele>392.000</ele></trkpt>
      <trkpt lat="22.3991843815" lon="114.0825247258"><ele>392.000</ele></trkpt>
      <trkpt lat="22.3991226324" lon="114.0825141535"><ele>391.000</ele></trkpt>
      <trkpt lat="22.3989442689" lon="114.0824836154"><ele>390.000</ele></trkpt>
      <trkpt lat="22.3987659053" lon="114.0824530772"><ele>390.000</ele></trkpt>
      <trkpt lat="22.3987168945" lon="114.0824322006"><ele>390.000</ele></trkpt>
      <trkpt lat="22.3986834355" lon="114.0824071307"><ele>392.000</ele></trkpt>
      <trkpt lat="22.3986558645" lon="114.0823717162"><ele>392.000</ele></trkpt>
      <trkpt lat="22.3985842007" lon="114.0822519335"><ele>394.000</ele></trkpt>
      <trkpt lat="22.3984864764" lon="114.0820885926"><ele>396.000</ele></trkpt>
      <trkpt lat="22.3984607771" lon="114.0820325711"><ele>396.000</ele></trkpt>
      <trkpt lat="22.3984293621" lon="114.0819237136"><ele>396.000</ele></trkpt>
      <trkpt lat="22.3983758286" lon="114.0817382130"><ele>396.000</ele></trkpt>
      <trkpt lat="22.3983541035" lon="114.0816684035"><ele>396.000</ele></trkpt>
      <trkpt lat="22.3982967832" lon="114.0814842163"><ele>394.000</ele></trkpt>
      <trkpt lat="22.3982394627" lon="114.0813000293"><ele>394.000</ele></trkpt>
      <trkpt lat="22.3982153146" lon="114.0812364797"><ele>394.000</ele></trkpt>
      <trkpt lat="22.3981849529" lon="114.0811888251"><ele>394.000</ele></trkpt>
      <trkpt lat="22.3981530485" lon="114.0811604090"><ele>394.000</ele></trkpt>
      <trkpt lat="22.3981055917" lon="114.0811378586"><ele>394.000</ele></trkpt>
      <trkpt lat="22.3980542557" lon="114.0811312025"><ele>394.000</ele></trkpt>
      <trkpt lat="22.3979484875" lon="114.0811429850"><ele>394.000</ele></trkpt>
      <trkpt lat="22.3978753795" lon="114.0811463806"><ele>394.000</ele></trkpt>
      <trkpt lat="22.3978271570" lon="114.0811439041"><ele>394.000</ele></trkpt>
      <trkpt lat="22.3977695950" lon="114.0811305612"><ele>396.000</ele></trkpt>
      <trkpt lat="22.3977182516" lon="114.0811113591"><ele>397.000</ele></trkpt>
      <trkpt lat="22.3976715698" lon="114.0810846255"><ele>396.000</ele></trkpt>
      <trkpt lat="22.3976165954" lon="114.0810307038"><ele>398.000</ele></trkpt>
      <trkpt lat="22.3975742818" lon="114.0809692695"><ele>400.000</ele></trkpt>
      <trkpt lat="22.3974995463" lon="114.0808505517"><ele>400.000</ele></trkpt>
      <trkpt lat="22.3974715105" lon="114.0807886774"><ele>400.000</ele></trkpt>
      <trkpt lat="22.3974567007" lon="114.0807343214"><ele>400.000</ele></trkpt>
      <trkpt lat="22.3974512269" lon="114.0806849769"><ele>401.000</ele></trkpt>
      <trkpt lat="22.3974449561" lon="114.0806030143"><ele>402.000</ele></trkpt>
      <trkpt lat="22.3974293264" lon="114.0804775649"><ele>404.000</ele></trkpt>
      <trkpt lat="22.3973996731" lon="114.0803128146"><ele>406.000</ele></trkpt>
      <trkpt lat="22.3973801907" lon="114.0802492613"><ele>406.000</ele></trkpt>
      <trkpt lat="22.3973552672" lon="114.0801898946"><ele>408.000</ele></trkpt>
      <trkpt lat="22.3972954577" lon="114.0800834742"><ele>409.000</ele></trkpt>
      <trkpt lat="22.3972852000" lon="114.0800606836"><ele>408.000</ele></trkpt>
      <trkpt lat="22.3972065136" lon="114.0798858586"><ele>412.000</ele></trkpt>
      <trkpt lat="22.3971278271" lon="114.0797110338"><ele>412.000</ele></trkpt>
      <trkpt lat="22.3970834600" lon="114.0795753292"><ele>410.000</ele></trkpt>
      <trkpt lat="22.3970275045" lon="114.0794661738"><ele>410.000</ele></trkpt>
      <trkpt lat="22.3969798807" lon="114.0793962174"><ele>410.000</ele></trkpt>
      <trkpt lat="22.3969572919" lon="114.0793154834"><ele>409.000</ele></trkpt>
      <trkpt lat="22.3969549429" lon="114.0792642791"><ele>409.000</ele></trkpt>
      <trkpt lat="22.3969689116" lon="114.0792140851"><ele>408.000</ele></trkpt>
      <trkpt lat="22.3969992017" lon="114.0791438063"><ele>408.000</ele></trkpt>
      <trkpt lat="22.3970201320" lon="114.0790965841"><ele>409.000</ele></trkpt>
      <trkpt lat="22.3970978427" lon="114.0789212554"><ele>408.000</ele></trkpt>
      <trkpt lat="22.3971646467" lon="114.0787840397"><ele>406.000</ele></trkpt>
      <trkpt lat="22.3972190368" lon="114.0786953428"><ele>406.000</ele></trkpt>
      <trkpt lat="22.3972532157" lon="114.0786258981"><ele>404.000</ele></trkpt>
      <trkpt lat="22.3972726207" lon="114.0785623179"><ele>402.000</ele></trkpt>
      <trkpt lat="22.3972764806" lon="114.0785138040"><ele>402.000</ele></trkpt>
      <trkpt lat="22.3972608951" lon="114.0784636316"><ele>402.000</ele></trkpt>
      <trkpt lat="22.3972375305" lon="114.0784117913"><ele>402.000</ele></trkpt>
      <trkpt lat="22.3972056095" lon="114.0783582838"><ele>400.000</ele></trkpt>
      <trkpt lat="22.3971791429" lon="114.0783198281"><ele>398.000</ele></trkpt>
      <trkpt lat="22.3971464678" lon="114.0783047956"><ele>398.000</ele></trkpt>
      <trkpt lat="22.3971052427" lon="114.0782989706"><ele>396.000</ele></trkpt>
      <trkpt lat="22.3970313542" lon="114.0782973494"><ele>396.000</ele></trkpt>
      <trkpt lat="22.3969745746" lon="114.0782923707"><ele>396.000</ele></trkpt>
      <trkpt lat="22.3969325684" lon="114.0782806913"><ele>396.000</ele></trkpt>
      <trkpt lat="22.3968913234" lon="114.0782405728"><ele>394.000</ele></trkpt>
      <trkpt lat="22.3968565532" lon="114.0781783671"><ele>394.000</ele></trkpt>
      <trkpt lat="22.3968235573" lon="114.0780758505"><ele>394.000</ele></trkpt>
      <trkpt lat="22.3968063870" lon="114.0779788407"><ele>392.000</ele></trkpt>
      <trkpt lat="22.3968008990" lon="114.0779060786"><ele>392.000</ele></trkpt>
      <trkpt lat="22.3968039644" lon="114.0778316362"><ele>390.000</ele></trkpt>
      <trkpt lat="22.3968015869" lon="114.0777597081"><ele>388.000</ele></trkpt>
      <trkpt lat="22.3967625860" lon="114.0775757285"><ele>388.000</ele></trkpt>
      <trkpt lat="22.3967446636" lon="114.0775205392"><ele>386.000</ele></trkpt>
      <trkpt lat="22.3967244139" lon="114.0774753882"><ele>386.000</ele></trkpt>
      <trkpt lat="22.3966958119" lon="114.0774436739"><ele>384.000</ele></trkpt>
      <trkpt lat="22.3965804419" lon="114.0773349757"><ele>382.000</ele></trkpt>
      <trkpt lat="22.3965197372" lon="114.0772706164"><ele>380.000</ele></trkpt>
      <trkpt lat="22.3964566830" lon="114.0771803307"><ele>380.000</ele></trkpt>
      <trkpt lat="22.3964403207" lon="114.0771335048"><ele>380.000</ele></trkpt>
      <trkpt lat="22.3964247265" lon="114.0770699496"><ele>380.000</ele></trkpt>
      <trkpt lat="22.3964153511" lon="114.0770013723"><ele>380.000</ele></trkpt>
      <trkpt lat="22.3964168612" lon="114.0769286045"><ele>380.000</ele></trkpt>
      <trkpt lat="22.3964214961" lon="114.0768767448"><ele>382.000</ele></trkpt>
      <trkpt lat="22.3964501691" lon="114.0767077729"><ele>382.000</ele></trkpt>
      <trkpt lat="22.3964558175" lon="114.0766634771"><ele>382.000</ele></trkpt>
      <trkpt lat="22.3964803549" lon="114.0764710520"><ele>382.000</ele></trkpt>
      <trkpt lat="22.3964826390" lon="114.0763915925"><ele>382.000</ele></trkpt>
      <trkpt lat="22.3964825829" lon="114.0763012619"><ele>382.000</ele></trkpt>
      <trkpt lat="22.3964903131" lon="114.0762259812"><ele>384.000</ele></trkpt>
      <trkpt lat="22.3965034814" lon="114.0761389866"><ele>384.000</ele></trkpt>
      <trkpt lat="22.3965204441" lon="114.0760647451"><ele>385.000</ele></trkpt>
      <trkpt lat="22.3965252614" lon="114.0760459721"><ele>384.000</ele></trkpt>
      <trkpt lat="22.3965733048" lon="114.0758587438"><ele>386.000</ele></trkpt>
      <trkpt lat="22.3965803550" lon="114.0758172589"><ele>386.000</ele></trkpt>
      <trkpt lat="22.3966128250" lon="114.0756261974"><ele>386.000</ele></trkpt>
      <trkpt lat="22.3966135823" lon="114.0756192050"><ele>386.000</ele></trkpt>
      <trkpt lat="22.3966344777" lon="114.0754262831"><ele>388.000</ele></trkpt>
      <trkpt lat="22.3966274279" lon="114.0753476664"><ele>390.000</ele></trkpt>
      <trkpt lat="22.3965931328" lon="114.0752297601"><ele>390.000</ele></trkpt>
      <trkpt lat="22.3965373503" lon="114.0751001188"><ele>392.000</ele></trkpt>
      <trkpt lat="22.3965324586" lon="114.0750888527"><ele>392.000</ele></trkpt>
      <trkpt lat="22.3964560473" lon="114.0749128655"><ele>392.000</ele></trkpt>
      <trkpt lat="22.3964155606" lon="114.0748451471"><ele>392.000</ele></trkpt>
      <trkpt lat="22.3963836318" lon="114.0747799319"><ele>392.000</ele></trkpt>
      <trkpt lat="22.3963509093" lon="114.0746904613"><ele>392.000</ele></trkpt>
      <trkpt lat="22.3963384209" lon="114.0746202141"><ele>392.000</ele></trkpt>
      <trkpt lat="22.3963383860" lon="114.0745650113"><ele>393.000</ele></trkpt>
      <trkpt lat="22.3963476767" lon="114.0744980937"><ele>396.000</ele></trkpt>
      <trkpt lat="22.3963670692" lon="114.0744161123"><ele>396.000</ele></trkpt>
      <trkpt lat="22.3963678049" lon="114.0743500372"><ele>398.000</ele></trkpt>
      <trkpt lat="22.3963495010" lon="114.0743044153"><ele>398.000</ele></trkpt>
      <trkpt lat="22.3962993627" lon="114.0742317728"><ele>396.000</ele></trkpt>
      <trkpt lat="22.3962300071" lon="114.0741385303"><ele>394.000</ele></trkpt>
      <trkpt lat="22.3961685254" lon="114.0740783558"><ele>394.000</ele></trkpt>
      <trkpt lat="22.3961210615" lon="114.0740449344"><ele>393.000</ele></trkpt>
      <trkpt lat="22.3960813433" lon="114.0740246845"><ele>392.000</ele></trkpt>
      <trkpt lat="22.3959886592" lon="114.0739897630"><ele>392.000</ele></trkpt>
      <trkpt lat="22.3959335752" lon="114.0739731428"><ele>390.000</ele></trkpt>
      <trkpt lat="22.3957826651" lon="114.0739339437"><ele>390.000</ele></trkpt>
      <trkpt lat="22.3956667498" lon="114.0738888639"><ele>388.000</ele></trkpt>
      <trkpt lat="22.3956099536" lon="114.0738579590"><ele>386.000</ele></trkpt>
      <trkpt lat="22.3955624845" lon="114.0738178477"><ele>384.000</ele></trkpt>
      <trkpt lat="22.3954916646" lon="114.0737484791"><ele>384.000</ele></trkpt>
      <trkpt lat="22.3954208476" lon="114.0736849655"><ele>382.000</ele></trkpt>
      <trkpt lat="22.3953593693" lon="114.0736289732"><ele>382.000</ele></trkpt>
      <trkpt lat="22.3953017859" lon="114.0735830147"><ele>380.000</ele></trkpt>
      <trkpt lat="22.3952442095" lon="114.0735496011"><ele>380.000</ele></trkpt>
      <trkpt lat="22.3951944196" lon="114.0735278925"><ele>378.000</ele></trkpt>
      <trkpt lat="22.3950645058" lon="114.0734853320"><ele>374.000</ele></trkpt>
      <trkpt lat="22.3949797077" lon="114.0734502664"><ele>374.000</ele></trkpt>
      <trkpt lat="22.3949236877" lon="114.0734160167"><ele>373.000</ele></trkpt>
      <trkpt lat="22.3948046404" lon="114.0733383210"><ele>370.000</ele></trkpt>
      <trkpt lat="22.3947657470" lon="114.0733299856"><ele>370.000</ele></trkpt>
      <trkpt lat="22.3947268590" lon="114.0733300144"><ele>370.000</ele></trkpt>
      <trkpt lat="22.3945907612" lon="114.0733468426"><ele>369.000</ele></trkpt>
      <trkpt lat="22.3945332141" lon="114.0733577588"><ele>368.000</ele></trkpt>
      <trkpt lat="22.3945005598" lon="114.0733761827"><ele>368.000</ele></trkpt>
      <trkpt lat="22.3944648117" lon="114.0734213738"><ele>368.000</ele></trkpt>
      <trkpt lat="22.3944485043" lon="114.0734606966"><ele>366.000</ele></trkpt>
      <trkpt lat="22.3943933649" lon="114.0735878670"><ele>366.000</ele></trkpt>
      <trkpt lat="22.3942783461" lon="114.0737293006"><ele>364.000</ele></trkpt>
      <trkpt lat="22.3941990656" lon="114.0738088146"><ele>362.000</ele></trkpt>
      <trkpt lat="22.3941615524" lon="114.0738337243"><ele>361.000</ele></trkpt>
      <trkpt lat="22.3940078786" lon="114.0739357674"><ele>358.000</ele></trkpt>
      <trkpt lat="22.3938542047" lon="114.0740378102"><ele>356.000</ele></trkpt>
      <trkpt lat="22.3938302703" lon="114.0740519436"><ele>356.000</ele></trkpt>
      <trkpt lat="22.3936719581" lon="114.0741454276"><ele>354.000</ele></trkpt>
      <trkpt lat="22.3935716520" lon="114.0741856469"><ele>352.000</ele></trkpt>
      <trkpt lat="22.3935172137" lon="114.0741932149"><ele>352.000</ele></trkpt>
      <trkpt lat="22.3934682056" lon="114.0741781958"><ele>350.000</ele></trkpt>
      <trkpt lat="22.3933483790" lon="114.0740971555"><ele>348.000</ele></trkpt>
      <trkpt lat="22.3932651196" lon="114.0740361611"><ele>346.000</ele></trkpt>
      <trkpt lat="22.3932409894" lon="114.0740052326"><ele>346.000</ele></trkpt>
      <trkpt lat="22.3932300732" lon="114.0739609125"><ele>346.000</ele></trkpt>
      <trkpt lat="22.3932471577" lon="114.0739207543"><ele>346.000</ele></trkpt>
      <trkpt lat="22.3932759256" lon="114.0739056781"><ele>344.000</ele></trkpt>
      <trkpt lat="22.3933054764" lon="114.0738989654"><ele>344.000</ele></trkpt>
      <trkpt lat="22.3933925780" lon="114.0738871926"><ele>344.000</ele></trkpt>
      <trkpt lat="22.3934680137" lon="114.0738762636"><ele>344.000</ele></trkpt>
      <trkpt lat="22.3935224455" lon="114.0738586600"><ele>342.000</ele></trkpt>
      <trkpt lat="22.3935597668" lon="114.0738402320"><ele>344.000</ele></trkpt>
      <trkpt lat="22.3935986394" lon="114.0738159489"><ele>342.000</ele></trkpt>
      <trkpt lat="22.3936468279" lon="114.0737648942"><ele>342.000</ele></trkpt>
      <trkpt lat="22.3936802421" lon="114.0737188681"><ele>342.000</ele></trkpt>
      <trkpt lat="22.3937012161" lon="114.0736787069"><ele>340.000</ele></trkpt>
      <trkpt lat="22.3937128585" lon="114.0736410610"><ele>340.000</ele></trkpt>
      <trkpt lat="22.3937073948" lon="114.0736109557"><ele>340.000</ele></trkpt>
      <trkpt lat="22.3936793803" lon="114.0735867210"><ele>340.000</ele></trkpt>
      <trkpt lat="22.3936537133" lon="114.0735859038"><ele>340.000</ele></trkpt>
      <trkpt lat="22.3936210489" lon="114.0735884372"><ele>338.000</ele></trkpt>
      <trkpt lat="22.3935798359" lon="114.0736018496"><ele>338.000</ele></trkpt>
      <trkpt lat="22.3934795400" lon="114.0736562882"><ele>336.000</ele></trkpt>
      <trkpt lat="22.3934445512" lon="114.0736730414"><ele>336.000</ele></trkpt>
      <trkpt lat="22.3933994384" lon="114.0736688931"><ele>334.000</ele></trkpt>
      <trkpt lat="22.3933652083" lon="114.0736547003"><ele>334.000</ele></trkpt>
      <trkpt lat="22.3933270770" lon="114.0736221090"><ele>334.000</ele></trkpt>
      <trkpt lat="22.3932829808" lon="114.0735566383"><ele>332.000</ele></trkpt>
      <trkpt lat="22.3932138529" lon="114.0733879789"><ele>328.000</ele></trkpt>
      <trkpt lat="22.3931728487" lon="114.0732592366"><ele>326.000</ele></trkpt>
      <trkpt lat="22.3931700576" lon="114.0732486921"><ele>324.000</ele></trkpt>
      <trkpt lat="22.3931206117" lon="114.0730618911"><ele>322.000</ele></trkpt>
      <trkpt lat="22.3931040661" lon="114.0729859082"><ele>320.000</ele></trkpt>
      <trkpt lat="22.3930628873" lon="114.0727968025"><ele>316.000</ele></trkpt>
      <trkpt lat="22.3930553516" lon="114.0727618839"><ele>316.000</ele></trkpt>
      <trkpt lat="22.3930145219" lon="114.0725726908"><ele>314.000</ele></trkpt>
      <trkpt lat="22.3929786510" lon="114.0724271886"><ele>312.000</ele></trkpt>
      <trkpt lat="22.3929545075" lon="114.0723761877"><ele>311.000</ele></trkpt>
      <trkpt lat="22.3929241442" lon="114.0723285369"><ele>310.000</ele></trkpt>
      <trkpt lat="22.3928564392" lon="114.0722675321"><ele>308.000</ele></trkpt>
      <trkpt lat="22.3927633034" lon="114.0721664565"><ele>306.000</ele></trkpt>
      <trkpt lat="22.3926361786" lon="114.0720284947"><ele>302.000</ele></trkpt>
      <trkpt lat="22.3926011564" lon="114.0719933932"><ele>304.000</ele></trkpt>
      <trkpt lat="22.3925700176" lon="114.0719490887"><ele>302.000</ele></trkpt>
      <trkpt lat="22.3925435399" lon="114.0718972536"><ele>300.000</ele></trkpt>
      <trkpt lat="22.3925372908" lon="114.0718554397"><ele>300.000</ele></trkpt>
      <trkpt lat="22.3925427070" lon="114.0718119448"><ele>300.000</ele></trkpt>
      <trkpt lat="22.3925644553" lon="114.0717676006"><ele>298.000</ele></trkpt>
      <trkpt lat="22.3925986512" lon="114.0717274295"><ele>298.000</ele></trkpt>
      <trkpt lat="22.3926320779" lon="114.0717014769"><ele>298.000</ele></trkpt>
      <trkpt lat="22.3926701739" lon="114.0716805384"><ele>298.000</ele></trkpt>
      <trkpt lat="22.3927068117" lon="114.0716711417"><ele>297.000</ele></trkpt>
      <trkpt lat="22.3927339745" lon="114.0716680672"><ele>296.000</ele></trkpt>
      <trkpt lat="22.3929135923" lon="114.0716477369"><ele>296.000</ele></trkpt>
      <trkpt lat="22.3929454733" lon="114.0716376766"><ele>296.000</ele></trkpt>
      <trkpt lat="22.3929703476" lon="114.0716150758"><ele>296.000</ele></trkpt>
      <trkpt lat="22.3929835436" lon="114.0715757565"><ele>296.000</ele></trkpt>
      <trkpt lat="22.3929839864" lon="114.0715346483"><ele>296.000</ele></trkpt>
      <trkpt lat="22.3929609173" lon="114.0714670447"><ele>296.000</ele></trkpt>
      <trkpt lat="22.3929219758" lon="114.0713851098"><ele>296.000</ele></trkpt>
      <trkpt lat="22.3928962650" lon="114.0713157098"><ele>295.000</ele></trkpt>
      <trkpt lat="22.3928837795" lon="114.0712521546"><ele>295.000</ele></trkpt>
      <trkpt lat="22.3928784353" lon="114.0711844794"><ele>295.000</ele></trkpt>
      <trkpt lat="22.3928728113" lon="114.0711308893"><ele>294.000</ele></trkpt>
      <trkpt lat="22.3928650005" lon="114.0710807124"><ele>295.000</ele></trkpt>
      <trkpt lat="22.3928385054" lon="114.0710012777"><ele>294.000</ele></trkpt>
      <trkpt lat="22.3928034682" lon="114.0709435934"><ele>292.000</ele></trkpt>
      <trkpt lat="22.3927637719" lon="114.0708967871"><ele>292.000</ele></trkpt>
      <trkpt lat="22.3927186411" lon="114.0708650390"><ele>292.000</ele></trkpt>
      <trkpt lat="22.3926595091" lon="114.0708316293"><ele>290.000</ele></trkpt>
      <trkpt lat="22.3925505885" lon="114.0707790208"><ele>290.000</ele></trkpt>
      <trkpt lat="22.3924517855" lon="114.0707372772"><ele>290.000</ele></trkpt>
      <trkpt lat="22.3924206635" lon="114.0707205726"><ele>290.000</ele></trkpt>
      <trkpt lat="22.3923949782" lon="114.0706904831"><ele>290.000</ele></trkpt>
      <trkpt lat="22.3923832903" lon="114.0706578736"><ele>290.000</ele></trkpt>
      <trkpt lat="22.3923848063" lon="114.0705984906"><ele>290.000</ele></trkpt>
      <trkpt lat="22.3924049904" lon="114.0705407656"><ele>290.000</ele></trkpt>
      <trkpt lat="22.3924368481" lon="114.0704939042"><ele>290.000</ele></trkpt>
      <trkpt lat="22.3924834796" lon="114.0704428499"><ele>290.000</ele></trkpt>
      <trkpt lat="22.3925363434" lon="114.0704060098"><ele>288.000</ele></trkpt>
      <trkpt lat="22.3925829951" lon="114.0703842284"><ele>288.000</ele></trkpt>
      <trkpt lat="22.3925938771" lon="114.0703812328"><ele>288.000</ele></trkpt>
      <trkpt lat="22.3927688453" lon="114.0703330680"><ele>288.000</ele></trkpt>
      <trkpt lat="22.3928053875" lon="114.0703129675"><ele>288.000</ele></trkpt>
      <trkpt lat="22.3928504750" lon="114.0702786415"><ele>290.000</ele></trkpt>
      <trkpt lat="22.3928737876" lon="114.0702476785"><ele>292.000</ele></trkpt>
      <trkpt lat="22.3928869810" lon="114.0702050136"><ele>291.000</ele></trkpt>
      <trkpt lat="22.3928869181" lon="114.0701096667"><ele>288.000</ele></trkpt>
      <trkpt lat="22.3928884382" lon="114.0700553012"><ele>288.000</ele></trkpt>
      <trkpt lat="22.3928969591" lon="114.0700042757"><ele>287.000</ele></trkpt>
      <trkpt lat="22.3929132561" lon="114.0699490628"><ele>288.000</ele></trkpt>
      <trkpt lat="22.3929544195" lon="114.0698612123"><ele>288.000</ele></trkpt>
      <trkpt lat="22.3929769486" lon="114.0698227218"><ele>288.000</ele></trkpt>
      <trkpt lat="22.3930025946" lon="114.0697917569"><ele>286.000</ele></trkpt>
      <trkpt lat="22.3930329122" lon="114.0697691516"><ele>286.000</ele></trkpt>
      <trkpt lat="22.3930593462" lon="114.0697540763"><ele>286.000</ele></trkpt>
      <trkpt lat="22.3931557590" lon="114.0697096744"><ele>286.000</ele></trkpt>
      <trkpt lat="22.3932358427" lon="114.0696719759"><ele>284.000</ele></trkpt>
      <trkpt lat="22.3932723798" lon="114.0696443480"><ele>284.000</ele></trkpt>
      <trkpt lat="22.3933011320" lon="114.0696075249"><ele>282.000</ele></trkpt>
      <trkpt lat="22.3933244278" lon="114.0695514702"><ele>284.000</ele></trkpt>
      <trkpt lat="22.3933407077" lon="114.0694720017"><ele>282.000</ele></trkpt>
      <trkpt lat="22.3933538840" lon="114.0694025729"><ele>282.000</ele></trkpt>
      <trkpt lat="22.3933709416" lon="114.0693222676"><ele>282.000</ele></trkpt>
      <trkpt lat="22.3933701354" lon="114.0692804494"><ele>280.000</ele></trkpt>
      <trkpt lat="22.3933576658" lon="114.0692419856"><ele>282.000</ele></trkpt>
      <trkpt lat="22.3933249686" lon="114.0691951742"><ele>282.000</ele></trkpt>
      <trkpt lat="22.3932848391" lon="114.0691642977"><ele>282.000</ele></trkpt>
      <trkpt lat="22.3932533828" lon="114.0691475557"><ele>281.000</ele></trkpt>
      <trkpt lat="22.3932214891" lon="114.0691383800"><ele>281.000</ele></trkpt>
      <trkpt lat="22.3931802671" lon="114.0691375756"><ele>280.000</ele></trkpt>
      <trkpt lat="22.3931196053" lon="114.0691426400"><ele>280.000</ele></trkpt>
      <trkpt lat="22.3930698996" lon="114.0691575294"><ele>280.000</ele></trkpt>
      <trkpt lat="22.3930364048" lon="114.0691728142"><ele>281.000</ele></trkpt>
      <trkpt lat="22.3929477780" lon="114.0692289191"><ele>280.000</ele></trkpt>
      <trkpt lat="22.3929050117" lon="114.0692456793"><ele>280.000</ele></trkpt>
      <trkpt lat="22.3928606870" lon="114.0692574230"><ele>280.000</ele></trkpt>
      <trkpt lat="22.3928155825" lon="114.0692658208"><ele>280.000</ele></trkpt>
      <trkpt lat="22.3927572531" lon="114.0692692111"><ele>280.000</ele></trkpt>
      <trkpt lat="22.3926996857" lon="114.0692491827"><ele>280.000</ele></trkpt>
      <trkpt lat="22.3926638937" lon="114.0692266282"><ele>280.000</ele></trkpt>
      <trkpt lat="22.3926171982" lon="114.0691823362"><ele>280.000</ele></trkpt>
      <trkpt lat="22.3925868344" lon="114.0691355233"><ele>280.000</ele></trkpt>
      <trkpt lat="22.3925595817" lon="114.0690887070"><ele>280.000</ele></trkpt>
      <trkpt lat="22.3925432170" lon="114.0690418833"><ele>280.000</ele></trkpt>
      <trkpt lat="22.3925315213" lon="114.0689967283"><ele>279.000</ele></trkpt>
      <trkpt lat="22.3925229318" lon="114.0689457162"><ele>279.000</ele></trkpt>
      <trkpt lat="22.3925259965" lon="114.0688762955"><ele>278.000</ele></trkpt>
      <trkpt lat="22.3925368453" lon="114.0688160681"><ele>276.000</ele></trkpt>
      <trkpt lat="22.3925601282" lon="114.0687424493"><ele>276.000</ele></trkpt>
      <trkpt lat="22.3925919261" lon="114.0686069326"><ele>274.000</ele></trkpt>
      <trkpt lat="22.3926128511" lon="114.0684956795"><ele>272.000</ele></trkpt>
      <trkpt lat="22.3926275647" lon="114.0684003213"><ele>270.000</ele></trkpt>
      <trkpt lat="22.3926189677" lon="114.0683384366"><ele>270.000</ele></trkpt>
      <trkpt lat="22.3926025947" lon="114.0682782303"><ele>270.000</ele></trkpt>
      <trkpt lat="22.3925784393" lon="114.0682113391"><ele>268.000</ele></trkpt>
      <trkpt lat="22.3925426198" lon="114.0681494756"><ele>268.000</ele></trkpt>
      <trkpt lat="22.3925091504" lon="114.0681110285"><ele>268.000</ele></trkpt>
      <trkpt lat="22.3924554503" lon="114.0680583793"><ele>266.000</ele></trkpt>
      <trkpt lat="22.3924173100" lon="114.0680140810"><ele>266.000</ele></trkpt>
      <trkpt lat="22.3923884982" lon="114.0679630847"><ele>266.000</ele></trkpt>
      <trkpt lat="22.3923378518" lon="114.0678267961"><ele>263.000</ele></trkpt>
      <trkpt lat="22.3922973648" lon="114.0677615911"><ele>262.000</ele></trkpt>
      <trkpt lat="22.3922708993" lon="114.0677298295"><ele>261.000</ele></trkpt>
      <trkpt lat="22.3922304331" lon="114.0676955696"><ele>262.000</ele></trkpt>
      <trkpt lat="22.3921689591" lon="114.0676504537"><ele>258.000</ele></trkpt>
      <trkpt lat="22.3921378344" lon="114.0676287331"><ele>258.000</ele></trkpt>
      <trkpt lat="22.3921125339" lon="114.0675997491"><ele>259.000</ele></trkpt>
      <trkpt lat="22.3920599826" lon="114.0675167203"><ele>260.000</ele></trkpt>
      <trkpt lat="22.3920124916" lon="114.0674465023"><ele>258.000</ele></trkpt>
      <trkpt lat="22.3919634675" lon="114.0674089038"><ele>259.000</ele></trkpt>
      <trkpt lat="22.3918879955" lon="114.0673654723"><ele>257.000</ele></trkpt>
      <trkpt lat="22.3918187543" lon="114.0673362537"><ele>254.000</ele></trkpt>
      <trkpt lat="22.3917285211" lon="114.0673170879"><ele>254.000</ele></trkpt>
      <trkpt lat="22.3916919564" lon="114.0673020616"><ele>254.000</ele></trkpt>
      <trkpt lat="22.3916566453" lon="114.0672767106"><ele>254.000</ele></trkpt>
      <trkpt lat="22.3916335931" lon="114.0672552714"><ele>252.000</ele></trkpt>
      <trkpt lat="22.3916016768" lon="114.0672143142"><ele>254.000</ele></trkpt>
      <trkpt lat="22.3915721014" lon="114.0671842285"><ele>252.000</ele></trkpt>
      <trkpt lat="22.3915293061" lon="114.0671566616"><ele>252.000</ele></trkpt>
      <trkpt lat="22.3914446177" lon="114.0671295325"><ele>251.000</ele></trkpt>
      <trkpt lat="22.3913970530" lon="114.0671065831"><ele>250.000</ele></trkpt>
      <trkpt lat="22.3913667051" lon="114.0670840250"><ele>249.000</ele></trkpt>
      <trkpt lat="22.3913192304" lon="114.0670380625"><ele>248.000</ele></trkpt>
      <trkpt lat="22.3912499564" lon="114.0669594991"><ele>248.000</ele></trkpt>
      <trkpt lat="22.3912265944" lon="114.0669168632"><ele>246.000</ele></trkpt>
      <trkpt lat="22.3912141185" lon="114.0668700362"><ele>248.000</ele></trkpt>
      <trkpt lat="22.3912125427" lon="114.0668407648"><ele>246.000</ele></trkpt>
      <trkpt lat="22.3912226285" lon="114.0668031202"><ele>246.000</ele></trkpt>
      <trkpt lat="22.3912401784" lon="114.0667739620"><ele>246.000</ele></trkpt>
      <trkpt lat="22.3912863545" lon="114.0667294699"><ele>244.000</ele></trkpt>
      <trkpt lat="22.3913609774" lon="114.0666675204"><ele>242.000</ele></trkpt>
      <trkpt lat="22.3914340449" lon="114.0666064082"><ele>242.000</ele></trkpt>
      <trkpt lat="22.3915265432" lon="114.0665252081"><ele>239.000</ele></trkpt>
      <trkpt lat="22.3915506292" lon="114.0664892255"><ele>238.000</ele></trkpt>
      <trkpt lat="22.3915595599" lon="114.0664554535"><ele>236.000</ele></trkpt>
      <trkpt lat="22.3915606698" lon="114.0663855085"><ele>234.000</ele></trkpt>
      <trkpt lat="22.3915660797" lon="114.0663361590"><ele>231.000</ele></trkpt>
      <trkpt lat="22.3915800494" lon="114.0662918203"><ele>228.000</ele></trkpt>
      <trkpt lat="22.3916002480" lon="114.0662575130"><ele>227.000</ele></trkpt>
      <trkpt lat="22.3916217459" lon="114.0662336546"><ele>227.000</ele></trkpt>
      <trkpt lat="22.3916608758" lon="114.0662031012"><ele>226.000</ele></trkpt>
      <trkpt lat="22.3917324041" lon="114.0661654088"><ele>226.000</ele></trkpt>
      <trkpt lat="22.3918043633" lon="114.0661318752"><ele>226.000</ele></trkpt>
      <trkpt lat="22.3918350139" lon="114.0660858724"><ele>224.000</ele></trkpt>
      <trkpt lat="22.3918412032" lon="114.0660381944"><ele>224.000</ele></trkpt>
      <trkpt lat="22.3918364999" lon="114.0659838341"><ele>224.000</ele></trkpt>
      <trkpt lat="22.3918263684" lon="114.0659545694"><ele>227.000</ele></trkpt>
      <trkpt lat="22.3918042193" lon="114.0659216716"><ele>226.000</ele></trkpt>
      <trkpt lat="22.3917827782" lon="114.0659019132"><ele>230.000</ele></trkpt>
      <trkpt lat="22.3917337598" lon="114.0658743515"><ele>230.000</ele></trkpt>
      <trkpt lat="22.3917049774" lon="114.0658660113"><ele>232.000</ele></trkpt>
      <trkpt lat="22.3915960839" lon="114.0658552243"><ele>232.000</ele></trkpt>
      <trkpt lat="22.3915470890" lon="114.0658619550"><ele>231.000</ele></trkpt>
      <trkpt lat="22.3915167593" lon="114.0658661606"><ele>231.000</ele></trkpt>
      <trkpt lat="22.3914872118" lon="114.0658770565"><ele>230.000</ele></trkpt>
      <trkpt lat="22.3914254089" lon="114.0659100761"><ele>231.000</ele></trkpt>
      <trkpt lat="22.3912980597" lon="114.0659712227"><ele>230.000</ele></trkpt>
      <trkpt lat="22.3911331426" lon="114.0660504074"><ele>232.000</ele></trkpt>
      <trkpt lat="22.3910730591" lon="114.0660716637"><ele>231.000</ele></trkpt>
      <trkpt lat="22.3909600628" lon="114.0661292194"><ele>232.000</ele></trkpt>
      <trkpt lat="22.3909245535" lon="114.0661390973"><ele>232.000</ele></trkpt>
      <trkpt lat="22.3908679912" lon="114.0661460077"><ele>233.000</ele></trkpt>
      <trkpt lat="22.3908255223" lon="114.0661468900"><ele>233.000</ele></trkpt>
      <trkpt lat="22.3908006405" lon="114.0661561098"><ele>233.000</ele></trkpt>
      <trkpt lat="22.3906661417" lon="114.0662348337"><ele>232.000</ele></trkpt>
      <trkpt lat="22.3905957541" lon="114.0662595686"><ele>232.000</ele></trkpt>
      <trkpt lat="22.3905596012" lon="114.0662541202"><ele>232.000</ele></trkpt>
      <trkpt lat="22.3905167981" lon="114.0662166701"><ele>232.000</ele></trkpt>
      <trkpt lat="22.3905070431" lon="114.0661740373"><ele>232.000</ele></trkpt>
      <trkpt lat="22.3905002679" lon="114.0660254953"><ele>238.000</ele></trkpt>
    </trkseg>
  </trk>
</gpx>
