<?xml version="1.0" encoding="UTF-8"?>
<gpx xmlns:xsi="http://www.w3.org/2001/XMLSchema-instance"
     xsi:schemaLocation="http://www.topografix.com/GPX/1/1 http://www.topografix.com/GPX/1/1/gpx.xsd"
     version="1.1" creator="json3d_batch_to_gpx"
     xmlns="http://www.topografix.com/GPX/1/1">
  <metadata>
    <name>MacLehoseTrail(Section1)PakTamChungtoLongKe</name>
  </metadata>
  <trk>
    <name>MacLehoseTrail(Section1)PakTamChungtoLongKe</name>
    <type>hike</type>
    <trkseg>
      <trkpt lat="22.4000219170" lon="114.3238991996"><ele>9.000</ele></trkpt>
      <trkpt lat="22.3999931872" lon="114.3240909571"><ele>8.000</ele></trkpt>
      <trkpt lat="22.3999915890" lon="114.3241016241"><ele>8.000</ele></trkpt>
      <trkpt lat="22.3999461775" lon="114.3242896148"><ele>8.000</ele></trkpt>
      <trkpt lat="22.3999442623" lon="114.3242975431"><ele>8.000</ele></trkpt>
      <trkpt lat="22.3998992755" lon="114.3244228521"><ele>8.000</ele></trkpt>
      <trkpt lat="22.3998458809" lon="114.3245385279"><ele>8.000</ele></trkpt>
      <trkpt lat="22.3997685186" lon="114.3246551495"><ele>9.000</ele></trkpt>
      <trkpt lat="22.3996533407" lon="114.3248047592"><ele>12.000</ele></trkpt>
      <trkpt lat="22.3995603714" lon="114.3249255210"><ele>15.000</ele></trkpt>
      <trkpt lat="22.3994426720" lon="114.3250591721"><ele>9.000</ele></trkpt>
      <trkpt lat="22.3993158787" lon="114.3251974923"><ele>10.000</ele></trkpt>
      <trkpt lat="22.3992422294" lon="114.3252778369"><ele>13.000</ele></trkpt>
      <trkpt lat="22.3991811286" lon="114.3253275919"><ele>15.000</ele></trkpt>
      <trkpt lat="22.3991007728" lon="114.3253992064"><ele>14.000</ele></trkpt>
      <trkpt lat="22.3990243686" lon="114.3254453518"><ele>24.000</ele></trkpt>
      <trkpt lat="22.3989368099" lon="114.3254836966"><ele>24.000</ele></trkpt>
      <trkpt lat="22.3988787635" lon="114.3255016302"><ele>17.000</ele></trkpt>
      <trkpt lat="22.3988349445" lon="114.3255148689"><ele>17.000</ele></trkpt>
      <trkpt lat="22.3987532016" lon="114.3255333309"><ele>16.000</ele></trkpt>
      <trkpt lat="22.3985772055" lon="114.3255769505"><ele>18.000</ele></trkpt>
      <trkpt lat="22.3984012094" lon="114.3256205701"><ele>26.000</ele></trkpt>
      <trkpt lat="22.3982734199" lon="114.3256522418"><ele>25.000</ele></trkpt>
      <trkpt lat="22.3980987993" lon="114.3257018444"><ele>34.000</ele></trkpt>
      <trkpt lat="22.3980975323" lon="114.3257022043"><ele>34.000</ele></trkpt>
      <trkpt lat="22.3979475710" lon="114.3257720152"><ele>34.000</ele></trkpt>
      <trkpt lat="22.3978712936" lon="114.3258274248"><ele>28.000</ele></trkpt>
      <trkpt lat="22.3977540932" lon="114.3259136515"><ele>29.000</ele></trkpt>
      <trkpt lat="22.3976404713" lon="114.3259972443"><ele>38.000</ele></trkpt>
      <trkpt lat="22.3974917775" lon="114.3261074921"><ele>32.000</ele></trkpt>
      <trkpt lat="22.3973430835" lon="114.3262177397"><ele>34.000</ele></trkpt>
      <trkpt lat="22.3972232210" lon="114.3263066103"><ele>36.000</ele></trkpt>
      <trkpt lat="22.3971842071" lon="114.3263383052"><ele>39.000</ele></trkpt>
      <trkpt lat="22.3970380930" lon="114.3264524720"><ele>44.000</ele></trkpt>
      <trkpt lat="22.3969514225" lon="114.3265201922"><ele>41.000</ele></trkpt>
      <trkpt lat="22.3968799534" lon="114.3265806463"><ele>43.000</ele></trkpt>
      <trkpt lat="22.3967519926" lon="114.3266768745"><ele>51.000</ele></trkpt>
      <trkpt lat="22.3966788938" lon="114.3267321215"><ele>52.000</ele></trkpt>
      <trkpt lat="22.3966050523" lon="114.3267994484"><ele>56.000</ele></trkpt>
      <trkpt lat="22.3965486694" lon="114.3268638515"><ele>59.000</ele></trkpt>
      <trkpt lat="22.3964970363" lon="114.3269284636"><ele>58.000</ele></trkpt>
      <trkpt lat="22.3963959801" lon="114.3270894399"><ele>60.000</ele></trkpt>
      <trkpt lat="22.3962949237" lon="114.3272504161"><ele>59.000</ele></trkpt>
      <trkpt lat="22.3961938672" lon="114.3274113919"><ele>60.000</ele></trkpt>
      <trkpt lat="22.3960928104" lon="114.3275723676"><ele>66.000</ele></trkpt>
      <trkpt lat="22.3960686454" lon="114.3276108606"><ele>66.000</ele></trkpt>
      <trkpt lat="22.3959767103" lon="114.3277780400"><ele>62.000</ele></trkpt>
      <trkpt lat="22.3959754733" lon="114.3277802895"><ele>62.000</ele></trkpt>
      <trkpt lat="22.3959371270" lon="114.3278510819"><ele>67.000</ele></trkpt>
      <trkpt lat="22.3959214922" lon="114.3279026415"><ele>72.000</ele></trkpt>
      <trkpt lat="22.3958998753" lon="114.3279583607"><ele>72.000</ele></trkpt>
      <trkpt lat="22.3958742045" lon="114.3280421896"><ele>71.000</ele></trkpt>
      <trkpt lat="22.3958426709" lon="114.3282334311"><ele>70.000</ele></trkpt>
      <trkpt lat="22.3958353516" lon="114.3282778200"><ele>73.000</ele></trkpt>
      <trkpt lat="22.3958080191" lon="114.3284698077"><ele>77.000</ele></trkpt>
      <trkpt lat="22.3957870637" lon="114.3286170007"><ele>76.000</ele></trkpt>
      <trkpt lat="22.3957668982" lon="114.3287520329"><ele>71.000</ele></trkpt>
      <trkpt lat="22.3957301589" lon="114.3289092859"><ele>74.000</ele></trkpt>
      <trkpt lat="22.3956977244" lon="114.3290500538"><ele>78.000</ele></trkpt>
      <trkpt lat="22.3956428239" lon="114.3291791048"><ele>79.000</ele></trkpt>
      <trkpt lat="22.3955410747" lon="114.3293391466"><ele>75.000</ele></trkpt>
      <trkpt lat="22.3954573422" lon="114.3294521103"><ele>75.000</ele></trkpt>
      <trkpt lat="22.3954023168" lon="114.3295265634"><ele>76.000</ele></trkpt>
      <trkpt lat="22.3953472924" lon="114.3296010165"><ele>76.000</ele></trkpt>
      <trkpt lat="22.3953018370" lon="114.3296626329"><ele>78.000</ele></trkpt>
      <trkpt lat="22.3952252839" lon="114.3297627572"><ele>78.000</ele></trkpt>
      <trkpt lat="22.3951439446" lon="114.3298705839"><ele>82.000</ele></trkpt>
      <trkpt lat="22.3950434717" lon="114.3299989452"><ele>82.000</ele></trkpt>
      <trkpt lat="22.3949573591" lon="114.3301016282"><ele>82.000</ele></trkpt>
      <trkpt lat="22.3948784147" lon="114.3302043179"><ele>82.000</ele></trkpt>
      <trkpt lat="22.3948234061" lon="114.3302607853"><ele>85.000</ele></trkpt>
      <trkpt lat="22.3947588512" lon="114.3303069639"><ele>83.000</ele></trkpt>
      <trkpt lat="22.3946393218" lon="114.3303736378"><ele>82.000</ele></trkpt>
      <trkpt lat="22.3945078508" lon="114.3304351592"><ele>82.000</ele></trkpt>
      <trkpt lat="22.3943548681" lon="114.3305043656"><ele>82.000</ele></trkpt>
      <trkpt lat="22.3942169802" lon="114.3305647960"><ele>83.000</ele></trkpt>
      <trkpt lat="22.3940636285" lon="114.3306364411"><ele>84.000</ele></trkpt>
      <trkpt lat="22.3939198065" lon="114.3307197169"><ele>91.000</ele></trkpt>
      <trkpt lat="22.3938576140" lon="114.3307941608"><ele>88.000</ele></trkpt>
      <trkpt lat="22.3938026076" lon="114.3308480580"><ele>85.000</ele></trkpt>
      <trkpt lat="22.3937236971" lon="114.3309147757"><ele>86.000</ele></trkpt>
      <trkpt lat="22.3935826680" lon="114.3309762857"><ele>88.000</ele></trkpt>
      <trkpt lat="22.3934055918" lon="114.3310145160"><ele>88.000</ele></trkpt>
      <trkpt lat="22.3933221778" lon="114.3310325248"><ele>90.000</ele></trkpt>
      <trkpt lat="22.3931811765" lon="114.3310657715"><ele>90.000</ele></trkpt>
      <trkpt lat="22.3930092046" lon="114.3311251167"><ele>88.000</ele></trkpt>
      <trkpt lat="22.3928372327" lon="114.3311844618"><ele>88.000</ele></trkpt>
      <trkpt lat="22.3926652607" lon="114.3312438067"><ele>97.000</ele></trkpt>
      <trkpt lat="22.3924932887" lon="114.3313031516"><ele>90.000</ele></trkpt>
      <trkpt lat="22.3924760947" lon="114.3313090849"><ele>90.000</ele></trkpt>
      <trkpt lat="22.3923780903" lon="114.3313526558"><ele>92.000</ele></trkpt>
      <trkpt lat="22.3923231068" lon="114.3313834275"><ele>90.000</ele></trkpt>
      <trkpt lat="22.3922752858" lon="114.3314193461"><ele>94.000</ele></trkpt>
      <trkpt lat="22.3922274584" lon="114.3314629723"><ele>94.000</ele></trkpt>
      <trkpt lat="22.3921676590" lon="114.3315322795"><ele>92.000</ele></trkpt>
      <trkpt lat="22.3920791067" lon="114.3316863434"><ele>92.000</ele></trkpt>
      <trkpt lat="22.3920073082" lon="114.3318095933"><ele>90.000</ele></trkpt>
      <trkpt lat="22.3919355352" lon="114.3319071498"><ele>90.000</ele></trkpt>
      <trkpt lat="22.3918398889" lon="114.3319841245"><ele>88.000</ele></trkpt>
      <trkpt lat="22.3917753425" lon="114.3320200242"><ele>89.000</ele></trkpt>
      <trkpt lat="22.3917131953" lon="114.3320456495"><ele>88.000</ele></trkpt>
      <trkpt lat="22.3915688080" lon="114.3320763555"><ele>86.000</ele></trkpt>
      <trkpt lat="22.3914731829" lon="114.3321143852"><ele>87.000</ele></trkpt>
      <trkpt lat="22.3913905190" lon="114.3321686202"><ele>84.000</ele></trkpt>
      <trkpt lat="22.3913051178" lon="114.3322464779"><ele>83.000</ele></trkpt>
      <trkpt lat="22.3912207114" lon="114.3323405781"><ele>82.000</ele></trkpt>
      <trkpt lat="22.3911441749" lon="114.3324227124"><ele>82.000</ele></trkpt>
      <trkpt lat="22.3910676572" lon="114.3324842916"><ele>80.000</ele></trkpt>
      <trkpt lat="22.3910198458" lon="114.3325099315"><ele>80.000</ele></trkpt>
      <trkpt lat="22.3909577011" lon="114.3325329869"><ele>82.000</ele></trkpt>
      <trkpt lat="22.3908740480" lon="114.3325611563"><ele>80.000</ele></trkpt>
      <trkpt lat="22.3907832166" lon="114.3325995958"><ele>80.000</ele></trkpt>
      <trkpt lat="22.3906276296" lon="114.3326982264"><ele>83.000</ele></trkpt>
      <trkpt lat="22.3906254253" lon="114.3326996237"><ele>83.000</ele></trkpt>
      <trkpt lat="22.3905250087" lon="114.3327663149"><ele>82.000</ele></trkpt>
      <trkpt lat="22.3903554616" lon="114.3328332426"><ele>80.000</ele></trkpt>
      <trkpt lat="22.3901859144" lon="114.3329001702"><ele>80.000</ele></trkpt>
      <trkpt lat="22.3901034096" lon="114.3329327383"><ele>80.000</ele></trkpt>
      <trkpt lat="22.3899338622" lon="114.3329996653"><ele>81.000</ele></trkpt>
      <trkpt lat="22.3897643149" lon="114.3330665922"><ele>82.000</ele></trkpt>
      <trkpt lat="22.3897266710" lon="114.3330814517"><ele>85.000</ele></trkpt>
      <trkpt lat="22.3896095373" lon="114.3331404160"><ele>82.000</ele></trkpt>
      <trkpt lat="22.3895377535" lon="114.3332482471"><ele>80.000</ele></trkpt>
      <trkpt lat="22.3895147162" lon="114.3333673020"><ele>80.000</ele></trkpt>
      <trkpt lat="22.3895327060" lon="114.3335257276"><ele>78.000</ele></trkpt>
      <trkpt lat="22.3895134750" lon="114.3336464648"><ele>78.000</ele></trkpt>
      <trkpt lat="22.3894775401" lon="114.3337440588"><ele>78.000</ele></trkpt>
      <trkpt lat="22.3894344527" lon="114.3338262289"><ele>80.000</ele></trkpt>
      <trkpt lat="22.3893579170" lon="114.3339057918"><ele>78.000</ele></trkpt>
      <trkpt lat="22.3892670778" lon="114.3339519374"><ele>78.000</ele></trkpt>
      <trkpt lat="22.3891547601" lon="114.3339723651"><ele>78.000</ele></trkpt>
      <trkpt lat="22.3890687448" lon="114.3339722685"><ele>78.000</ele></trkpt>
      <trkpt lat="22.3889827219" lon="114.3339798802"><ele>78.000</ele></trkpt>
      <trkpt lat="22.3889086405" lon="114.3339926434"><ele>80.000</ele></trkpt>
      <trkpt lat="22.3888273782" lon="114.3340182448"><ele>78.000</ele></trkpt>
      <trkpt lat="22.3887532718" lon="114.3340567015"><ele>76.000</ele></trkpt>
      <trkpt lat="22.3886145885" lon="114.3341618868"><ele>78.000</ele></trkpt>
      <trkpt lat="22.3884808212" lon="114.3342923794"><ele>80.000</ele></trkpt>
      <trkpt lat="22.3883470537" lon="114.3344228717"><ele>79.000</ele></trkpt>
      <trkpt lat="22.3882462830" lon="114.3345211749"><ele>85.000</ele></trkpt>
      <trkpt lat="22.3881362520" lon="114.3346469462"><ele>83.000</ele></trkpt>
      <trkpt lat="22.3880344195" lon="114.3348073463"><ele>78.000</ele></trkpt>
      <trkpt lat="22.3879325869" lon="114.3349677461"><ele>78.000</ele></trkpt>
      <trkpt lat="22.3878307541" lon="114.3351281456"><ele>78.000</ele></trkpt>
      <trkpt lat="22.3877289211" lon="114.3352885450"><ele>78.000</ele></trkpt>
      <trkpt lat="22.3876642488" lon="114.3353904115"><ele>78.000</ele></trkpt>
      <trkpt lat="22.3875619674" lon="114.3355121479"><ele>78.000</ele></trkpt>
      <trkpt lat="22.3874639199" lon="114.3355993918"><ele>78.000</ele></trkpt>
      <trkpt lat="22.3873826103" lon="114.3356738084"><ele>80.000</ele></trkpt>
      <trkpt lat="22.3872723507" lon="114.3357418423"><ele>76.000</ele></trkpt>
      <trkpt lat="22.3871111086" lon="114.3358293395"><ele>78.000</ele></trkpt>
      <trkpt lat="22.3869498664" lon="114.3359168365"><ele>76.000</ele></trkpt>
      <trkpt lat="22.3868590609" lon="114.3359661114"><ele>78.000</ele></trkpt>
      <trkpt lat="22.3867763953" lon="114.3359904726"><ele>79.000</ele></trkpt>
      <trkpt lat="22.3866745675" lon="114.3359903567"><ele>78.000</ele></trkpt>
      <trkpt lat="22.3865293395" lon="114.3359605975"><ele>78.000</ele></trkpt>
      <trkpt lat="22.3864313894" lon="114.3359476400"><ele>76.000</ele></trkpt>
      <trkpt lat="22.3863405960" lon="114.3359475367"><ele>75.000</ele></trkpt>
      <trkpt lat="22.3861613573" lon="114.3359714217"><ele>78.000</ele></trkpt>
      <trkpt lat="22.3859821185" lon="114.3359953066"><ele>73.000</ele></trkpt>
      <trkpt lat="22.3858028798" lon="114.3360191915"><ele>72.000</ele></trkpt>
      <trkpt lat="22.3857861999" lon="114.3360214142"><ele>72.000</ele></trkpt>
      <trkpt lat="22.3857025739" lon="114.3360213190"><ele>72.000</ele></trkpt>
      <trkpt lat="22.3856189784" lon="114.3359903930"><ele>72.000</ele></trkpt>
      <trkpt lat="22.3855444317" lon="114.3359407223"><ele>73.000</ele></trkpt>
      <trkpt lat="22.3853927400" lon="114.3358353123"><ele>72.000</ele></trkpt>
      <trkpt lat="22.3853825948" lon="114.3358282624"><ele>73.000</ele></trkpt>
      <trkpt lat="22.3852254481" lon="114.3357325374"><ele>73.000</ele></trkpt>
      <trkpt lat="22.3850683013" lon="114.3356368127"><ele>72.000</ele></trkpt>
      <trkpt lat="22.3849111545" lon="114.3355410881"><ele>78.000</ele></trkpt>
      <trkpt lat="22.3847540076" lon="114.3354453638"><ele>74.000</ele></trkpt>
      <trkpt lat="22.3845968607" lon="114.3353496397"><ele>78.000</ele></trkpt>
      <trkpt lat="22.3844544747" lon="114.3352629072"><ele>81.000</ele></trkpt>
      <trkpt lat="22.3842867565" lon="114.3351908505"><ele>78.000</ele></trkpt>
      <trkpt lat="22.3841190381" lon="114.3351187939"><ele>79.000</ele></trkpt>
      <trkpt lat="22.3839513198" lon="114.3350467375"><ele>81.000</ele></trkpt>
      <trkpt lat="22.3839306606" lon="114.3350378618"><ele>81.000</ele></trkpt>
      <trkpt lat="22.3838208067" lon="114.3349812152"><ele>80.000</ele></trkpt>
      <trkpt lat="22.3836788651" lon="114.3348825661"><ele>80.000</ele></trkpt>
      <trkpt lat="22.3835304516" lon="114.3347718930"><ele>80.000</ele></trkpt>
      <trkpt lat="22.3833820381" lon="114.3346612200"><ele>85.000</ele></trkpt>
      <trkpt lat="22.3833274371" lon="114.3346205038"><ele>85.000</ele></trkpt>
      <trkpt lat="22.3831660839" lon="114.3345332460"><ele>86.000</ele></trkpt>
      <trkpt lat="22.3831235835" lon="114.3345102623"><ele>86.000</ele></trkpt>
      <trkpt lat="22.3830519365" lon="114.3344767819"><ele>86.000</ele></trkpt>
      <trkpt lat="22.3829492233" lon="114.3344484052"><ele>85.000</ele></trkpt>
      <trkpt lat="22.3828703879" lon="114.3344354705"><ele>84.000</ele></trkpt>
      <trkpt lat="22.3827795810" lon="114.3344482141"><ele>84.000</ele></trkpt>
      <trkpt lat="22.3827150549" lon="114.3344635565"><ele>84.000</ele></trkpt>
      <trkpt lat="22.3826560718" lon="114.3344926580"><ele>82.000</ele></trkpt>
      <trkpt lat="22.3825931467" lon="114.3345173727"><ele>81.000</ele></trkpt>
      <trkpt lat="22.3825238115" lon="114.3345635389"><ele>82.000</ele></trkpt>
      <trkpt lat="22.3824353190" lon="114.3346533615"><ele>84.000</ele></trkpt>
      <trkpt lat="22.3823706665" lon="114.3347971633"><ele>82.000</ele></trkpt>
      <trkpt lat="22.3823179513" lon="114.3349512548"><ele>82.000</ele></trkpt>
      <trkpt lat="22.3822820232" lon="114.3350411364"><ele>82.000</ele></trkpt>
      <trkpt lat="22.3822400811" lon="114.3351129976"><ele>82.000</ele></trkpt>
      <trkpt lat="22.3821647806" lon="114.3352105698"><ele>82.000</ele></trkpt>
      <trkpt lat="22.3820764575" lon="114.3352882385"><ele>79.000</ele></trkpt>
      <trkpt lat="22.3819997889" lon="114.3353414116"><ele>76.000</ele></trkpt>
      <trkpt lat="22.3818348476" lon="114.3354205325"><ele>74.000</ele></trkpt>
      <trkpt lat="22.3817435923" lon="114.3354643068"><ele>72.000</ele></trkpt>
      <trkpt lat="22.3815958335" lon="114.3355759866"><ele>70.000</ele></trkpt>
      <trkpt lat="22.3814798235" lon="114.3356636698"><ele>70.000</ele></trkpt>
      <trkpt lat="22.3814164109" lon="114.3357312646"><ele>72.000</ele></trkpt>
      <trkpt lat="22.3812867790" lon="114.3358664904"><ele>69.000</ele></trkpt>
      <trkpt lat="22.3812692317" lon="114.3358847948"><ele>73.000</ele></trkpt>
      <trkpt lat="22.3811995759" lon="114.3359985486"><ele>69.000</ele></trkpt>
      <trkpt lat="22.3811059358" lon="114.3361646123"><ele>66.000</ele></trkpt>
      <trkpt lat="22.3810701054" lon="114.3362281547"><ele>66.000</ele></trkpt>
      <trkpt lat="22.3809766780" lon="114.3363943568"><ele>67.000</ele></trkpt>
      <trkpt lat="22.3809244317" lon="114.3364872998"><ele>66.000</ele></trkpt>
      <trkpt lat="22.3808171115" lon="114.3366435000"><ele>67.000</ele></trkpt>
      <trkpt lat="22.3807559712" lon="114.3367324871"><ele>67.000</ele></trkpt>
      <trkpt lat="22.3806310909" lon="114.3368727871"><ele>67.000</ele></trkpt>
      <trkpt lat="22.3805526529" lon="114.3369609101"><ele>66.000</ele></trkpt>
      <trkpt lat="22.3804159088" lon="114.3370877775"><ele>68.000</ele></trkpt>
      <trkpt lat="22.3803420342" lon="114.3371563162"><ele>66.000</ele></trkpt>
      <trkpt lat="22.3802165661" lon="114.3372549053"><ele>67.000</ele></trkpt>
      <trkpt lat="22.3801273576" lon="114.3373147730"><ele>66.000</ele></trkpt>
      <trkpt lat="22.3800352202" lon="114.3373685295"><ele>66.000</ele></trkpt>
      <trkpt lat="22.3799394222" lon="114.3374165333"><ele>66.000</ele></trkpt>
      <trkpt lat="22.3797694472" lon="114.3374821900"><ele>66.000</ele></trkpt>
      <trkpt lat="22.3797190385" lon="114.3375016615"><ele>66.000</ele></trkpt>
      <trkpt lat="22.3795456639" lon="114.3375560784"><ele>66.000</ele></trkpt>
      <trkpt lat="22.3793722893" lon="114.3376104952"><ele>66.000</ele></trkpt>
      <trkpt lat="22.3791989146" lon="114.3376649118"><ele>66.000</ele></trkpt>
      <trkpt lat="22.3791681506" lon="114.3376745676"><ele>66.000</ele></trkpt>
      <trkpt lat="22.3790472386" lon="114.3377316307"><ele>66.000</ele></trkpt>
      <trkpt lat="22.3789937456" lon="114.3377642047"><ele>67.000</ele></trkpt>
      <trkpt lat="22.3789521853" lon="114.3377934425"><ele>66.000</ele></trkpt>
      <trkpt lat="22.3788355568" lon="114.3378927976"><ele>66.000</ele></trkpt>
      <trkpt lat="22.3787487623" lon="114.3379858463"><ele>66.000</ele></trkpt>
      <trkpt lat="22.3786775879" lon="114.3381086644"><ele>66.000</ele></trkpt>
      <trkpt lat="22.3785965971" lon="114.3382822447"><ele>66.000</ele></trkpt>
      <trkpt lat="22.3785387722" lon="114.3384061754"><ele>66.000</ele></trkpt>
      <trkpt lat="22.3784900841" lon="114.3385931865"><ele>66.000</ele></trkpt>
      <trkpt lat="22.3784748256" lon="114.3386517945"><ele>68.000</ele></trkpt>
      <trkpt lat="22.3783956642" lon="114.3388263475"><ele>68.000</ele></trkpt>
      <trkpt lat="22.3783941678" lon="114.3388296473"><ele>68.000</ele></trkpt>
      <trkpt lat="22.3782932348" lon="114.3389638880"><ele>68.000</ele></trkpt>
      <trkpt lat="22.3781946547" lon="114.3390391429"><ele>74.000</ele></trkpt>
      <trkpt lat="22.3781143156" lon="114.3390788706"><ele>71.000</ele></trkpt>
      <trkpt lat="22.3779939362" lon="114.3391356219"><ele>70.000</ele></trkpt>
      <trkpt lat="22.3778463848" lon="114.3391916813"><ele>68.000</ele></trkpt>
      <trkpt lat="22.3777290670" lon="114.3392211510"><ele>68.000</ele></trkpt>
      <trkpt lat="22.3775642586" lon="114.3392498955"><ele>69.000</ele></trkpt>
      <trkpt lat="22.3773909674" lon="114.3392547241"><ele>70.000</ele></trkpt>
      <trkpt lat="22.3772126268" lon="114.3392240350"><ele>72.000</ele></trkpt>
      <trkpt lat="22.3771860554" lon="114.3392194626"><ele>73.000</ele></trkpt>
      <trkpt lat="22.3770397656" lon="114.3391521292"><ele>69.000</ele></trkpt>
      <trkpt lat="22.3769051329" lon="114.3390499800"><ele>68.000</ele></trkpt>
      <trkpt lat="22.3768032482" lon="114.3389263324"><ele>69.000</ele></trkpt>
      <trkpt lat="22.3767230884" lon="114.3388592023"><ele>68.000</ele></trkpt>
      <trkpt lat="22.3766375829" lon="114.3388097964"><ele>68.000</ele></trkpt>
      <trkpt lat="22.3765603698" lon="114.3387939673"><ele>68.000</ele></trkpt>
      <trkpt lat="22.3764762342" lon="114.3387923455"><ele>68.000</ele></trkpt>
      <trkpt lat="22.3764179179" lon="114.3388077653"><ele>67.000</ele></trkpt>
      <trkpt lat="22.3763566452" lon="114.3388355132"><ele>66.000</ele></trkpt>
      <trkpt lat="22.3762964830" lon="114.3388815655"><ele>66.000</ele></trkpt>
      <trkpt lat="22.3762483752" lon="114.3389289620"><ele>66.000</ele></trkpt>
      <trkpt lat="22.3761999647" lon="114.3389720081"><ele>66.000</ele></trkpt>
      <trkpt lat="22.3761622049" lon="114.3390113088"><ele>66.000</ele></trkpt>
      <trkpt lat="22.3760925110" lon="114.3390707495"><ele>66.000</ele></trkpt>
      <trkpt lat="22.3760414100" lon="114.3391131612"><ele>66.000</ele></trkpt>
      <trkpt lat="22.3759229947" lon="114.3392195119"><ele>66.000</ele></trkpt>
      <trkpt lat="22.3757966327" lon="114.3393345727"><ele>66.000</ele></trkpt>
      <trkpt lat="22.3756568796" lon="114.3394575866"><ele>66.000</ele></trkpt>
      <trkpt lat="22.3756568433" lon="114.3394576185"><ele>66.000</ele></trkpt>
      <trkpt lat="22.3755392496" lon="114.3395638725"><ele>66.000</ele></trkpt>
      <trkpt lat="22.3753979931" lon="114.3396848847"><ele>66.000</ele></trkpt>
      <trkpt lat="22.3753562241" lon="114.3397206675"><ele>66.000</ele></trkpt>
      <trkpt lat="22.3752543055" lon="114.3398016743"><ele>66.000</ele></trkpt>
      <trkpt lat="22.3751064153" lon="114.3399131479"><ele>66.000</ele></trkpt>
      <trkpt lat="22.3749585251" lon="114.3400246213"><ele>66.000</ele></trkpt>
      <trkpt lat="22.3749544545" lon="114.3400276895"><ele>66.000</ele></trkpt>
      <trkpt lat="22.3748050556" lon="114.3401368122"><ele>66.000</ele></trkpt>
      <trkpt lat="22.3746556567" lon="114.3402459347"><ele>66.000</ele></trkpt>
      <trkpt lat="22.3745062576" lon="114.3403550570"><ele>66.000</ele></trkpt>
      <trkpt lat="22.3744837625" lon="114.3403714876"><ele>66.000</ele></trkpt>
      <trkpt lat="22.3743483549" lon="114.3404649508"><ele>66.000</ele></trkpt>
      <trkpt lat="22.3742584483" lon="114.3405263763"><ele>66.000</ele></trkpt>
      <trkpt lat="22.3741611137" lon="114.3405925605"><ele>66.000</ele></trkpt>
      <trkpt lat="22.3740518210" lon="114.3406603910"><ele>66.000</ele></trkpt>
      <trkpt lat="22.3738964193" lon="114.3407593474"><ele>66.000</ele></trkpt>
      <trkpt lat="22.3738660430" lon="114.3407786904"><ele>66.000</ele></trkpt>
      <trkpt lat="22.3737119368" lon="114.3408683732"><ele>66.000</ele></trkpt>
      <trkpt lat="22.3735876658" lon="114.3409418368"><ele>66.000</ele></trkpt>
      <trkpt lat="22.3735279640" lon="114.3409784791"><ele>66.000</ele></trkpt>
      <trkpt lat="22.3734717430" lon="114.3410111931"><ele>66.000</ele></trkpt>
      <trkpt lat="22.3733764898" lon="114.3410640865"><ele>66.000</ele></trkpt>
      <trkpt lat="22.3732789707" lon="114.3411160354"><ele>66.000</ele></trkpt>
      <trkpt lat="22.3732216484" lon="114.3411483498"><ele>66.000</ele></trkpt>
      <trkpt lat="22.3730595234" lon="114.3412339317"><ele>66.000</ele></trkpt>
      <trkpt lat="22.3729420584" lon="114.3412959385"><ele>66.000</ele></trkpt>
      <trkpt lat="22.3728504746" lon="114.3413457287"><ele>66.000</ele></trkpt>
      <trkpt lat="22.3727637175" lon="114.3413910582"><ele>66.000</ele></trkpt>
      <trkpt lat="22.3725977555" lon="114.3414676666"><ele>66.000</ele></trkpt>
      <trkpt lat="22.3725701661" lon="114.3414804019"><ele>66.000</ele></trkpt>
      <trkpt lat="22.3724356600" lon="114.3415392393"><ele>66.000</ele></trkpt>
      <trkpt lat="22.3722676358" lon="114.3416104618"><ele>66.000</ele></trkpt>
      <trkpt lat="22.3720996116" lon="114.3416816841"><ele>66.000</ele></trkpt>
      <trkpt lat="22.3719806510" lon="114.3417321092"><ele>66.000</ele></trkpt>
      <trkpt lat="22.3718116680" lon="114.3418006588"><ele>66.000</ele></trkpt>
      <trkpt lat="22.3716709661" lon="114.3418577357"><ele>66.000</ele></trkpt>
      <trkpt lat="22.3714997177" lon="114.3419194447"><ele>66.000</ele></trkpt>
      <trkpt lat="22.3713979908" lon="114.3419561017"><ele>66.000</ele></trkpt>
      <trkpt lat="22.3713600775" lon="114.3419680968"><ele>66.000</ele></trkpt>
      <trkpt lat="22.3712030301" lon="114.3420190419"><ele>66.000</ele></trkpt>
      <trkpt lat="22.3710335728" lon="114.3420807693"><ele>66.000</ele></trkpt>
      <trkpt lat="22.3709838965" lon="114.3420979159"><ele>66.000</ele></trkpt>
      <trkpt lat="22.3709446056" lon="114.3421147544"><ele>66.000</ele></trkpt>
      <trkpt lat="22.3709042335" lon="114.3421291545"><ele>66.000</ele></trkpt>
      <trkpt lat="22.3708767282" lon="114.3421541046"><ele>66.000</ele></trkpt>
      <trkpt lat="22.3708749114" lon="114.3421557530"><ele>66.000</ele></trkpt>
      <trkpt lat="22.3708596486" lon="114.3421834945"><ele>66.000</ele></trkpt>
      <trkpt lat="22.3708170015" lon="114.3422414098"><ele>66.000</ele></trkpt>
      <trkpt lat="22.3707970505" lon="114.3423146056"><ele>66.000</ele></trkpt>
      <trkpt lat="22.3707941401" lon="114.3423878215"><ele>66.000</ele></trkpt>
      <trkpt lat="22.3708224321" lon="114.3424854743"><ele>66.000</ele></trkpt>
      <trkpt lat="22.3708439845" lon="114.3425373311"><ele>68.000</ele></trkpt>
      <trkpt lat="22.3708534941" lon="114.3425835838"><ele>67.000</ele></trkpt>
      <trkpt lat="22.3708510530" lon="114.3426349607"><ele>68.000</ele></trkpt>
      <trkpt lat="22.3708392605" lon="114.3426838011"><ele>68.000</ele></trkpt>
      <trkpt lat="22.3707744101" lon="114.3428146986"><ele>70.000</ele></trkpt>
      <trkpt lat="22.3706786917" lon="114.3429558786"><ele>72.000</ele></trkpt>
      <trkpt lat="22.3705829768" lon="114.3430944893"><ele>74.000</ele></trkpt>
      <trkpt lat="22.3705073966" lon="114.3432133902"><ele>76.000</ele></trkpt>
      <trkpt lat="22.3704036084" lon="114.3433723142"><ele>76.000</ele></trkpt>
      <trkpt lat="22.3703075707" lon="114.3435193698"><ele>76.000</ele></trkpt>
      <trkpt lat="22.3702718175" lon="114.3436258964"><ele>77.000</ele></trkpt>
      <trkpt lat="22.3702574224" lon="114.3436823961"><ele>78.000</ele></trkpt>
      <trkpt lat="22.3702215089" lon="114.3437542849"><ele>78.000</ele></trkpt>
      <trkpt lat="22.3701686450" lon="114.3438087307"><ele>78.000</ele></trkpt>
      <trkpt lat="22.3700889770" lon="114.3438445801"><ele>78.000</ele></trkpt>
      <trkpt lat="22.3700278675" lon="114.3438568120"><ele>78.000</ele></trkpt>
      <trkpt lat="22.3699609748" lon="114.3438490258"><ele>79.000</ele></trkpt>
      <trkpt lat="22.3699155953" lon="114.3438309888"><ele>81.000</ele></trkpt>
      <trkpt lat="22.3698654492" lon="114.3438026697"><ele>78.000</ele></trkpt>
      <trkpt lat="22.3697747920" lon="114.3437701321"><ele>86.000</ele></trkpt>
      <trkpt lat="22.3697221297" lon="114.3437639650"><ele>80.000</ele></trkpt>
      <trkpt lat="22.3696748735" lon="114.3437748871"><ele>78.000</ele></trkpt>
      <trkpt lat="22.3696289166" lon="114.3437921121"><ele>78.000</ele></trkpt>
      <trkpt lat="22.3695839221" lon="114.3438236073"><ele>79.000</ele></trkpt>
      <trkpt lat="22.3695165154" lon="114.3438921676"><ele>79.000</ele></trkpt>
      <trkpt lat="22.3694375453" lon="114.3440102446"><ele>82.000</ele></trkpt>
      <trkpt lat="22.3693695009" lon="114.3440953992"><ele>80.000</ele></trkpt>
      <trkpt lat="22.3692633146" lon="114.3441968909"><ele>80.000</ele></trkpt>
      <trkpt lat="22.3692127416" lon="114.3442103547"><ele>80.000</ele></trkpt>
      <trkpt lat="22.3691596017" lon="114.3442119621"><ele>83.000</ele></trkpt>
      <trkpt lat="22.3690813341" lon="114.3442050594"><ele>80.000</ele></trkpt>
      <trkpt lat="22.3690001152" lon="114.3441869796"><ele>80.000</ele></trkpt>
      <trkpt lat="22.3688286917" lon="114.3441258364"><ele>81.000</ele></trkpt>
      <trkpt lat="22.3687182793" lon="114.3440864548"><ele>81.000</ele></trkpt>
      <trkpt lat="22.3686633295" lon="114.3440812509"><ele>78.000</ele></trkpt>
      <trkpt lat="22.3686131489" lon="114.3440863292"><ele>78.000</ele></trkpt>
      <trkpt lat="22.3685701199" lon="114.3441068286"><ele>80.000</ele></trkpt>
      <trkpt lat="22.3685286323" lon="114.3441405530"><ele>81.000</ele></trkpt>
      <trkpt lat="22.3684433152" lon="114.3442710892"><ele>81.000</ele></trkpt>
      <trkpt lat="22.3684145875" lon="114.3443250028"><ele>81.000</ele></trkpt>
      <trkpt lat="22.3683977983" lon="114.3443866370"><ele>82.000</ele></trkpt>
      <trkpt lat="22.3683929529" lon="114.3444508545"><ele>82.000</ele></trkpt>
      <trkpt lat="22.3683713377" lon="114.3445587236"><ele>78.000</ele></trkpt>
      <trkpt lat="22.3682803781" lon="114.3447178883"><ele>79.000</ele></trkpt>
      <trkpt lat="22.3681837235" lon="114.3448819279"><ele>86.000</ele></trkpt>
      <trkpt lat="22.3680870688" lon="114.3450459672"><ele>79.000</ele></trkpt>
      <trkpt lat="22.3680625657" lon="114.3450875529"><ele>80.000</ele></trkpt>
      <trkpt lat="22.3679656017" lon="114.3452513809"><ele>82.000</ele></trkpt>
      <trkpt lat="22.3678878378" lon="114.3453827687"><ele>86.000</ele></trkpt>
      <trkpt lat="22.3678686775" lon="114.3454264170"><ele>82.000</ele></trkpt>
      <trkpt lat="22.3678471357" lon="114.3454623563"><ele>82.000</ele></trkpt>
      <trkpt lat="22.3678184183" lon="114.3455059931"><ele>85.000</ele></trkpt>
      <trkpt lat="22.3677825433" lon="114.3455393460"><ele>82.000</ele></trkpt>
      <trkpt lat="22.3677227816" lon="114.3455675319"><ele>83.000</ele></trkpt>
      <trkpt lat="22.3676702025" lon="114.3455803139"><ele>84.000</ele></trkpt>
      <trkpt lat="22.3675626719" lon="114.3455904596"><ele>88.000</ele></trkpt>
      <trkpt lat="22.3674670753" lon="114.3456134641"><ele>86.000</ele></trkpt>
      <trkpt lat="22.3674240408" lon="114.3456391020"><ele>86.000</ele></trkpt>
      <trkpt lat="22.3673690240" lon="114.3456981204"><ele>86.000</ele></trkpt>
      <trkpt lat="22.3672478169" lon="114.3458420831"><ele>88.000</ele></trkpt>
      <trkpt lat="22.3671852953" lon="114.3459163424"><ele>88.000</ele></trkpt>
      <trkpt lat="22.3670848300" lon="114.3460777122"><ele>90.000</ele></trkpt>
      <trkpt lat="22.3670041008" lon="114.3462073812"><ele>92.000</ele></trkpt>
      <trkpt lat="22.3669430451" lon="114.3463475398"><ele>94.000</ele></trkpt>
      <trkpt lat="22.3668972280" lon="114.3464284476"><ele>94.000</ele></trkpt>
      <trkpt lat="22.3668497167" lon="114.3464861483"><ele>94.000</ele></trkpt>
      <trkpt lat="22.3668003712" lon="114.3465189367"><ele>94.000</ele></trkpt>
      <trkpt lat="22.3667110628" lon="114.3465553400"><ele>96.000</ele></trkpt>
      <trkpt lat="22.3665523405" lon="114.3466479987"><ele>96.000</ele></trkpt>
      <trkpt lat="22.3663936182" lon="114.3467406572"><ele>98.000</ele></trkpt>
      <trkpt lat="22.3663646876" lon="114.3467575462"><ele>98.000</ele></trkpt>
      <trkpt lat="22.3662719803" lon="114.3468435833"><ele>98.000</ele></trkpt>
      <trkpt lat="22.3661897609" lon="114.3469631627"><ele>100.000</ele></trkpt>
      <trkpt lat="22.3661442665" lon="114.3470555873"><ele>100.000</ele></trkpt>
      <trkpt lat="22.3661016663" lon="114.3471255833"><ele>102.000</ele></trkpt>
      <trkpt lat="22.3660270302" lon="114.3472070088"><ele>102.000</ele></trkpt>
      <trkpt lat="22.3659577049" lon="114.3472403201"><ele>102.000</ele></trkpt>
      <trkpt lat="22.3657947578" lon="114.3473240734"><ele>104.000</ele></trkpt>
      <trkpt lat="22.3657831896" lon="114.3473300193"><ele>104.000</ele></trkpt>
      <trkpt lat="22.3656493224" lon="114.3473915094"><ele>104.000</ele></trkpt>
      <trkpt lat="22.3654796466" lon="114.3474580484"><ele>106.000</ele></trkpt>
      <trkpt lat="22.3654702781" lon="114.3474617223"><ele>106.000</ele></trkpt>
      <trkpt lat="22.3652971996" lon="114.3475172135"><ele>106.000</ele></trkpt>
      <trkpt lat="22.3652740572" lon="114.3475246333"><ele>106.000</ele></trkpt>
      <trkpt lat="22.3650986575" lon="114.3475709392"><ele>108.000</ele></trkpt>
      <trkpt lat="22.3650900273" lon="114.3475732176"><ele>108.000</ele></trkpt>
      <trkpt lat="22.3649800944" lon="114.3475962038"><ele>110.000</ele></trkpt>
      <trkpt lat="22.3648869077" lon="114.3475986592"><ele>110.000</ele></trkpt>
      <trkpt lat="22.3647674577" lon="114.3475831004"><ele>110.000</ele></trkpt>
      <trkpt lat="22.3645868477" lon="114.3475827896"><ele>112.000</ele></trkpt>
      <trkpt lat="22.3645409375" lon="114.3475827106"><ele>112.000</ele></trkpt>
      <trkpt lat="22.3644855036" lon="114.3475956008"><ele>112.000</ele></trkpt>
      <trkpt lat="22.3644395530" lon="114.3476330353"><ele>114.000</ele></trkpt>
      <trkpt lat="22.3644065146" lon="114.3477290846"><ele>114.000</ele></trkpt>
      <trkpt lat="22.3643955333" lon="114.3478515713"><ele>114.000</ele></trkpt>
      <trkpt lat="22.3643871374" lon="114.3479782409"><ele>114.000</ele></trkpt>
      <trkpt lat="22.3643941963" lon="114.3480810033"><ele>116.000</ele></trkpt>
      <trkpt lat="22.3644108347" lon="114.3481632273"><ele>116.000</ele></trkpt>
      <trkpt lat="22.3644633161" lon="114.3482429262"><ele>116.000</ele></trkpt>
      <trkpt lat="22.3644996596" lon="114.3483083447"><ele>116.000</ele></trkpt>
      <trkpt lat="22.3645038010" lon="114.3483688498"><ele>120.000</ele></trkpt>
      <trkpt lat="22.3644869803" lon="114.3484587400"><ele>119.000</ele></trkpt>
      <trkpt lat="22.3644701432" lon="114.3485640422"><ele>120.000</ele></trkpt>
      <trkpt lat="22.3644440064" lon="114.3486558317"><ele>120.000</ele></trkpt>
      <trkpt lat="22.3643791879" lon="114.3487154929"><ele>120.000</ele></trkpt>
      <trkpt lat="22.3642232718" lon="114.3488135029"><ele>121.000</ele></trkpt>
      <trkpt lat="22.3640673557" lon="114.3489115128"><ele>122.000</ele></trkpt>
      <trkpt lat="22.3640325042" lon="114.3489334206"><ele>122.000</ele></trkpt>
      <trkpt lat="22.3638741291" lon="114.3490267616"><ele>122.000</ele></trkpt>
      <trkpt lat="22.3637157539" lon="114.3491201024"><ele>124.000</ele></trkpt>
      <trkpt lat="22.3636714889" lon="114.3491461906"><ele>125.000</ele></trkpt>
      <trkpt lat="22.3636045326" lon="114.3491974853"><ele>125.000</ele></trkpt>
      <trkpt lat="22.3635423671" lon="114.3492385108"><ele>128.000</ele></trkpt>
      <trkpt lat="22.3634443659" lon="114.3492743533"><ele>127.000</ele></trkpt>
      <trkpt lat="22.3633057253" lon="114.3493306976"><ele>128.000</ele></trkpt>
      <trkpt lat="22.3631527480" lon="114.3493870231"><ele>130.000</ele></trkpt>
      <trkpt lat="22.3630067719" lon="114.3494289792"><ele>130.000</ele></trkpt>
      <trkpt lat="22.3628946264" lon="114.3494560639"><ele>131.000</ele></trkpt>
      <trkpt lat="22.3628324736" lon="114.3494842442"><ele>133.000</ele></trkpt>
      <trkpt lat="22.3627863559" lon="114.3495213211"><ele>132.000</ele></trkpt>
      <trkpt lat="22.3626501008" lon="114.3496487795"><ele>133.000</ele></trkpt>
      <trkpt lat="22.3625893987" lon="114.3497055625"><ele>132.000</ele></trkpt>
      <trkpt lat="22.3625310956" lon="114.3497869940"><ele>132.000</ele></trkpt>
      <trkpt lat="22.3624249979" lon="114.3499441362"><ele>131.000</ele></trkpt>
      <trkpt lat="22.3623803290" lon="114.3500102954"><ele>130.000</ele></trkpt>
      <trkpt lat="22.3622729740" lon="114.3501664473"><ele>126.000</ele></trkpt>
      <trkpt lat="22.3622056362" lon="114.3502643924"><ele>126.000</ele></trkpt>
      <trkpt lat="22.3621458479" lon="114.3503156950"><ele>126.000</ele></trkpt>
      <trkpt lat="22.3620645636" lon="114.3503592639"><ele>124.000</ele></trkpt>
      <trkpt lat="22.3618931561" lon="114.3504204562"><ele>123.000</ele></trkpt>
      <trkpt lat="22.3618781249" lon="114.3504258223"><ele>123.000</ele></trkpt>
      <trkpt lat="22.3617825331" lon="114.3504436856"><ele>122.000</ele></trkpt>
      <trkpt lat="22.3617442675" lon="114.3504770328"><ele>121.000</ele></trkpt>
      <trkpt lat="22.3617059726" lon="114.3505386366"><ele>120.000</ele></trkpt>
      <trkpt lat="22.3617035252" lon="114.3505925780"><ele>122.000</ele></trkpt>
      <trkpt lat="22.3616699503" lon="114.3507081330"><ele>120.000</ele></trkpt>
      <trkpt lat="22.3616387951" lon="114.3507954343"><ele>118.000</ele></trkpt>
      <trkpt lat="22.3615903776" lon="114.3509076115"><ele>117.000</ele></trkpt>
      <trkpt lat="22.3614850248" lon="114.3510653308"><ele>115.000</ele></trkpt>
      <trkpt lat="22.3614784094" lon="114.3510752345"><ele>115.000</ele></trkpt>
      <trkpt lat="22.3613826700" lon="114.3512292433"><ele>114.000</ele></trkpt>
      <trkpt lat="22.3613538640" lon="114.3513310211"><ele>112.000</ele></trkpt>
      <trkpt lat="22.3613561716" lon="114.3514295775"><ele>112.000</ele></trkpt>
      <trkpt lat="22.3613847714" lon="114.3514964012"><ele>111.000</ele></trkpt>
      <trkpt lat="22.3614229504" lon="114.3515426882"><ele>110.000</ele></trkpt>
      <trkpt lat="22.3614692965" lon="114.3515780901"><ele>111.000</ele></trkpt>
      <trkpt lat="22.3615996865" lon="114.3516122658"><ele>109.000</ele></trkpt>
      <trkpt lat="22.3617143573" lon="114.3516278217"><ele>107.000</ele></trkpt>
      <trkpt lat="22.3618170816" lon="114.3516433627"><ele>106.000</ele></trkpt>
      <trkpt lat="22.3618672329" lon="114.3516665451"><ele>106.000</ele></trkpt>
      <trkpt lat="22.3619067623" lon="114.3517031620"><ele>104.000</ele></trkpt>
      <trkpt lat="22.3619435999" lon="114.3517514116"><ele>104.000</ele></trkpt>
      <trkpt lat="22.3619769943" lon="114.3518028288"><ele>104.000</ele></trkpt>
      <trkpt lat="22.3619864439" lon="114.3519030247"><ele>104.000</ele></trkpt>
      <trkpt lat="22.3619763523" lon="114.3520968989"><ele>102.000</ele></trkpt>
      <trkpt lat="22.3619669230" lon="114.3522780467"><ele>102.000</ele></trkpt>
      <trkpt lat="22.3619453490" lon="114.3523422400"><ele>100.000</ele></trkpt>
      <trkpt lat="22.3619381119" lon="114.3524064513"><ele>100.000</ele></trkpt>
      <trkpt lat="22.3619452042" lon="114.3524758186"><ele>100.000</ele></trkpt>
      <trkpt lat="22.3619738064" lon="114.3525400748"><ele>100.000</ele></trkpt>
      <trkpt lat="22.3620769053" lon="114.3526995070"><ele>98.000</ele></trkpt>
      <trkpt lat="22.3620835316" lon="114.3527097540"><ele>98.000</ele></trkpt>
      <trkpt lat="22.3621025851" lon="114.3527662924"><ele>98.000</ele></trkpt>
      <trkpt lat="22.3621094983" lon="114.3528441227"><ele>98.000</ele></trkpt>
      <trkpt lat="22.3620737141" lon="114.3529486415"><ele>96.000</ele></trkpt>
      <trkpt lat="22.3620282534" lon="114.3530076678"><ele>96.000</ele></trkpt>
      <trkpt lat="22.3619780381" lon="114.3530435673"><ele>96.000</ele></trkpt>
      <trkpt lat="22.3619278404" lon="114.3530640550"><ele>96.000</ele></trkpt>
      <trkpt lat="22.3618896051" lon="114.3530691448"><ele>94.000</ele></trkpt>
      <trkpt lat="22.3617394676" lon="114.3530232524"><ele>94.000</ele></trkpt>
      <trkpt lat="22.3616817784" lon="114.3530277818"><ele>94.000</ele></trkpt>
      <trkpt lat="22.3615885749" lon="114.3530456463"><ele>92.000</ele></trkpt>
      <trkpt lat="22.3615312088" lon="114.3530661249"><ele>92.000</ele></trkpt>
      <trkpt lat="22.3614633979" lon="114.3531290617"><ele>92.000</ele></trkpt>
      <trkpt lat="22.3614324568" lon="114.3532142373"><ele>92.000</ele></trkpt>
      <trkpt lat="22.3614363665" lon="114.3532810682"><ele>92.000</ele></trkpt>
      <trkpt lat="22.3614448826" lon="114.3533511535"><ele>91.000</ele></trkpt>
      <trkpt lat="22.3614734760" lon="114.3534231156"><ele>92.000</ele></trkpt>
      <trkpt lat="22.3615188117" lon="114.3534796870"><ele>90.000</ele></trkpt>
      <trkpt lat="22.3616398442" lon="114.3536238135"><ele>88.000</ele></trkpt>
      <trkpt lat="22.3617608765" lon="114.3537679402"><ele>87.000</ele></trkpt>
      <trkpt lat="22.3618819088" lon="114.3539120672"><ele>87.000</ele></trkpt>
      <trkpt lat="22.3619960567" lon="114.3540479966"><ele>86.000</ele></trkpt>
      <trkpt lat="22.3620366215" lon="114.3540968554"><ele>84.000</ele></trkpt>
      <trkpt lat="22.3620963181" lon="114.3541303257"><ele>84.000</ele></trkpt>
      <trkpt lat="22.3621488548" lon="114.3541560800"><ele>82.000</ele></trkpt>
      <trkpt lat="22.3621966387" lon="114.3541587095"><ele>84.000</ele></trkpt>
      <trkpt lat="22.3623710487" lon="114.3541082681"><ele>82.000</ele></trkpt>
      <trkpt lat="22.3623735050" lon="114.3541075577"><ele>82.000</ele></trkpt>
      <trkpt lat="22.3625449138" lon="114.3540463695"><ele>80.000</ele></trkpt>
      <trkpt lat="22.3625814579" lon="114.3540333243"><ele>80.000</ele></trkpt>
      <trkpt lat="22.3626866024" lon="114.3540206134"><ele>80.000</ele></trkpt>
      <trkpt lat="22.3627920812" lon="114.3540423939"><ele>81.000</ele></trkpt>
      <trkpt lat="22.3628848408" lon="114.3540902229"><ele>86.000</ele></trkpt>
      <trkpt lat="22.3629731530" lon="114.3541751055"><ele>82.000</ele></trkpt>
      <trkpt lat="22.3630256249" lon="114.3542599438"><ele>80.000</ele></trkpt>
      <trkpt lat="22.3630756349" lon="114.3544115689"><ele>80.000</ele></trkpt>
      <trkpt lat="22.3631137366" lon="114.3546013778"><ele>83.000</ele></trkpt>
      <trkpt lat="22.3631421717" lon="114.3547430318"><ele>86.000</ele></trkpt>
      <trkpt lat="22.3631776469" lon="114.3549334284"><ele>88.000</ele></trkpt>
      <trkpt lat="22.3632039299" lon="114.3550744910"><ele>87.000</ele></trkpt>
      <trkpt lat="22.3632324829" lon="114.3551824183"><ele>90.000</ele></trkpt>
      <trkpt lat="22.3632945036" lon="114.3552749752"><ele>90.000</ele></trkpt>
      <trkpt lat="22.3633661039" lon="114.3553469944"><ele>92.000</ele></trkpt>
      <trkpt lat="22.3635165267" lon="114.3554422333"><ele>92.000</ele></trkpt>
      <trkpt lat="22.3636430557" lon="114.3555374419"><ele>92.000</ele></trkpt>
      <trkpt lat="22.3637289501" lon="114.3556480118"><ele>92.000</ele></trkpt>
      <trkpt lat="22.3637574886" lon="114.3557687836"><ele>92.000</ele></trkpt>
      <trkpt lat="22.3637693300" lon="114.3558638461"><ele>92.000</ele></trkpt>
      <trkpt lat="22.3637859189" lon="114.3559871726"><ele>92.000</ele></trkpt>
      <trkpt lat="22.3637858166" lon="114.3560796508"><ele>92.000</ele></trkpt>
      <trkpt lat="22.3637582782" lon="114.3561520749"><ele>92.000</ele></trkpt>
      <trkpt lat="22.3637330973" lon="114.3562183008"><ele>92.000</ele></trkpt>
      <trkpt lat="22.3636828451" lon="114.3562875956"><ele>92.000</ele></trkpt>
      <trkpt lat="22.3636278131" lon="114.3563568832"><ele>92.000</ele></trkpt>
      <trkpt lat="22.3635256480" lon="114.3565170105"><ele>92.000</ele></trkpt>
      <trkpt lat="22.3634722367" lon="114.3566007240"><ele>92.000</ele></trkpt>
      <trkpt lat="22.3634458715" lon="114.3566751863"><ele>92.000</ele></trkpt>
      <trkpt lat="22.3634171226" lon="114.3567445084"><ele>92.000</ele></trkpt>
      <trkpt lat="22.3633859957" lon="114.3568035514"><ele>92.000</ele></trkpt>
      <trkpt lat="22.3633453336" lon="114.3568420322"><ele>92.000</ele></trkpt>
      <trkpt lat="22.3632312747" lon="114.3569925910"><ele>92.000</ele></trkpt>
      <trkpt lat="22.3631172157" lon="114.3571431496"><ele>92.000</ele></trkpt>
      <trkpt lat="22.3630031576" lon="114.3572937063"><ele>91.000</ele></trkpt>
      <trkpt lat="22.3628839631" lon="114.3574395940"><ele>91.000</ele></trkpt>
      <trkpt lat="22.3627997864" lon="114.3575426213"><ele>91.000</ele></trkpt>
      <trkpt lat="22.3626897489" lon="114.3576580768"><ele>90.000</ele></trkpt>
      <trkpt lat="22.3625789952" lon="114.3578114607"><ele>90.000</ele></trkpt>
      <trkpt lat="22.3625501749" lon="114.3578513741"><ele>90.000</ele></trkpt>
      <trkpt lat="22.3624671655" lon="114.3579943044"><ele>90.000</ele></trkpt>
      <trkpt lat="22.3624479931" lon="114.3580456563"><ele>92.000</ele></trkpt>
      <trkpt lat="22.3624192724" lon="114.3580892888"><ele>91.000</ele></trkpt>
      <trkpt lat="22.3623881708" lon="114.3581252123"><ele>92.000</ele></trkpt>
      <trkpt lat="22.3623499161" lon="114.3581482826"><ele>90.000</ele></trkpt>
      <trkpt lat="22.3622235276" lon="114.3582869941"><ele>90.000</ele></trkpt>
      <trkpt lat="22.3621598609" lon="114.3583568682"><ele>90.000</ele></trkpt>
      <trkpt lat="22.3620343467" lon="114.3584964941"><ele>89.000</ele></trkpt>
      <trkpt lat="22.3619088324" lon="114.3586361197"><ele>88.000</ele></trkpt>
      <trkpt lat="22.3618929867" lon="114.3586537469"><ele>88.000</ele></trkpt>
      <trkpt lat="22.3618594791" lon="114.3587050799"><ele>89.000</ele></trkpt>
      <trkpt lat="22.3618140271" lon="114.3587538283"><ele>88.000</ele></trkpt>
      <trkpt lat="22.3617566449" lon="114.3587871484"><ele>88.000</ele></trkpt>
      <trkpt lat="22.3616600236" lon="114.3588299060"><ele>88.000</ele></trkpt>
      <trkpt lat="22.3614978856" lon="114.3589154523"><ele>88.000</ele></trkpt>
      <trkpt lat="22.3613357475" lon="114.3590009985"><ele>88.000</ele></trkpt>
      <trkpt lat="22.3612020013" lon="114.3590715646"><ele>88.000</ele></trkpt>
      <trkpt lat="22.3610391364" lon="114.3591554997"><ele>87.000</ele></trkpt>
      <trkpt lat="22.3608762715" lon="114.3592394346"><ele>90.000</ele></trkpt>
      <trkpt lat="22.3607134066" lon="114.3593233693"><ele>86.000</ele></trkpt>
      <trkpt lat="22.3606401829" lon="114.3593611061"><ele>86.000</ele></trkpt>
      <trkpt lat="22.3605971375" lon="114.3593944443"><ele>86.000</ele></trkpt>
      <trkpt lat="22.3605445457" lon="114.3594174953"><ele>88.000</ele></trkpt>
      <trkpt lat="22.3604991349" lon="114.3594302798"><ele>88.000</ele></trkpt>
      <trkpt lat="22.3604561291" lon="114.3594276548"><ele>86.000</ele></trkpt>
      <trkpt lat="22.3602805250" lon="114.3594730546"><ele>86.000</ele></trkpt>
      <trkpt lat="22.3602386371" lon="114.3594838841"><ele>86.000</ele></trkpt>
      <trkpt lat="22.3600650153" lon="114.3595373755"><ele>86.000</ele></trkpt>
      <trkpt lat="22.3599231357" lon="114.3595810873"><ele>86.000</ele></trkpt>
      <trkpt lat="22.3597624211" lon="114.3596696831"><ele>86.000</ele></trkpt>
      <trkpt lat="22.3597557791" lon="114.3596733446"><ele>86.000</ele></trkpt>
      <trkpt lat="22.3596409950" lon="114.3597579636"><ele>85.000</ele></trkpt>
      <trkpt lat="22.3595692545" lon="114.3598118144"><ele>85.000</ele></trkpt>
      <trkpt lat="22.3595261944" lon="114.3598579959"><ele>84.000</ele></trkpt>
      <trkpt lat="22.3594855209" lon="114.3599067494"><ele>84.000</ele></trkpt>
      <trkpt lat="22.3594663451" lon="114.3599606689"><ele>84.000</ele></trkpt>
      <trkpt lat="22.3594471614" lon="114.3600222941"><ele>84.000</ele></trkpt>
      <trkpt lat="22.3594327519" lon="114.3600864944"><ele>84.000</ele></trkpt>
      <trkpt lat="22.3594254826" lon="114.3601763914"><ele>84.000</ele></trkpt>
      <trkpt lat="22.3594516515" lon="114.3602766079"><ele>84.000</ele></trkpt>
      <trkpt lat="22.3594969265" lon="114.3603845552"><ele>84.000</ele></trkpt>
      <trkpt lat="22.3595351009" lon="114.3604334119"><ele>86.000</ele></trkpt>
      <trkpt lat="22.3595756405" lon="114.3605028221"><ele>88.000</ele></trkpt>
      <trkpt lat="22.3596042074" lon="114.3605953351"><ele>86.000</ele></trkpt>
      <trkpt lat="22.3596112204" lon="114.3607314887"><ele>86.000</ele></trkpt>
      <trkpt lat="22.3595872253" lon="114.3608213648"><ele>85.000</ele></trkpt>
      <trkpt lat="22.3595608700" lon="114.3608855494"><ele>87.000</ele></trkpt>
      <trkpt lat="22.3595201807" lon="114.3609471463"><ele>88.000</ele></trkpt>
      <trkpt lat="22.3594388593" lon="114.3610215333"><ele>84.000</ele></trkpt>
      <trkpt lat="22.3593264825" lon="114.3610907425"><ele>84.000</ele></trkpt>
      <trkpt lat="22.3592714894" lon="114.3611240642"><ele>84.000</ele></trkpt>
      <trkpt lat="22.3592188778" lon="114.3611650948"><ele>84.000</ele></trkpt>
      <trkpt lat="22.3591925486" lon="114.3612061600"><ele>84.000</ele></trkpt>
      <trkpt lat="22.3591709858" lon="114.3612575070"><ele>84.000</ele></trkpt>
      <trkpt lat="22.3591185388" lon="114.3614433135"><ele>85.000</ele></trkpt>
      <trkpt lat="22.3590660916" lon="114.3616291198"><ele>86.000</ele></trkpt>
      <trkpt lat="22.3590136442" lon="114.3618149259"><ele>84.000</ele></trkpt>
      <trkpt lat="22.3590006555" lon="114.3618609410"><ele>84.000</ele></trkpt>
      <trkpt lat="22.3589981779" lon="114.3619380004"><ele>84.000</ele></trkpt>
      <trkpt lat="22.3590004910" lon="114.3620047913"><ele>84.000</ele></trkpt>
      <trkpt lat="22.3590123846" lon="114.3620510446"><ele>84.000</ele></trkpt>
      <trkpt lat="22.3590338439" lon="114.3620896048"><ele>85.000</ele></trkpt>
      <trkpt lat="22.3591049054" lon="114.3621548295"><ele>84.000</ele></trkpt>
      <trkpt lat="22.3591746853" lon="114.3622028167"><ele>84.000</ele></trkpt>
      <trkpt lat="22.3593428291" lon="114.3622737056"><ele>84.000</ele></trkpt>
      <trkpt lat="22.3595109728" lon="114.3623445947"><ele>84.000</ele></trkpt>
      <trkpt lat="22.3595352993" lon="114.3623548507"><ele>84.000</ele></trkpt>
      <trkpt lat="22.3596087188" lon="114.3623984954"><ele>86.000</ele></trkpt>
      <trkpt lat="22.3596856885" lon="114.3624757827"><ele>84.000</ele></trkpt>
      <trkpt lat="22.3597190509" lon="114.3625528899"><ele>82.000</ele></trkpt>
      <trkpt lat="22.3597335540" lon="114.3626213110"><ele>82.000</ele></trkpt>
      <trkpt lat="22.3597332247" lon="114.3626941911"><ele>82.000</ele></trkpt>
      <trkpt lat="22.3597038543" lon="114.3627693199"><ele>82.000</ele></trkpt>
      <trkpt lat="22.3596137622" lon="114.3629376118"><ele>82.000</ele></trkpt>
      <trkpt lat="22.3596039005" lon="114.3629560334"><ele>82.000</ele></trkpt>
      <trkpt lat="22.3595265314" lon="114.3631314893"><ele>80.000</ele></trkpt>
      <trkpt lat="22.3595258330" lon="114.3631330729"><ele>80.000</ele></trkpt>
      <trkpt lat="22.3595175856" lon="114.3632153646"><ele>78.000</ele></trkpt>
      <trkpt lat="22.3595192310" lon="114.3632984423"><ele>78.000</ele></trkpt>
      <trkpt lat="22.3595197828" lon="114.3633823380"><ele>78.000</ele></trkpt>
      <trkpt lat="22.3595414902" lon="114.3634639569"><ele>77.000</ele></trkpt>
      <trkpt lat="22.3595935883" lon="114.3636110561"><ele>76.000</ele></trkpt>
      <trkpt lat="22.3596245607" lon="114.3636881603"><ele>76.000</ele></trkpt>
      <trkpt lat="22.3596459820" lon="114.3637601150"><ele>76.000</ele></trkpt>
      <trkpt lat="22.3596577949" lon="114.3638757257"><ele>76.000</ele></trkpt>
      <trkpt lat="22.3596552957" lon="114.3639707668"><ele>75.000</ele></trkpt>
      <trkpt lat="22.3596337031" lon="114.3640478009"><ele>72.000</ele></trkpt>
      <trkpt lat="22.3595714528" lon="114.3641581747"><ele>73.000</ele></trkpt>
      <trkpt lat="22.3594805007" lon="114.3642941973"><ele>72.000</ele></trkpt>
      <trkpt lat="22.3594206664" lon="114.3643814558"><ele>72.000</ele></trkpt>
      <trkpt lat="22.3593943424" lon="114.3644173835"><ele>71.000</ele></trkpt>
      <trkpt lat="22.3593726345" lon="114.3644667669"><ele>70.000</ele></trkpt>
      <trkpt lat="22.3593751114" lon="114.3645175389"><ele>72.000</ele></trkpt>
      <trkpt lat="22.3593822173" lon="114.3645714929"><ele>71.000</ele></trkpt>
      <trkpt lat="22.3593964808" lon="114.3646331623"><ele>70.000</ele></trkpt>
      <trkpt lat="22.3594465169" lon="114.3647539610"><ele>68.000</ele></trkpt>
      <trkpt lat="22.3595395584" lon="114.3649203874"><ele>67.000</ele></trkpt>
      <trkpt lat="22.3596325996" lon="114.3650868141"><ele>66.000</ele></trkpt>
      <trkpt lat="22.3597256407" lon="114.3652532411"><ele>66.000</ele></trkpt>
      <trkpt lat="22.3597612542" lon="114.3653169447"><ele>66.000</ele></trkpt>
      <trkpt lat="22.3597922288" lon="114.3653914804"><ele>66.000</ele></trkpt>
      <trkpt lat="22.3598207989" lon="114.3654788577"><ele>66.000</ele></trkpt>
      <trkpt lat="22.3598183136" lon="114.3655610552"><ele>66.000</ele></trkpt>
      <trkpt lat="22.3597895639" lon="114.3656278048"><ele>66.000</ele></trkpt>
      <trkpt lat="22.3597063517" lon="114.3657761438"><ele>66.000</ele></trkpt>
      <trkpt lat="22.3596113014" lon="114.3659412532"><ele>66.000</ele></trkpt>
      <trkpt lat="22.3596099957" lon="114.3659435213"><ele>66.000</ele></trkpt>
      <trkpt lat="22.3595907848" lon="114.3660256961"><ele>66.000</ele></trkpt>
      <trkpt lat="22.3595964031" lon="114.3661026161"><ele>66.000</ele></trkpt>
      <trkpt lat="22.3596346582" lon="114.3662091627"><ele>66.000</ele></trkpt>
      <trkpt lat="22.3596717220" lon="114.3662826816"><ele>66.000</ele></trkpt>
      <trkpt lat="22.3597456708" lon="114.3663855329"><ele>66.000</ele></trkpt>
      <trkpt lat="22.3598564789" lon="114.3665388683"><ele>67.000</ele></trkpt>
      <trkpt lat="22.3599221949" lon="114.3666298058"><ele>66.000</ele></trkpt>
      <trkpt lat="22.3599651032" lon="114.3667146329"><ele>66.000</ele></trkpt>
      <trkpt lat="22.3599889359" lon="114.3667660409"><ele>66.000</ele></trkpt>
      <trkpt lat="22.3599960078" lon="114.3668482515"><ele>68.000</ele></trkpt>
      <trkpt lat="22.3599863906" lon="114.3668996132"><ele>68.000</ele></trkpt>
      <trkpt lat="22.3599934284" lon="114.3670100811"><ele>68.000</ele></trkpt>
      <trkpt lat="22.3600076466" lon="114.3671102830"><ele>68.000</ele></trkpt>
      <trkpt lat="22.3600290271" lon="114.3672156315"><ele>70.000</ele></trkpt>
      <trkpt lat="22.3600886807" lon="114.3673989091"><ele>70.000</ele></trkpt>
      <trkpt lat="22.3600909252" lon="114.3674058051"><ele>72.000</ele></trkpt>
      <trkpt lat="22.3601219230" lon="114.3674597911"><ele>70.000</ele></trkpt>
      <trkpt lat="22.3601361833" lon="114.3675240309"><ele>71.000</ele></trkpt>
      <trkpt lat="22.3601360986" lon="114.3675959562"><ele>72.000</ele></trkpt>
      <trkpt lat="22.3601728395" lon="114.3677860709"><ele>72.000</ele></trkpt>
      <trkpt lat="22.3601907205" lon="114.3678785961"><ele>72.000</ele></trkpt>
      <trkpt lat="22.3602163139" lon="114.3680708116"><ele>73.000</ele></trkpt>
      <trkpt lat="22.3602215089" lon="114.3681098279"><ele>73.000</ele></trkpt>
      <trkpt lat="22.3602548859" lon="114.3681715250"><ele>72.000</ele></trkpt>
      <trkpt lat="22.3603097499" lon="114.3682486633"><ele>72.000</ele></trkpt>
      <trkpt lat="22.3603717926" lon="114.3683155366"><ele>73.000</ele></trkpt>
      <trkpt lat="22.3604004189" lon="114.3683541069"><ele>73.000</ele></trkpt>
      <trkpt lat="22.3604147435" lon="114.3683950306"><ele>74.000</ele></trkpt>
      <trkpt lat="22.3604080083" lon="114.3684700022"><ele>74.000</ele></trkpt>
      <trkpt lat="22.3603656428" lon="114.3686024786"><ele>72.000</ele></trkpt>
      <trkpt lat="22.3603173708" lon="114.3687505488"><ele>72.000</ele></trkpt>
      <trkpt lat="22.3603114816" lon="114.3688035224"><ele>72.000</ele></trkpt>
      <trkpt lat="22.3603305385" lon="114.3688523555"><ele>72.000</ele></trkpt>
      <trkpt lat="22.3603758840" lon="114.3688960867"><ele>72.000</ele></trkpt>
      <trkpt lat="22.3604664773" lon="114.3689225790"><ele>72.000</ele></trkpt>
      <trkpt lat="22.3605502252" lon="114.3689631144"><ele>72.000</ele></trkpt>
      <trkpt lat="22.3606170383" lon="114.3690377006"><ele>72.000</ele></trkpt>
      <trkpt lat="22.3606456217" lon="114.3691122353"><ele>76.000</ele></trkpt>
      <trkpt lat="22.3606502999" lon="114.3691970111"><ele>75.000</ele></trkpt>
      <trkpt lat="22.3606382824" lon="114.3692560774"><ele>72.000</ele></trkpt>
      <trkpt lat="22.3606047592" lon="114.3693176821"><ele>72.000</ele></trkpt>
      <trkpt lat="22.3605712199" lon="114.3693921305"><ele>73.000</ele></trkpt>
      <trkpt lat="22.3605065394" lon="114.3695586656"><ele>72.000</ele></trkpt>
      <trkpt lat="22.3604753561" lon="114.3696360336"><ele>72.000</ele></trkpt>
      <trkpt lat="22.3604776538" lon="114.3697131002"><ele>72.000</ele></trkpt>
      <trkpt lat="22.3604870923" lon="114.3698132961"><ele>73.000</ele></trkpt>
      <trkpt lat="22.3604729577" lon="114.3699443286"><ele>72.000</ele></trkpt>
      <trkpt lat="22.3604461637" lon="114.3700726862"><ele>74.000</ele></trkpt>
      <trkpt lat="22.3604389072" lon="114.3701471716"><ele>72.000</ele></trkpt>
      <trkpt lat="22.3604388428" lon="114.3702011154"><ele>72.000</ele></trkpt>
      <trkpt lat="22.3604220468" lon="114.3702601750"><ele>72.000</ele></trkpt>
      <trkpt lat="22.3603933351" lon="114.3702935296"><ele>72.000</ele></trkpt>
      <trkpt lat="22.3603502537" lon="114.3703551207"><ele>72.000</ele></trkpt>
      <trkpt lat="22.3603119656" lon="114.3704038748"><ele>72.000</ele></trkpt>
      <trkpt lat="22.3602792030" lon="114.3704687432"><ele>72.000</ele></trkpt>
      <trkpt lat="22.3602592043" lon="114.3705682032"><ele>72.000</ele></trkpt>
      <trkpt lat="22.3602662611" lon="114.3706606889"><ele>72.000</ele></trkpt>
      <trkpt lat="22.3602852898" lon="114.3707326416"><ele>72.000</ele></trkpt>
      <trkpt lat="22.3603091335" lon="114.3707737747"><ele>72.000</ele></trkpt>
      <trkpt lat="22.3603208572" lon="114.3708338406"><ele>72.000</ele></trkpt>
      <trkpt lat="22.3603281253" lon="114.3708765527"><ele>72.000</ele></trkpt>
      <trkpt lat="22.3603209146" lon="114.3709125059"><ele>72.000</ele></trkpt>
      <trkpt lat="22.3603456875" lon="114.3711048458"><ele>72.000</ele></trkpt>
      <trkpt lat="22.3603516894" lon="114.3711514453"><ele>72.000</ele></trkpt>
      <trkpt lat="22.3603707109" lon="114.3712285351"><ele>72.000</ele></trkpt>
      <trkpt lat="22.3604088418" lon="114.3713107892"><ele>72.000</ele></trkpt>
      <trkpt lat="22.3604756561" lon="114.3713828075"><ele>72.000</ele></trkpt>
      <trkpt lat="22.3605401064" lon="114.3714342729"><ele>74.000</ele></trkpt>
      <trkpt lat="22.3606452235" lon="114.3714446938"><ele>72.000</ele></trkpt>
      <trkpt lat="22.3607456005" lon="114.3714242836"><ele>72.000</ele></trkpt>
      <trkpt lat="22.3608101465" lon="114.3713961158"><ele>72.000</ele></trkpt>
      <trkpt lat="22.3608958123" lon="114.3713452714"><ele>72.000</ele></trkpt>
      <trkpt lat="22.3610509157" lon="114.3712457846"><ele>72.000</ele></trkpt>
      <trkpt lat="22.3611042553" lon="114.3712115714"><ele>71.000</ele></trkpt>
      <trkpt lat="22.3611712022" lon="114.3711731319"><ele>70.000</ele></trkpt>
      <trkpt lat="22.3612381346" lon="114.3711475372"><ele>70.000</ele></trkpt>
      <trkpt lat="22.3613122221" lon="114.3711322272"><ele>69.000</ele></trkpt>
      <trkpt lat="22.3613628349" lon="114.3711266653"><ele>70.000</ele></trkpt>
      <trkpt lat="22.3614484313" lon="114.3711170033"><ele>68.000</ele></trkpt>
      <trkpt lat="22.3615201325" lon="114.3710991210"><ele>68.000</ele></trkpt>
      <trkpt lat="22.3616379416" lon="114.3710955028"><ele>68.000</ele></trkpt>
      <trkpt lat="22.3616919992" lon="114.3711278704"><ele>68.000</ele></trkpt>
      <trkpt lat="22.3617446304" lon="114.3711816344"><ele>68.000</ele></trkpt>
      <trkpt lat="22.3617994498" lon="114.3712947382"><ele>68.000</ele></trkpt>
      <trkpt lat="22.3618781489" lon="114.3714695116"><ele>66.000</ele></trkpt>
      <trkpt lat="22.3618804702" lon="114.3714746667"><ele>66.000</ele></trkpt>
      <trkpt lat="22.3619520015" lon="114.3715980698"><ele>66.000</ele></trkpt>
      <trkpt lat="22.3620188257" lon="114.3716623831"><ele>66.000</ele></trkpt>
      <trkpt lat="22.3621000097" lon="114.3717061656"><ele>66.000</ele></trkpt>
      <trkpt lat="22.3622768353" lon="114.3717457076"><ele>66.000</ele></trkpt>
      <trkpt lat="22.3624536609" lon="114.3717852498"><ele>66.000</ele></trkpt>
      <trkpt lat="22.3624586348" lon="114.3717863621"><ele>66.000</ele></trkpt>
      <trkpt lat="22.3626324028" lon="114.3718393023"><ele>66.000</ele></trkpt>
      <trkpt lat="22.3628061708" lon="114.3718922426"><ele>66.000</ele></trkpt>
      <trkpt lat="22.3628303206" lon="114.3718996002"><ele>66.000</ele></trkpt>
      <trkpt lat="22.3630008044" lon="114.3719637059"><ele>66.000</ele></trkpt>
      <trkpt lat="22.3630983944" lon="114.3720004020"><ele>66.000</ele></trkpt>
      <trkpt lat="22.3632662082" lon="114.3720721906"><ele>66.000</ele></trkpt>
      <trkpt lat="22.3633634729" lon="114.3721137994"><ele>66.000</ele></trkpt>
      <trkpt lat="22.3635267617" lon="114.3721967781"><ele>66.000</ele></trkpt>
      <trkpt lat="22.3636524048" lon="114.3722606265"><ele>66.000</ele></trkpt>
      <trkpt lat="22.3638089126" lon="114.3723575394"><ele>66.000</ele></trkpt>
      <trkpt lat="22.3638576746" lon="114.3723877339"><ele>66.000</ele></trkpt>
      <trkpt lat="22.3639532378" lon="114.3724455874"><ele>66.000</ele></trkpt>
      <trkpt lat="22.3641064231" lon="114.3725484538"><ele>66.000</ele></trkpt>
      <trkpt lat="22.3641429502" lon="114.3725729824"><ele>66.000</ele></trkpt>
      <trkpt lat="22.3642182328" lon="114.3726261931"><ele>66.000</ele></trkpt>
      <trkpt lat="22.3642861336" lon="114.3726811179"><ele>66.000</ele></trkpt>
      <trkpt lat="22.3644317530" lon="114.3727959865"><ele>66.000</ele></trkpt>
      <trkpt lat="22.3645066196" lon="114.3728550435"><ele>66.000</ele></trkpt>
      <trkpt lat="22.3646110131" lon="114.3729438333"><ele>66.000</ele></trkpt>
      <trkpt lat="22.3647471643" lon="114.3730714214"><ele>66.000</ele></trkpt>
      <trkpt lat="22.3648670352" lon="114.3731837536"><ele>66.000</ele></trkpt>
      <trkpt lat="22.3649985696" lon="114.3733168224"><ele>66.000</ele></trkpt>
      <trkpt lat="22.3650783786" lon="114.3733975625"><ele>66.000</ele></trkpt>
      <trkpt lat="22.3651966831" lon="114.3735442871"><ele>66.000</ele></trkpt>
      <trkpt lat="22.3653149876" lon="114.3736910120"><ele>66.000</ele></trkpt>
      <trkpt lat="22.3653321597" lon="114.3737123094"><ele>66.000</ele></trkpt>
      <trkpt lat="22.3653620153" lon="114.3737636737"><ele>66.000</ele></trkpt>
      <trkpt lat="22.3653842763" lon="114.3738223675"><ele>66.000</ele></trkpt>
      <trkpt lat="22.3653961652" lon="114.3739000280"><ele>66.000</ele></trkpt>
      <trkpt lat="22.3654001869" lon="114.3739568320"><ele>66.000</ele></trkpt>
      <trkpt lat="22.3654088059" lon="114.3740203902"><ele>65.000</ele></trkpt>
      <trkpt lat="22.3654414134" lon="114.3740884097"><ele>64.000</ele></trkpt>
      <trkpt lat="22.3654852027" lon="114.3741325605"><ele>64.000</ele></trkpt>
      <trkpt lat="22.3654996603" lon="114.3741624170"><ele>64.000</ele></trkpt>
      <trkpt lat="22.3655056821" lon="114.3742081263"><ele>64.000</ele></trkpt>
      <trkpt lat="22.3655011594" lon="114.3742364900"><ele>64.000</ele></trkpt>
      <trkpt lat="22.3655476187" lon="114.3742608380"><ele>64.000</ele></trkpt>
      <trkpt lat="22.3655835215" lon="114.3742547796"><ele>66.000</ele></trkpt>
      <trkpt lat="22.3656035237" lon="114.3742268970"><ele>68.000</ele></trkpt>
      <trkpt lat="22.3656171775" lon="114.3741723441"><ele>67.000</ele></trkpt>
      <trkpt lat="22.3656396732" lon="114.3740584139"><ele>68.000</ele></trkpt>
      <trkpt lat="22.3656566996" lon="114.3740144254"><ele>68.000</ele></trkpt>
      <trkpt lat="22.3656777407" lon="114.3739543410"><ele>66.000</ele></trkpt>
      <trkpt lat="22.3657057774" lon="114.3738878253"><ele>66.000</ele></trkpt>
      <trkpt lat="22.3657478051" lon="114.3738116677"><ele>66.000</ele></trkpt>
      <trkpt lat="22.3657947938" lon="114.3737602074"><ele>66.000</ele></trkpt>
      <trkpt lat="22.3658517662" lon="114.3737098339"><ele>66.000</ele></trkpt>
      <trkpt lat="22.3659017595" lon="114.3736508638"><ele>66.000</ele></trkpt>
      <trkpt lat="22.3659857080" lon="114.3735855004"><ele>67.000</ele></trkpt>
      <trkpt lat="22.3660116875" lon="114.3735694342"><ele>68.000</ele></trkpt>
      <trkpt lat="22.3661275118" lon="114.3735642297"><ele>71.000</ele></trkpt>
      <trkpt lat="22.3661964045" lon="114.3735643265"><ele>73.000</ele></trkpt>
      <trkpt lat="22.3662652911" lon="114.3735687177"><ele>75.000</ele></trkpt>
      <trkpt lat="22.3663422019" lon="114.3735800340"><ele>74.000</ele></trkpt>
      <trkpt lat="22.3663950699" lon="114.3735839279"><ele>74.000</ele></trkpt>
      <trkpt lat="22.3664260132" lon="114.3735904124"><ele>76.000</ele></trkpt>
      <trkpt lat="22.3664569547" lon="114.3735990437"><ele>76.000</ele></trkpt>
      <trkpt lat="22.3664809028" lon="114.3736108856"><ele>76.000</ele></trkpt>
      <trkpt lat="22.3665058431" lon="114.3736280962"><ele>77.000</ele></trkpt>
      <trkpt lat="22.3665537118" lon="114.3736743229"><ele>78.000</ele></trkpt>
      <trkpt lat="22.3666125424" lon="114.3737377407"><ele>78.000</ele></trkpt>
      <trkpt lat="22.3666494426" lon="114.3737721437"><ele>80.000</ele></trkpt>
      <trkpt lat="22.3666853487" lon="114.3738033248"><ele>81.000</ele></trkpt>
      <trkpt lat="22.3667212462" lon="114.3738409470"><ele>80.000</ele></trkpt>
      <trkpt lat="22.3668189273" lon="114.3739774164"><ele>82.000</ele></trkpt>
      <trkpt lat="22.3668587980" lon="114.3740322198"><ele>84.000</ele></trkpt>
      <trkpt lat="22.3669046621" lon="114.3740848851"><ele>84.000</ele></trkpt>
      <trkpt lat="22.3669166297" lon="114.3740956365"><ele>84.000</ele></trkpt>
      <trkpt lat="22.3669395890" lon="114.3740999632"><ele>84.000</ele></trkpt>
      <trkpt lat="22.3669954594" lon="114.3741343931"><ele>84.000</ele></trkpt>
      <trkpt lat="22.3670812543" lon="114.3741924820"><ele>86.000</ele></trkpt>
      <trkpt lat="22.3671800351" lon="114.3742452220"><ele>88.000</ele></trkpt>
      <trkpt lat="22.3672508813" lon="114.3742807460"><ele>88.000</ele></trkpt>
      <trkpt lat="22.3673416891" lon="114.3743216665"><ele>89.000</ele></trkpt>
      <trkpt lat="22.3673915895" lon="114.3743389125"><ele>90.000</ele></trkpt>
      <trkpt lat="22.3675213355" lon="114.3743809619"><ele>90.000</ele></trkpt>
      <trkpt lat="22.3676251319" lon="114.3744143859"><ele>92.000</ele></trkpt>
      <trkpt lat="22.3677419048" lon="114.3744510497"><ele>92.000</ele></trkpt>
      <trkpt lat="22.3678127749" lon="114.3744661778"><ele>94.000</ele></trkpt>
      <trkpt lat="22.3678836498" lon="114.3744780862"><ele>94.000</ele></trkpt>
      <trkpt lat="22.3679874541" lon="114.3745050702"><ele>96.000</ele></trkpt>
      <trkpt lat="22.3680413474" lon="114.3745233959"><ele>96.000</ele></trkpt>
      <trkpt lat="22.3681321495" lon="114.3745696841"><ele>96.000</ele></trkpt>
      <trkpt lat="22.3681850349" lon="114.3745955224"><ele>98.000</ele></trkpt>
      <trkpt lat="22.3682848253" lon="114.3746386028"><ele>98.000</ele></trkpt>
      <trkpt lat="22.3683117722" lon="114.3746483026"><ele>98.000</ele></trkpt>
      <trkpt lat="22.3683675859" lon="114.3746728868"><ele>98.000</ele></trkpt>
      <trkpt lat="22.3684255356" lon="114.3746956962"><ele>100.000</ele></trkpt>
      <trkpt lat="22.3684425132" lon="114.3746924996"><ele>100.000</ele></trkpt>
      <trkpt lat="22.3684919878" lon="114.3746673340"><ele>100.000</ele></trkpt>
      <trkpt lat="22.3685374266" lon="114.3746421802"><ele>102.000</ele></trkpt>
      <trkpt lat="22.3685534068" lon="114.3746379083"><ele>102.000</ele></trkpt>
      <trkpt lat="22.3685803686" lon="114.3746347258"><ele>102.000</ele></trkpt>
      <trkpt lat="22.3686222986" lon="114.3746380057"><ele>102.000</ele></trkpt>
      <trkpt lat="22.3686732083" lon="114.3746466655"><ele>103.000</ele></trkpt>
      <trkpt lat="22.3687221200" lon="114.3746563964"><ele>102.000</ele></trkpt>
      <trkpt lat="22.3687480765" lon="114.3746585798"><ele>102.000</ele></trkpt>
      <trkpt lat="22.3687780349" lon="114.3746543286"><ele>102.000</ele></trkpt>
      <trkpt lat="22.3688459288" lon="114.3746544245"><ele>104.000</ele></trkpt>
      <trkpt lat="22.3688659010" lon="114.3746512322"><ele>104.000</ele></trkpt>
      <trkpt lat="22.3688848661" lon="114.3746555524"><ele>104.000</ele></trkpt>
      <trkpt lat="22.3688995720" lon="114.3746646485"><ele>106.000</ele></trkpt>
      <trkpt lat="22.3689187846" lon="114.3746792174"><ele>106.000</ele></trkpt>
      <trkpt lat="22.3689357443" lon="114.3746899760"><ele>106.000</ele></trkpt>
      <trkpt lat="22.3689527088" lon="114.3746975150"><ele>106.000</ele></trkpt>
      <trkpt lat="22.3689706817" lon="114.3746964666"><ele>106.000</ele></trkpt>
      <trkpt lat="22.3690405209" lon="114.3746728375"><ele>106.000</ele></trkpt>
      <trkpt lat="22.3690745642" lon="114.3746601149"><ele>106.000</ele></trkpt>
      <trkpt lat="22.3691304975" lon="114.3746430180"><ele>109.000</ele></trkpt>
      <trkpt lat="22.3691704427" lon="114.3746366333"><ele>110.000</ele></trkpt>
      <trkpt lat="22.3691964017" lon="114.3746366700"><ele>110.000</ele></trkpt>
      <trkpt lat="22.3692203549" lon="114.3746442179"><ele>111.000</ele></trkpt>
      <trkpt lat="22.3692372027" lon="114.3746527160"><ele>108.000</ele></trkpt>
      <trkpt lat="22.3692662621" lon="114.3746614596"><ele>108.000</ele></trkpt>
      <trkpt lat="22.3692902232" lon="114.3746625663"><ele>108.000</ele></trkpt>
      <trkpt lat="22.3693201816" lon="114.3746583152"><ele>110.000</ele></trkpt>
      <trkpt lat="22.3693591145" lon="114.3746637375"><ele>110.000</ele></trkpt>
      <trkpt lat="22.3694030359" lon="114.3746713137"><ele>110.000</ele></trkpt>
      <trkpt lat="22.3694559406" lon="114.3746821232"><ele>110.000</ele></trkpt>
      <trkpt lat="22.3695048501" lon="114.3746929279"><ele>112.000</ele></trkpt>
      <trkpt lat="22.3695447782" lon="114.3747004985"><ele>107.000</ele></trkpt>
      <trkpt lat="22.3695767277" lon="114.3747016175"><ele>107.000</ele></trkpt>
      <trkpt lat="22.3696166650" lon="114.3747016739"><ele>107.000</ele></trkpt>
      <trkpt lat="22.3696446286" lon="114.3746952722"><ele>110.000</ele></trkpt>
      <trkpt lat="22.3696735817" lon="114.3746963870"><ele>110.000</ele></trkpt>
      <trkpt lat="22.3697005329" lon="114.3747017924"><ele>107.000</ele></trkpt>
      <trkpt lat="22.3697314744" lon="114.3747104242"><ele>108.000</ele></trkpt>
      <trkpt lat="22.3697714052" lon="114.3747158479"><ele>108.000</ele></trkpt>
      <trkpt lat="22.3698043538" lon="114.3747158945"><ele>107.000</ele></trkpt>
      <trkpt lat="22.3698383042" lon="114.3747127219"><ele>107.000</ele></trkpt>
      <trkpt lat="22.3698672679" lon="114.3747052487"><ele>107.000</ele></trkpt>
      <trkpt lat="22.3698962381" lon="114.3746924072"><ele>108.000</ele></trkpt>
      <trkpt lat="22.3699162308" lon="114.3746731127"><ele>108.000</ele></trkpt>
      <trkpt lat="22.3699352116" lon="114.3746645515"><ele>108.000</ele></trkpt>
      <trkpt lat="22.3699671733" lon="114.3746549348"><ele>108.000</ele></trkpt>
      <trkpt lat="22.3700270942" lon="114.3746432109"><ele>109.000</ele></trkpt>
      <trkpt lat="22.3700840209" lon="114.3746304098"><ele>109.000</ele></trkpt>
      <trkpt lat="22.3701269327" lon="114.3746239331"><ele>108.000</ele></trkpt>
      <trkpt lat="22.3701789550" lon="114.3746060305"><ele>107.000</ele></trkpt>
      <trkpt lat="22.3702198550" lon="114.3745919552"><ele>110.000</ele></trkpt>
      <trkpt lat="22.3702577996" lon="114.3745887882"><ele>110.000</ele></trkpt>
      <trkpt lat="22.3702987318" lon="114.3745920666"><ele>110.000</ele></trkpt>
      <trkpt lat="22.3703266875" lon="114.3745921061"><ele>110.000</ele></trkpt>
      <trkpt lat="22.3703746118" lon="114.3745932476"><ele>112.000</ele></trkpt>
      <trkpt lat="22.3704425193" lon="114.3745815349"><ele>110.000</ele></trkpt>
      <trkpt lat="22.3704834724" lon="114.3745676373"><ele>110.000</ele></trkpt>
      <trkpt lat="22.3705244334" lon="114.3745472985"><ele>111.000</ele></trkpt>
      <trkpt lat="22.3705584087" lon="114.3745237292"><ele>111.000</ele></trkpt>
      <trkpt lat="22.3705893909" lon="114.3744990817"><ele>111.000</ele></trkpt>
      <trkpt lat="22.3706133716" lon="114.3744840873"><ele>110.000</ele></trkpt>
      <trkpt lat="22.3706493528" lon="114.3744530056"><ele>112.000</ele></trkpt>
      <trkpt lat="22.3706663592" lon="114.3744261926"><ele>110.000</ele></trkpt>
      <trkpt lat="22.3706803873" lon="114.3743854190"><ele>111.000</ele></trkpt>
      <trkpt lat="22.3706924021" lon="114.3743575241"><ele>113.000</ele></trkpt>
      <trkpt lat="22.3707054092" lon="114.3743349990"><ele>110.000</ele></trkpt>
      <trkpt lat="22.3707393854" lon="114.3743114295"><ele>112.000</ele></trkpt>
      <trkpt lat="22.3707593614" lon="114.3743050174"><ele>111.000</ele></trkpt>
      <trkpt lat="22.3707873403" lon="114.3742868069"><ele>110.000</ele></trkpt>
      <trkpt lat="22.3708103340" lon="114.3742621491"><ele>110.000</ele></trkpt>
      <trkpt lat="22.3708333457" lon="114.3742235349"><ele>108.000</ele></trkpt>
      <trkpt lat="22.3708533728" lon="114.3741752555"><ele>110.000</ele></trkpt>
      <trkpt lat="22.3708843824" lon="114.3741280644"><ele>109.000</ele></trkpt>
      <trkpt lat="22.3709254074" lon="114.3740551233"><ele>110.000</ele></trkpt>
      <trkpt lat="22.3709504056" lon="114.3740240270"><ele>110.000</ele></trkpt>
      <trkpt lat="22.3709824130" lon="114.3739768373"><ele>110.000</ele></trkpt>
      <trkpt lat="22.3710161856" lon="114.3739187249"><ele>110.000</ele></trkpt>
      <trkpt lat="22.3710344784" lon="114.3738566778"><ele>110.000</ele></trkpt>
      <trkpt lat="22.3710425168" lon="114.3738148227"><ele>110.000</ele></trkpt>
      <trkpt lat="22.3710625617" lon="114.3737525868"><ele>110.000</ele></trkpt>
      <trkpt lat="22.3710736059" lon="114.3737021478"><ele>110.000</ele></trkpt>
      <trkpt lat="22.3710926076" lon="114.3736764103"><ele>111.000</ele></trkpt>
      <trkpt lat="22.3711155856" lon="114.3736646339"><ele>110.000</ele></trkpt>
      <trkpt lat="22.3711405520" lon="114.3736603745"><ele>110.000</ele></trkpt>
      <trkpt lat="22.3711655318" lon="114.3736443074"><ele>109.000</ele></trkpt>
      <trkpt lat="22.3711815407" lon="114.3736164180"><ele>110.000</ele></trkpt>
      <trkpt lat="22.3711905608" lon="114.3735885197"><ele>110.000</ele></trkpt>
      <trkpt lat="22.3711875600" lon="114.3735602967"><ele>111.000</ele></trkpt>
      <trkpt lat="22.3711746681" lon="114.3735208657"><ele>112.000</ele></trkpt>
      <trkpt lat="22.3711736954" lon="114.3734993947"><ele>112.000</ele></trkpt>
      <trkpt lat="22.3711837091" lon="114.3734757913"><ele>110.000</ele></trkpt>
      <trkpt lat="22.3712016951" lon="114.3734640079"><ele>110.000</ele></trkpt>
      <trkpt lat="22.3712186766" lon="114.3734575904"><ele>110.000</ele></trkpt>
      <trkpt lat="22.3712396488" lon="114.3734533263"><ele>108.000</ele></trkpt>
      <trkpt lat="22.3712935605" lon="114.3734566227"><ele>108.000</ele></trkpt>
      <trkpt lat="22.3713404839" lon="114.3734588354"><ele>106.000</ele></trkpt>
      <trkpt lat="22.3713684509" lon="114.3734502866"><ele>106.000</ele></trkpt>
      <trkpt lat="22.3714004216" lon="114.3734331553"><ele>106.000</ele></trkpt>
      <trkpt lat="22.3714243892" lon="114.3734288944"><ele>104.000</ele></trkpt>
      <trkpt lat="22.3714593305" lon="114.3734321641"><ele>104.000</ele></trkpt>
      <trkpt lat="22.3715651951" lon="114.3734076224"><ele>98.000</ele></trkpt>
      <trkpt lat="22.3715911802" lon="114.3733861882"><ele>98.000</ele></trkpt>
      <trkpt lat="22.3716111650" lon="114.3733733346"><ele>96.000</ele></trkpt>
      <trkpt lat="22.3716860527" lon="114.3733691452"><ele>96.000</ele></trkpt>
      <trkpt lat="22.3717350584" lon="114.3733015831"><ele>94.000</ele></trkpt>
      <trkpt lat="22.3717670317" lon="114.3732823040"><ele>94.000</ele></trkpt>
      <trkpt lat="22.3718029970" lon="114.3732641053"><ele>93.000</ele></trkpt>
      <trkpt lat="22.3718249654" lon="114.3732619884"><ele>93.000</ele></trkpt>
      <trkpt lat="22.3718539250" lon="114.3732577355"><ele>92.000</ele></trkpt>
      <trkpt lat="22.3718613378" lon="114.3732535775"><ele>92.000</ele></trkpt>
      <trkpt lat="22.3718679052" lon="114.3732465347"><ele>92.000</ele></trkpt>
      <trkpt lat="22.3718766673" lon="114.3732317720"><ele>90.000</ele></trkpt>
      <trkpt lat="22.3718873119" lon="114.3732106317"><ele>90.000</ele></trkpt>
      <trkpt lat="22.3718976416" lon="114.3731915057"><ele>90.000</ele></trkpt>
      <trkpt lat="22.3719079648" lon="114.3731777530"><ele>90.000</ele></trkpt>
      <trkpt lat="22.3719217253" lon="114.3731623254"><ele>89.000</ele></trkpt>
      <trkpt lat="22.3719317405" lon="114.3731448777"><ele>90.000</ele></trkpt>
      <trkpt lat="22.3719390599" lon="114.3731365009"><ele>90.000</ele></trkpt>
    </trkseg>
  </trk>
</gpx>
