<?xml version="1.0" encoding="UTF-8"?>
<gpx xmlns:xsi="http://www.w3.org/2001/XMLSchema-instance"
     xsi:schemaLocation="http://www.topografix.com/GPX/1/1 http://www.topografix.com/GPX/1/1/gpx.xsd"
     version="1.1" creator="json3d_batch_to_gpx"
     xmlns="http://www.topografix.com/GPX/1/1">
  <metadata>
    <name>MacLehoseTrail(Section6)TaiPoRoadtoShingMun</name>
  </metadata>
  <trk>
    <name>MacLehoseTrail(Section6)TaiPoRoadtoShingMun</name>
    <type>hike</type>
    <trkseg>
      <trkpt lat="22.3492421048" lon="114.1536456942"><ele>156.000</ele></trkpt>
      <trkpt lat="22.3492841038" lon="114.1536310291"><ele>156.000</ele></trkpt>
      <trkpt lat="22.3493199732" lon="114.1536309164"><ele>156.000</ele></trkpt>
      <trkpt lat="22.3493401221" lon="114.1536429510"><ele>156.000</ele></trkpt>
      <trkpt lat="22.3494253299" lon="114.1537373681"><ele>156.000</ele></trkpt>
      <trkpt lat="22.3494298276" lon="114.1537406380"><ele>156.000</ele></trkpt>
      <trkpt lat="22.3494603449" lon="114.1537620198"><ele>156.000</ele></trkpt>
      <trkpt lat="22.3494895339" lon="114.1537776935"><ele>156.000</ele></trkpt>
      <trkpt lat="22.3495200496" lon="114.1537876683"><ele>156.000</ele></trkpt>
      <trkpt lat="22.3495451011" lon="114.1537927231"><ele>156.000</ele></trkpt>
      <trkpt lat="22.3495681745" lon="114.1537949017"><ele>156.000</ele></trkpt>
      <trkpt lat="22.3495917061" lon="114.1537873080"><ele>156.000</ele></trkpt>
      <trkpt lat="22.3495957071" lon="114.1537843746"><ele>156.000</ele></trkpt>
      <trkpt lat="22.3496163759" lon="114.1537692373"><ele>156.000</ele></trkpt>
      <trkpt lat="22.3496604140" lon="114.1537411825"><ele>156.000</ele></trkpt>
      <trkpt lat="22.3496741037" lon="114.1537367727"><ele>156.000</ele></trkpt>
      <trkpt lat="22.3496860234" lon="114.1537384794"><ele>156.000</ele></trkpt>
      <trkpt lat="22.3497259151" lon="114.1537583928"><ele>156.000</ele></trkpt>
      <trkpt lat="22.3497775379" lon="114.1537875580"><ele>156.000</ele></trkpt>
      <trkpt lat="22.3498699647" lon="114.1538438497"><ele>154.000</ele></trkpt>
      <trkpt lat="22.3499590201" lon="114.1538793288"><ele>154.000</ele></trkpt>
      <trkpt lat="22.3500176205" lon="114.1538871925"><ele>152.000</ele></trkpt>
      <trkpt lat="22.3500837048" lon="114.1538842197"><ele>152.000</ele></trkpt>
      <trkpt lat="22.3502219015" lon="114.1538608489"><ele>150.000</ele></trkpt>
      <trkpt lat="22.3504003185" lon="114.1538306761"><ele>146.000</ele></trkpt>
      <trkpt lat="22.3504497167" lon="114.1538376773"><ele>146.000</ele></trkpt>
      <trkpt lat="22.3504952788" lon="114.1538586384"><ele>145.000</ele></trkpt>
      <trkpt lat="22.3505646041" lon="114.1539059454"><ele>144.000</ele></trkpt>
      <trkpt lat="22.3506195583" lon="114.1539285758"><ele>144.000</ele></trkpt>
      <trkpt lat="22.3506671959" lon="114.1539384120"><ele>142.000</ele></trkpt>
      <trkpt lat="22.3507115544" lon="114.1539413852"><ele>142.000</ele></trkpt>
      <trkpt lat="22.3507443008" lon="114.1539524374"><ele>142.000</ele></trkpt>
      <trkpt lat="22.3507741497" lon="114.1539734701"><ele>140.000</ele></trkpt>
      <trkpt lat="22.3508751162" lon="114.1540715738"><ele>140.000</ele></trkpt>
      <trkpt lat="22.3509060757" lon="114.1540911307"><ele>141.000</ele></trkpt>
      <trkpt lat="22.3509263939" lon="114.1540938457"><ele>141.000</ele></trkpt>
      <trkpt lat="22.3509457282" lon="114.1540863091"><ele>141.000</ele></trkpt>
      <trkpt lat="22.3509757507" lon="114.1540569856"><ele>142.000</ele></trkpt>
      <trkpt lat="22.3510620255" lon="114.1539358723"><ele>140.000</ele></trkpt>
      <trkpt lat="22.3511718365" lon="114.1537817184"><ele>140.000</ele></trkpt>
      <trkpt lat="22.3511944195" lon="114.1537645215"><ele>140.000</ele></trkpt>
      <trkpt lat="22.3512244454" lon="114.1537534376"><ele>141.000</ele></trkpt>
      <trkpt lat="22.3512718474" lon="114.1537514319"><ele>141.000</ele></trkpt>
      <trkpt lat="22.3513451176" lon="114.1537565688"><ele>140.000</ele></trkpt>
      <trkpt lat="22.3515253458" lon="114.1537692047"><ele>140.000</ele></trkpt>
      <trkpt lat="22.3515884677" lon="114.1537632898"><ele>140.000</ele></trkpt>
      <trkpt lat="22.3516395970" lon="114.1537387691"><ele>140.000</ele></trkpt>
      <trkpt lat="22.3517248893" lon="114.1536723606"><ele>140.000</ele></trkpt>
      <trkpt lat="22.3517688032" lon="114.1536603065"><ele>141.000</ele></trkpt>
      <trkpt lat="22.3518137121" lon="114.1536602990"><ele>144.000</ele></trkpt>
      <trkpt lat="22.3518474165" lon="114.1536763790"><ele>140.000</ele></trkpt>
      <trkpt lat="22.3518818354" lon="114.1537003613"><ele>142.000</ele></trkpt>
      <trkpt lat="22.3519122182" lon="114.1537349661"><ele>141.000</ele></trkpt>
      <trkpt lat="22.3519567608" lon="114.1537623078"><ele>143.000</ele></trkpt>
      <trkpt lat="22.3520356899" lon="114.1537701585"><ele>140.000</ele></trkpt>
      <trkpt lat="22.3521217747" lon="114.1537455446"><ele>140.000</ele></trkpt>
      <trkpt lat="22.3521951692" lon="114.1537041347"><ele>140.000</ele></trkpt>
      <trkpt lat="22.3522963087" lon="114.1536221328"><ele>140.000</ele></trkpt>
      <trkpt lat="22.3524007310" lon="114.1535097134"><ele>140.000</ele></trkpt>
      <trkpt lat="22.3524553767" lon="114.1534599398"><ele>140.000</ele></trkpt>
      <trkpt lat="22.3525102517" lon="114.1534339513"><ele>140.000</ele></trkpt>
      <trkpt lat="22.3525852207" lon="114.1534219986"><ele>140.000</ele></trkpt>
      <trkpt lat="22.3526112224" lon="114.1534192420"><ele>140.000</ele></trkpt>
      <trkpt lat="22.3527909616" lon="114.1534001866"><ele>140.000</ele></trkpt>
      <trkpt lat="22.3528931486" lon="114.1533873060"><ele>140.000</ele></trkpt>
      <trkpt lat="22.3529933663" lon="114.1533635826"><ele>140.000</ele></trkpt>
      <trkpt lat="22.3530668805" lon="114.1533329697"><ele>140.000</ele></trkpt>
      <trkpt lat="22.3531427857" lon="114.1532935704"><ele>142.000</ele></trkpt>
      <trkpt lat="22.3532126296" lon="114.1532422114"><ele>140.000</ele></trkpt>
      <trkpt lat="22.3532898307" lon="114.1531730752"><ele>138.000</ele></trkpt>
      <trkpt lat="22.3533421989" lon="114.1531049625"><ele>139.000</ele></trkpt>
      <trkpt lat="22.3533802711" lon="114.1530451033"><ele>140.000</ele></trkpt>
      <trkpt lat="22.3534169937" lon="114.1529582668"><ele>140.000</ele></trkpt>
      <trkpt lat="22.3534482408" lon="114.1528456750"><ele>139.000</ele></trkpt>
      <trkpt lat="22.3534582624" lon="114.1527630749"><ele>138.000</ele></trkpt>
      <trkpt lat="22.3534619267" lon="114.1526275732"><ele>138.000</ele></trkpt>
      <trkpt lat="22.3534600562" lon="114.1524993566"><ele>140.000</ele></trkpt>
      <trkpt lat="22.3534834742" lon="114.1524510333"><ele>142.000</ele></trkpt>
      <trkpt lat="22.3535509674" lon="114.1523834632"><ele>142.000</ele></trkpt>
      <trkpt lat="22.3536752079" lon="114.1522511547"><ele>144.000</ele></trkpt>
      <trkpt lat="22.3537178823" lon="114.1522192456"><ele>146.000</ele></trkpt>
      <trkpt lat="22.3537623906" lon="114.1521973260"><ele>146.000</ele></trkpt>
      <trkpt lat="22.3538715093" lon="114.1521606481"><ele>148.000</ele></trkpt>
      <trkpt lat="22.3540144471" lon="114.1521150422"><ele>150.000</ele></trkpt>
      <trkpt lat="22.3541049562" lon="114.1520942027"><ele>154.000</ele></trkpt>
      <trkpt lat="22.3541392009" lon="114.1520907129"><ele>151.000</ele></trkpt>
      <trkpt lat="22.3543190059" lon="114.1520723890"><ele>154.000</ele></trkpt>
      <trkpt lat="22.3543988875" lon="114.1520546076"><ele>156.000</ele></trkpt>
      <trkpt lat="22.3544666651" lon="114.1520231113"><ele>156.000</ele></trkpt>
      <trkpt lat="22.3545239926" lon="114.1519741319"><ele>157.000</ele></trkpt>
      <trkpt lat="22.3545762432" lon="114.1519140374"><ele>158.000</ele></trkpt>
      <trkpt lat="22.3546138075" lon="114.1518372178"><ele>160.000</ele></trkpt>
      <trkpt lat="22.3546422555" lon="114.1517375850"><ele>160.000</ele></trkpt>
      <trkpt lat="22.3546522901" lon="114.1516263152"><ele>160.000</ele></trkpt>
      <trkpt lat="22.3546642837" lon="114.1515171410"><ele>160.000</ele></trkpt>
      <trkpt lat="22.3546911627" lon="114.1514334797"><ele>160.000</ele></trkpt>
      <trkpt lat="22.3547298050" lon="114.1513736689"><ele>162.000</ele></trkpt>
      <trkpt lat="22.3547772362" lon="114.1513336703"><ele>162.000</ele></trkpt>
      <trkpt lat="22.3548376739" lon="114.1513096620"><ele>162.000</ele></trkpt>
      <trkpt lat="22.3549006254" lon="114.1513060478"><ele>162.000</ele></trkpt>
      <trkpt lat="22.3549846320" lon="114.1513283337"><ele>165.000</ele></trkpt>
      <trkpt lat="22.3550302128" lon="114.1513567507"><ele>164.000</ele></trkpt>
      <trkpt lat="22.3550632265" lon="114.1514018793"><ele>166.000</ele></trkpt>
      <trkpt lat="22.3551230746" lon="114.1515280092"><ele>166.000</ele></trkpt>
      <trkpt lat="22.3551353865" lon="114.1515546178"><ele>164.000</ele></trkpt>
      <trkpt lat="22.3551689388" lon="114.1516365316"><ele>165.000</ele></trkpt>
      <trkpt lat="22.3552173255" lon="114.1517014919"><ele>166.000</ele></trkpt>
      <trkpt lat="22.3552747793" lon="114.1517631894"><ele>166.000</ele></trkpt>
      <trkpt lat="22.3553564121" lon="114.1518053872"><ele>166.000</ele></trkpt>
      <trkpt lat="22.3554676393" lon="114.1517909804"><ele>168.000</ele></trkpt>
      <trkpt lat="22.3555432215" lon="114.1517682286"><ele>168.000</ele></trkpt>
      <trkpt lat="22.3556580974" lon="114.1517048612"><ele>168.000</ele></trkpt>
      <trkpt lat="22.3557098593" lon="114.1516740222"><ele>168.000</ele></trkpt>
      <trkpt lat="22.3558678336" lon="114.1515799029"><ele>171.000</ele></trkpt>
      <trkpt lat="22.3560258079" lon="114.1514857834"><ele>174.000</ele></trkpt>
      <trkpt lat="22.3561837820" lon="114.1513916637"><ele>174.000</ele></trkpt>
      <trkpt lat="22.3563417561" lon="114.1512975438"><ele>182.000</ele></trkpt>
      <trkpt lat="22.3564997302" lon="114.1512034237"><ele>178.000</ele></trkpt>
      <trkpt lat="22.3566577042" lon="114.1511093034"><ele>180.000</ele></trkpt>
      <trkpt lat="22.3566991721" lon="114.1510846558"><ele>180.000</ele></trkpt>
      <trkpt lat="22.3568572343" lon="114.1509907068"><ele>182.000</ele></trkpt>
      <trkpt lat="22.3570204770" lon="114.1509176090"><ele>184.000</ele></trkpt>
      <trkpt lat="22.3570915173" lon="114.1509046067"><ele>184.000</ele></trkpt>
      <trkpt lat="22.3571791969" lon="114.1509110855"><ele>186.000</ele></trkpt>
      <trkpt lat="22.3573006753" lon="114.1509694020"><ele>186.000</ele></trkpt>
      <trkpt lat="22.3573392113" lon="114.1509805219"><ele>188.000</ele></trkpt>
      <trkpt lat="22.3574019585" lon="114.1509986169"><ele>186.000</ele></trkpt>
      <trkpt lat="22.3574805702" lon="114.1510034654"><ele>188.000</ele></trkpt>
      <trkpt lat="22.3575621935" lon="114.1509790817"><ele>188.000</ele></trkpt>
      <trkpt lat="22.3576680013" lon="114.1509595770"><ele>190.000</ele></trkpt>
      <trkpt lat="22.3577571987" lon="114.1509758031"><ele>192.000</ele></trkpt>
      <trkpt lat="22.3578433545" lon="114.1510033888"><ele>193.000</ele></trkpt>
      <trkpt lat="22.3579641954" lon="114.1509518287"><ele>194.000</ele></trkpt>
      <trkpt lat="22.3581320686" lon="114.1508802008"><ele>194.000</ele></trkpt>
      <trkpt lat="22.3582257941" lon="114.1508639418"><ele>196.000</ele></trkpt>
      <trkpt lat="22.3583316140" lon="114.1508574164"><ele>196.000</ele></trkpt>
      <trkpt lat="22.3584646351" lon="114.1508703917"><ele>198.000</ele></trkpt>
      <trkpt lat="22.3586148193" lon="114.1509143830"><ele>200.000</ele></trkpt>
      <trkpt lat="22.3586949329" lon="114.1509306011"><ele>201.000</ele></trkpt>
      <trkpt lat="22.3587417903" lon="114.1509176119"><ele>202.000</ele></trkpt>
      <trkpt lat="22.3587946861" lon="114.1508851275"><ele>202.000</ele></trkpt>
      <trkpt lat="22.3588551434" lon="114.1508152710"><ele>203.000</ele></trkpt>
      <trkpt lat="22.3589110639" lon="114.1507291929"><ele>204.000</ele></trkpt>
      <trkpt lat="22.3589654676" lon="114.1506902023"><ele>204.000</ele></trkpt>
      <trkpt lat="22.3590486080" lon="114.1506609636"><ele>205.000</ele></trkpt>
      <trkpt lat="22.3591121006" lon="114.1506593207"><ele>206.000</ele></trkpt>
      <trkpt lat="22.3591821275" lon="114.1506838114"><ele>208.000</ele></trkpt>
      <trkpt lat="22.3592622549" lon="114.1507357683"><ele>209.000</ele></trkpt>
      <trkpt lat="22.3593590053" lon="114.1507682162"><ele>208.000</ele></trkpt>
      <trkpt lat="22.3594421290" lon="114.1507584629"><ele>210.000</ele></trkpt>
      <trkpt lat="22.3594980695" lon="114.1507292292"><ele>210.000</ele></trkpt>
      <trkpt lat="22.3595796707" lon="114.1506301449"><ele>210.000</ele></trkpt>
      <trkpt lat="22.3596325831" lon="114.1505895340"><ele>212.000</ele></trkpt>
      <trkpt lat="22.3596945582" lon="114.1505797748"><ele>212.000</ele></trkpt>
      <trkpt lat="22.3597781199" lon="114.1505927407"><ele>215.000</ele></trkpt>
      <trkpt lat="22.3599035996" lon="114.1506495611"><ele>215.000</ele></trkpt>
      <trkpt lat="22.3599822012" lon="114.1506479260"><ele>215.000</ele></trkpt>
      <trkpt lat="22.3600487078" lon="114.1506268057"><ele>216.000</ele></trkpt>
      <trkpt lat="22.3601348641" lon="114.1505455756"><ele>217.000</ele></trkpt>
      <trkpt lat="22.3601847449" lon="114.1505212166"><ele>216.000</ele></trkpt>
      <trkpt lat="22.3603498882" lon="114.1505313118"><ele>218.000</ele></trkpt>
      <trkpt lat="22.3604224463" lon="114.1505166962"><ele>218.000</ele></trkpt>
      <trkpt lat="22.3604844182" lon="114.1504874425"><ele>220.000</ele></trkpt>
      <trkpt lat="22.3604851408" lon="114.1504869945"><ele>220.000</ele></trkpt>
      <trkpt lat="22.3606415961" lon="114.1503899840"><ele>222.000</ele></trkpt>
      <trkpt lat="22.3606967003" lon="114.1503519446"><ele>222.000</ele></trkpt>
      <trkpt lat="22.3608486793" lon="114.1502470308"><ele>225.000</ele></trkpt>
      <trkpt lat="22.3609847126" lon="114.1501690526"><ele>226.000</ele></trkpt>
      <trkpt lat="22.3609966862" lon="114.1501643416"><ele>226.000</ele></trkpt>
      <trkpt lat="22.3611662961" lon="114.1500976084"><ele>228.000</ele></trkpt>
      <trkpt lat="22.3612569899" lon="114.1500975911"><ele>228.000</ele></trkpt>
      <trkpt lat="22.3613386311" lon="114.1501284313"><ele>230.000</ele></trkpt>
      <trkpt lat="22.3614671272" lon="114.1501803687"><ele>230.000</ele></trkpt>
      <trkpt lat="22.3615593320" lon="114.1501982155"><ele>232.000</ele></trkpt>
      <trkpt lat="22.3616923562" lon="114.1501689471"><ele>233.000</ele></trkpt>
      <trkpt lat="22.3616923995" lon="114.1501689373"><ele>233.000</ele></trkpt>
      <trkpt lat="22.3617856306" lon="114.1501407830"><ele>234.000</ele></trkpt>
      <trkpt lat="22.3619595124" lon="114.1500882733"><ele>236.000</ele></trkpt>
      <trkpt lat="22.3621333942" lon="114.1500357634"><ele>236.000</ele></trkpt>
      <trkpt lat="22.3622029363" lon="114.1500227596"><ele>238.000</ele></trkpt>
      <trkpt lat="22.3622966540" lon="114.1500097511"><ele>241.000</ele></trkpt>
      <trkpt lat="22.3624568818" lon="114.1500081087"><ele>242.000</ele></trkpt>
      <trkpt lat="22.3625521139" lon="114.1499837307"><ele>244.000</ele></trkpt>
      <trkpt lat="22.3626548995" lon="114.1499236222"><ele>244.000</ele></trkpt>
      <trkpt lat="22.3627745944" lon="114.1497906155"><ele>244.000</ele></trkpt>
      <trkpt lat="22.3628652885" lon="114.1497386365"><ele>246.000</ele></trkpt>
      <trkpt lat="22.3629469132" lon="114.1497239883"><ele>248.000</ele></trkpt>
      <trkpt lat="22.3630330856" lon="114.1497418458"><ele>248.000</ele></trkpt>
      <trkpt lat="22.3630950785" lon="114.1497905633"><ele>250.000</ele></trkpt>
      <trkpt lat="22.3631585689" lon="114.1498733688"><ele>252.000</ele></trkpt>
      <trkpt lat="22.3632099811" lon="114.1499350702"><ele>250.000</ele></trkpt>
      <trkpt lat="22.3632855650" lon="114.1499789006"><ele>252.000</ele></trkpt>
      <trkpt lat="22.3633647919" lon="114.1499904198"><ele>254.000</ele></trkpt>
      <trkpt lat="22.3634358300" lon="114.1499595412"><ele>253.000</ele></trkpt>
      <trkpt lat="22.3634993023" lon="114.1498848365"><ele>256.000</ele></trkpt>
      <trkpt lat="22.3635280123" lon="114.1497873922"><ele>254.000</ele></trkpt>
      <trkpt lat="22.3635567224" lon="114.1496915683"><ele>254.000</ele></trkpt>
      <trkpt lat="22.3635990399" lon="114.1496347137"><ele>262.000</ele></trkpt>
      <trkpt lat="22.3636594996" lon="114.1495876035"><ele>264.000</ele></trkpt>
      <trkpt lat="22.3637290318" lon="114.1495697156"><ele>258.000</ele></trkpt>
      <trkpt lat="22.3638550147" lon="114.1496100031"><ele>257.000</ele></trkpt>
      <trkpt lat="22.3639018810" lon="114.1496505875"><ele>258.000</ele></trkpt>
      <trkpt lat="22.3639668879" lon="114.1496863042"><ele>258.000</ele></trkpt>
      <trkpt lat="22.3640349184" lon="114.1497009128"><ele>258.000</ele></trkpt>
      <trkpt lat="22.3641150291" lon="114.1497057518"><ele>260.000</ele></trkpt>
      <trkpt lat="22.3642223533" lon="114.1496830118"><ele>261.000</ele></trkpt>
      <trkpt lat="22.3642888633" lon="114.1496829989"><ele>262.000</ele></trkpt>
      <trkpt lat="22.3643659622" lon="114.1497138297"><ele>262.000</ele></trkpt>
      <trkpt lat="22.3643868546" lon="114.1497240954"><ele>262.000</ele></trkpt>
      <trkpt lat="22.3645511231" lon="114.1498048105"><ele>262.000</ele></trkpt>
      <trkpt lat="22.3647153916" lon="114.1498855259"><ele>262.000</ele></trkpt>
      <trkpt lat="22.3648060947" lon="114.1499472205"><ele>262.000</ele></trkpt>
      <trkpt lat="22.3648711074" lon="114.1500121707"><ele>264.000</ele></trkpt>
      <trkpt lat="22.3649497472" lon="114.1501274612"><ele>263.000</ele></trkpt>
      <trkpt lat="22.3650071791" lon="114.1501680441"><ele>266.000</ele></trkpt>
      <trkpt lat="22.3650594436" lon="114.1501999812"><ele>264.000</ele></trkpt>
      <trkpt lat="22.3652164649" lon="114.1502959319"><ele>264.000</ele></trkpt>
      <trkpt lat="22.3652915233" lon="114.1503480544"><ele>265.000</ele></trkpt>
      <trkpt lat="22.3654432395" lon="114.1504534103"><ele>268.000</ele></trkpt>
      <trkpt lat="22.3655263815" lon="114.1505508552"><ele>266.000</ele></trkpt>
      <trkpt lat="22.3655891607" lon="114.1506557606"><ele>266.000</ele></trkpt>
      <trkpt lat="22.3656345208" lon="114.1507710689"><ele>266.000</ele></trkpt>
      <trkpt lat="22.3656428507" lon="114.1508506913"><ele>266.000</ele></trkpt>
      <trkpt lat="22.3656456230" lon="114.1508771941"><ele>266.000</ele></trkpt>
      <trkpt lat="22.3656658076" lon="114.1510701610"><ele>266.000</ele></trkpt>
      <trkpt lat="22.3656859921" lon="114.1512631280"><ele>266.000</ele></trkpt>
      <trkpt lat="22.3657041369" lon="114.1513362154"><ele>264.000</ele></trkpt>
      <trkpt lat="22.3657222942" lon="114.1513735652"><ele>264.000</ele></trkpt>
      <trkpt lat="22.3657646146" lon="114.1513946643"><ele>273.000</ele></trkpt>
      <trkpt lat="22.3658492675" lon="114.1513979015"><ele>262.000</ele></trkpt>
      <trkpt lat="22.3659989244" lon="114.1514157392"><ele>266.000</ele></trkpt>
      <trkpt lat="22.3660193220" lon="114.1514195816"><ele>266.000</ele></trkpt>
      <trkpt lat="22.3661972229" lon="114.1514530934"><ele>268.000</ele></trkpt>
      <trkpt lat="22.3662712946" lon="114.1514676914"><ele>268.000</ele></trkpt>
      <trkpt lat="22.3663378099" lon="114.1514498144"><ele>266.000</ele></trkpt>
      <trkpt lat="22.3664647813" lon="114.1513994500"><ele>262.000</ele></trkpt>
      <trkpt lat="22.3665433767" lon="114.1513588317"><ele>262.000</ele></trkpt>
      <trkpt lat="22.3666090899" lon="114.1512939232"><ele>257.000</ele></trkpt>
      <trkpt lat="22.3666756088" lon="114.1512305680"><ele>254.000</ele></trkpt>
      <trkpt lat="22.3667421140" lon="114.1512061953"><ele>254.000</ele></trkpt>
      <trkpt lat="22.3668146744" lon="114.1512061820"><ele>252.000</ele></trkpt>
      <trkpt lat="22.3669129327" lon="114.1512386415"><ele>252.000</ele></trkpt>
      <trkpt lat="22.3670180912" lon="114.1512310491"><ele>255.000</ele></trkpt>
      <trkpt lat="22.3670740132" lon="114.1512050374"><ele>255.000</ele></trkpt>
      <trkpt lat="22.3671148068" lon="114.1511644452"><ele>260.000</ele></trkpt>
      <trkpt lat="22.3671510786" lon="114.1510832302"><ele>262.000</ele></trkpt>
      <trkpt lat="22.3671849686" lon="114.1510032971"><ele>264.000</ele></trkpt>
      <trkpt lat="22.3672598827" lon="114.1508266036"><ele>263.000</ele></trkpt>
      <trkpt lat="22.3672782942" lon="114.1507864145"><ele>256.000</ele></trkpt>
      <trkpt lat="22.3673580995" lon="114.1506122139"><ele>247.000</ele></trkpt>
      <trkpt lat="22.3674291347" lon="114.1505017584"><ele>244.000</ele></trkpt>
      <trkpt lat="22.3674880617" lon="114.1504075370"><ele>242.000</ele></trkpt>
      <trkpt lat="22.3675266911" lon="114.1502769406"><ele>242.000</ele></trkpt>
      <trkpt lat="22.3675599369" lon="114.1501388865"><ele>243.000</ele></trkpt>
      <trkpt lat="22.3675946836" lon="114.1500674193"><ele>242.000</ele></trkpt>
      <trkpt lat="22.3676430467" lon="114.1499910765"><ele>243.000</ele></trkpt>
      <trkpt lat="22.3677586781" lon="114.1499035724"><ele>246.000</ele></trkpt>
      <trkpt lat="22.3678176211" lon="114.1498532183"><ele>244.000</ele></trkpt>
      <trkpt lat="22.3679068019" lon="114.1497703708"><ele>232.000</ele></trkpt>
      <trkpt lat="22.3679175819" lon="114.1497568767"><ele>232.000</ele></trkpt>
      <trkpt lat="22.3680352615" lon="114.1496095681"><ele>232.000</ele></trkpt>
      <trkpt lat="22.3680365928" lon="114.1496079368"><ele>232.000</ele></trkpt>
      <trkpt lat="22.3681557127" lon="114.1494619725"><ele>233.000</ele></trkpt>
      <trkpt lat="22.3682748325" lon="114.1493160079"><ele>226.000</ele></trkpt>
      <trkpt lat="22.3683939522" lon="114.1491700430"><ele>224.000</ele></trkpt>
      <trkpt lat="22.3684498560" lon="114.1490920764"><ele>219.000</ele></trkpt>
      <trkpt lat="22.3684830959" lon="114.1489783829"><ele>216.000</ele></trkpt>
      <trkpt lat="22.3684860909" lon="114.1488029835"><ele>214.000</ele></trkpt>
      <trkpt lat="22.3685102571" lon="114.1486551720"><ele>208.000</ele></trkpt>
      <trkpt lat="22.3685252891" lon="114.1484727591"><ele>210.000</ele></trkpt>
      <trkpt lat="22.3685403959" lon="114.1483623119"><ele>204.000</ele></trkpt>
      <trkpt lat="22.3685751353" lon="114.1482534919"><ele>200.000</ele></trkpt>
      <trkpt lat="22.3686489638" lon="114.1481174679"><ele>198.000</ele></trkpt>
      <trkpt lat="22.3686852893" lon="114.1481285709"><ele>198.000</ele></trkpt>
      <trkpt lat="22.3687115726" lon="114.1481330609"><ele>207.000</ele></trkpt>
      <trkpt lat="22.3687348679" lon="114.1481285607"><ele>198.000</ele></trkpt>
      <trkpt lat="22.3687539807" lon="114.1481214922"><ele>199.000</ele></trkpt>
      <trkpt lat="22.3687713011" lon="114.1481054323"><ele>199.000</ele></trkpt>
      <trkpt lat="22.3687880210" lon="114.1480790970"><ele>202.000</ele></trkpt>
      <trkpt lat="22.3687999635" lon="114.1480514791"><ele>202.000</ele></trkpt>
      <trkpt lat="22.3688083200" lon="114.1480193645"><ele>204.000</ele></trkpt>
      <trkpt lat="22.3688172764" lon="114.1479981690"><ele>204.000</ele></trkpt>
      <trkpt lat="22.3688220538" lon="114.1479898189"><ele>204.000</ele></trkpt>
      <trkpt lat="22.3688262341" lon="114.1479846808"><ele>204.000</ele></trkpt>
      <trkpt lat="22.3688381819" lon="114.1479923847"><ele>212.000</ele></trkpt>
      <trkpt lat="22.3688489388" lon="114.1480161453"><ele>212.000</ele></trkpt>
      <trkpt lat="22.3688561120" lon="114.1480476139"><ele>214.000</ele></trkpt>
      <trkpt lat="22.3688656761" lon="114.1480874301"><ele>215.000</ele></trkpt>
      <trkpt lat="22.3688704572" lon="114.1480996319"><ele>215.000</ele></trkpt>
      <trkpt lat="22.3688889729" lon="114.1480919218"><ele>219.000</ele></trkpt>
      <trkpt lat="22.3688973327" lon="114.1480726527"><ele>217.000</ele></trkpt>
      <trkpt lat="22.3689050921" lon="114.1480392547"><ele>217.000</ele></trkpt>
      <trkpt lat="22.3689218103" lon="114.1479981475"><ele>218.000</ele></trkpt>
      <trkpt lat="22.3689450988" lon="114.1479557553"><ele>216.000</ele></trkpt>
      <trkpt lat="22.3689707786" lon="114.1479287764"><ele>218.000</ele></trkpt>
      <trkpt lat="22.3689904883" lon="114.1479114313"><ele>218.000</ele></trkpt>
      <trkpt lat="22.3690149762" lon="114.1478998662"><ele>218.000</ele></trkpt>
      <trkpt lat="22.3690412584" lon="114.1478934390"><ele>218.000</ele></trkpt>
      <trkpt lat="22.3690770962" lon="114.1478837979"><ele>218.000</ele></trkpt>
      <trkpt lat="22.3691117406" lon="114.1478767262"><ele>220.000</ele></trkpt>
      <trkpt lat="22.3691380222" lon="114.1478722243"><ele>220.000</ele></trkpt>
      <trkpt lat="22.3691968724" lon="114.1478618716"><ele>220.000</ele></trkpt>
      <trkpt lat="22.3692059781" lon="114.1478631456"><ele>220.000</ele></trkpt>
      <trkpt lat="22.3692291261" lon="114.1478682528"><ele>220.000</ele></trkpt>
      <trkpt lat="22.3692400823" lon="114.1478699332"><ele>222.000</ele></trkpt>
      <trkpt lat="22.3692463296" lon="114.1478701930"><ele>222.000</ele></trkpt>
      <trkpt lat="22.3692515673" lon="114.1478698288"><ele>222.000</ele></trkpt>
      <trkpt lat="22.3692566739" lon="114.1478688102"><ele>222.000</ele></trkpt>
      <trkpt lat="22.3692608132" lon="114.1478673821"><ele>222.000</ele></trkpt>
      <trkpt lat="22.3692721664" lon="114.1478622095"><ele>222.000</ele></trkpt>
      <trkpt lat="22.3692834048" lon="114.1478564825"><ele>224.000</ele></trkpt>
      <trkpt lat="22.3692953356" lon="114.1478498155"><ele>224.000</ele></trkpt>
      <trkpt lat="22.3693079580" lon="114.1478421968"><ele>224.000</ele></trkpt>
      <trkpt lat="22.3693314121" lon="114.1478268724"><ele>223.000</ele></trkpt>
      <trkpt lat="22.3693866018" lon="114.1477889233"><ele>220.000</ele></trkpt>
      <trkpt lat="22.3694014869" lon="114.1477792758"><ele>220.000</ele></trkpt>
      <trkpt lat="22.3694149084" lon="114.1477711152"><ele>220.000</ele></trkpt>
      <trkpt lat="22.3694292565" lon="114.1477631116"><ele>220.000</ele></trkpt>
      <trkpt lat="22.3694429663" lon="114.1477562898"><ele>220.000</ele></trkpt>
      <trkpt lat="22.3694560352" lon="114.1477506430"><ele>220.000</ele></trkpt>
      <trkpt lat="22.3694676441" lon="114.1477465054"><ele>222.000</ele></trkpt>
      <trkpt lat="22.3694752954" lon="114.1477447105"><ele>222.000</ele></trkpt>
      <trkpt lat="22.3694839771" lon="114.1477435367"><ele>222.000</ele></trkpt>
      <trkpt lat="22.3694928216" lon="114.1477431096"><ele>222.000</ele></trkpt>
      <trkpt lat="22.3695027082" lon="114.1477433561"><ele>222.000</ele></trkpt>
      <trkpt lat="22.3695209918" lon="114.1477452136"><ele>224.000</ele></trkpt>
      <trkpt lat="22.3695616782" lon="114.1477514173"><ele>226.000</ele></trkpt>
      <trkpt lat="22.3695792799" lon="114.1477529943"><ele>226.000</ele></trkpt>
      <trkpt lat="22.3696174534" lon="114.1477561021"><ele>227.000</ele></trkpt>
      <trkpt lat="22.3696225621" lon="114.1477566108"><ele>227.000</ele></trkpt>
      <trkpt lat="22.3696303644" lon="114.1477563276"><ele>227.000</ele></trkpt>
      <trkpt lat="22.3696473325" lon="114.1477542851"><ele>228.000</ele></trkpt>
      <trkpt lat="22.3696794348" lon="114.1477474819"><ele>228.000</ele></trkpt>
      <trkpt lat="22.3697037352" lon="114.1477431852"><ele>228.000</ele></trkpt>
      <trkpt lat="22.3697124493" lon="114.1477411736"><ele>228.000</ele></trkpt>
      <trkpt lat="22.3697190953" lon="114.1477384341"><ele>225.000</ele></trkpt>
      <trkpt lat="22.3697271140" lon="114.1477359274"><ele>225.000</ele></trkpt>
      <trkpt lat="22.3697589531" lon="114.1477217256"><ele>226.000</ele></trkpt>
      <trkpt lat="22.3697729314" lon="114.1477162368"><ele>226.000</ele></trkpt>
      <trkpt lat="22.3697958308" lon="114.1477050371"><ele>228.000</ele></trkpt>
      <trkpt lat="22.3698091133" lon="114.1476973347"><ele>228.000</ele></trkpt>
      <trkpt lat="22.3698159755" lon="114.1476913814"><ele>224.000</ele></trkpt>
      <trkpt lat="22.3698274061" lon="114.1476802325"><ele>222.000</ele></trkpt>
      <trkpt lat="22.3698347193" lon="114.1476715702"><ele>222.000</ele></trkpt>
      <trkpt lat="22.3698447588" lon="114.1476577127"><ele>222.000</ele></trkpt>
      <trkpt lat="22.3698495526" lon="114.1476500412"><ele>222.000</ele></trkpt>
      <trkpt lat="22.3698556812" lon="114.1476325046"><ele>225.000</ele></trkpt>
      <trkpt lat="22.3698661430" lon="114.1476072967"><ele>227.000</ele></trkpt>
      <trkpt lat="22.3698711340" lon="114.1475912459"><ele>229.000</ele></trkpt>
      <trkpt lat="22.3698751658" lon="114.1475643401"><ele>229.000</ele></trkpt>
      <trkpt lat="22.3698749023" lon="114.1475554560"><ele>229.000</ele></trkpt>
      <trkpt lat="22.3698755597" lon="114.1475455911"><ele>228.000</ele></trkpt>
      <trkpt lat="22.3698769037" lon="114.1475367066"><ele>228.000</ele></trkpt>
      <trkpt lat="22.3698774302" lon="114.1475172692"><ele>228.000</ele></trkpt>
      <trkpt lat="22.3698776560" lon="114.1474873902"><ele>227.000</ele></trkpt>
      <trkpt lat="22.3698783707" lon="114.1474797098"><ele>227.000</ele></trkpt>
      <trkpt lat="22.3698799484" lon="114.1474701457"><ele>227.000</ele></trkpt>
      <trkpt lat="22.3698826786" lon="114.1474566053"><ele>227.000</ele></trkpt>
      <trkpt lat="22.3698855466" lon="114.1474462262"><ele>226.000</ele></trkpt>
      <trkpt lat="22.3698889559" lon="114.1474372957"><ele>226.000</ele></trkpt>
      <trkpt lat="22.3698928458" lon="114.1474298458"><ele>226.000</ele></trkpt>
      <trkpt lat="22.3698992088" lon="114.1474203457"><ele>226.000</ele></trkpt>
      <trkpt lat="22.3699066293" lon="114.1474114299"><ele>226.000</ele></trkpt>
      <trkpt lat="22.3699147951" lon="114.1474034130"><ele>228.000</ele></trkpt>
      <trkpt lat="22.3699233964" lon="114.1473966097"><ele>228.000</ele></trkpt>
      <trkpt lat="22.3699272547" lon="114.1473944961"><ele>228.000</ele></trkpt>
      <trkpt lat="22.3699323467" lon="114.1473928357"><ele>228.000</ele></trkpt>
      <trkpt lat="22.3699371653" lon="114.1473920404"><ele>228.000</ele></trkpt>
      <trkpt lat="22.3699524716" lon="114.1473895147"><ele>228.000</ele></trkpt>
      <trkpt lat="22.3700812829" lon="114.1474375010"><ele>232.000</ele></trkpt>
      <trkpt lat="22.3701042952" lon="114.1474365475"><ele>232.000</ele></trkpt>
      <trkpt lat="22.3701640434" lon="114.1474086377"><ele>234.000</ele></trkpt>
      <trkpt lat="22.3701908245" lon="114.1473996731"><ele>232.000</ele></trkpt>
      <trkpt lat="22.3702064438" lon="114.1473949122"><ele>232.000</ele></trkpt>
      <trkpt lat="22.3702203871" lon="114.1473910546"><ele>232.000</ele></trkpt>
      <trkpt lat="22.3702335188" lon="114.1473878225"><ele>233.000</ele></trkpt>
      <trkpt lat="22.3702467182" lon="114.1473850224"><ele>233.000</ele></trkpt>
      <trkpt lat="22.3702573414" lon="114.1473831831"><ele>233.000</ele></trkpt>
      <trkpt lat="22.3702689200" lon="114.1473816407"><ele>233.000</ele></trkpt>
      <trkpt lat="22.3702814596" lon="114.1473804283"><ele>234.000</ele></trkpt>
      <trkpt lat="22.3702940598" lon="114.1473796042"><ele>234.000</ele></trkpt>
      <trkpt lat="22.3703169053" lon="114.1473799567"><ele>234.000</ele></trkpt>
      <trkpt lat="22.3703654989" lon="114.1473813214"><ele>234.000</ele></trkpt>
      <trkpt lat="22.3703911097" lon="114.1473776157"><ele>234.000</ele></trkpt>
      <trkpt lat="22.3704061020" lon="114.1473715237"><ele>234.000</ele></trkpt>
      <trkpt lat="22.3704207269" lon="114.1473614043"><ele>237.000</ele></trkpt>
      <trkpt lat="22.3704360683" lon="114.1473531966"><ele>237.000</ele></trkpt>
      <trkpt lat="22.3704498020" lon="114.1473435230"><ele>229.000</ele></trkpt>
      <trkpt lat="22.3704596535" lon="114.1473392779"><ele>226.000</ele></trkpt>
      <trkpt lat="22.3704683584" lon="114.1473360331"><ele>226.000</ele></trkpt>
      <trkpt lat="22.3704750045" lon="114.1473342840"><ele>226.000</ele></trkpt>
      <trkpt lat="22.3704910512" lon="114.1473312512"><ele>226.000</ele></trkpt>
      <trkpt lat="22.3704988535" lon="114.1473304728"><ele>230.000</ele></trkpt>
      <trkpt lat="22.3705233795" lon="114.1473251857"><ele>230.000</ele></trkpt>
      <trkpt lat="22.3705313979" lon="114.1473216983"><ele>230.000</ele></trkpt>
      <trkpt lat="22.3705444548" lon="114.1473147338"><ele>234.000</ele></trkpt>
      <trkpt lat="22.3705520033" lon="114.1473090327"><ele>234.000</ele></trkpt>
      <trkpt lat="22.3705574930" lon="114.1473040700"><ele>234.000</ele></trkpt>
      <trkpt lat="22.3705680116" lon="114.1472931737"><ele>230.000</ele></trkpt>
      <trkpt lat="22.3705730220" lon="114.1472850069"><ele>230.000</ele></trkpt>
      <trkpt lat="22.3705764434" lon="114.1472783358"><ele>230.000</ele></trkpt>
      <trkpt lat="22.3705871308" lon="114.1472526325"><ele>225.000</ele></trkpt>
      <trkpt lat="22.3705903173" lon="114.1472457186"><ele>229.000</ele></trkpt>
      <trkpt lat="22.3705946507" lon="114.1472385424"><ele>229.000</ele></trkpt>
      <trkpt lat="22.3705996795" lon="114.1472321039"><ele>229.000</ele></trkpt>
      <trkpt lat="22.3706047085" lon="114.1472266558"><ele>229.000</ele></trkpt>
      <trkpt lat="22.3706186679" lon="114.1472167297"><ele>229.000</ele></trkpt>
      <trkpt lat="22.3706269120" lon="114.1472125043"><ele>229.000</ele></trkpt>
      <trkpt lat="22.3706349306" lon="114.1472092597"><ele>237.000</ele></trkpt>
      <trkpt lat="22.3706429493" lon="114.1472072481"><ele>237.000</ele></trkpt>
      <trkpt lat="22.3706516635" lon="114.1472059743"><ele>234.000</ele></trkpt>
      <trkpt lat="22.3706752964" lon="114.1472058722"><ele>234.000</ele></trkpt>
      <trkpt lat="22.3707016933" lon="114.1472092164"><ele>239.000</ele></trkpt>
      <trkpt lat="22.3707239633" lon="114.1472128139"><ele>239.000</ele></trkpt>
      <trkpt lat="22.3707423227" lon="114.1472147131"><ele>239.000</ele></trkpt>
      <trkpt lat="22.3707595348" lon="114.1472143891"><ele>239.000</ele></trkpt>
      <trkpt lat="22.3707682492" lon="114.1472136104"><ele>236.000</ele></trkpt>
      <trkpt lat="22.3707920885" lon="114.1472068476"><ele>238.000</ele></trkpt>
      <trkpt lat="22.3708074300" lon="114.1471991252"><ele>238.000</ele></trkpt>
      <trkpt lat="22.3708145271" lon="114.1471944146"><ele>238.000</ele></trkpt>
      <trkpt lat="22.3708245853" lon="114.1471840039"><ele>238.000</ele></trkpt>
      <trkpt lat="22.3708270763" lon="114.1471765950"><ele>238.000</ele></trkpt>
      <trkpt lat="22.3708261357" lon="114.1471684586"><ele>238.000</ele></trkpt>
      <trkpt lat="22.3708228924" lon="114.1471613228"><ele>238.000</ele></trkpt>
      <trkpt lat="22.3708214913" lon="114.1471541769"><ele>245.000</ele></trkpt>
      <trkpt lat="22.3708173266" lon="114.1471450605"><ele>245.000</ele></trkpt>
      <trkpt lat="22.3708087810" lon="114.1471300514"><ele>242.000</ele></trkpt>
      <trkpt lat="22.3708032529" lon="114.1471226830"><ele>242.000</ele></trkpt>
      <trkpt lat="22.3707963433" lon="114.1471160529"><ele>242.000</ele></trkpt>
      <trkpt lat="22.3707915018" lon="114.1471099078"><ele>242.000</ele></trkpt>
      <trkpt lat="22.3707875813" lon="114.1471030149"><ele>244.000</ele></trkpt>
      <trkpt lat="22.3707836138" lon="114.1470862571"><ele>244.000</ele></trkpt>
      <trkpt lat="22.3707826639" lon="114.1470768876"><ele>244.000</ele></trkpt>
      <trkpt lat="22.3707810277" lon="114.1470675182"><ele>244.000</ele></trkpt>
      <trkpt lat="22.3707805293" lon="114.1470581486"><ele>245.000</ele></trkpt>
      <trkpt lat="22.3707834423" lon="114.1470371754"><ele>245.000</ele></trkpt>
      <trkpt lat="22.3707852470" lon="114.1470297667"><ele>245.000</ele></trkpt>
      <trkpt lat="22.3707888181" lon="114.1470026181"><ele>244.000</ele></trkpt>
      <trkpt lat="22.3707901336" lon="114.1469865777"><ele>244.000</ele></trkpt>
      <trkpt lat="22.3707959696" lon="114.1469497967"><ele>241.000</ele></trkpt>
      <trkpt lat="22.3707962383" lon="114.1469476674"><ele>241.000</ele></trkpt>
      <trkpt lat="22.3707974831" lon="114.1469354438"><ele>241.000</ele></trkpt>
      <trkpt lat="22.3707965562" lon="114.1469087525"><ele>237.000</ele></trkpt>
      <trkpt lat="22.3708017116" lon="114.1468837882"><ele>237.000</ele></trkpt>
      <trkpt lat="22.3708111661" lon="114.1468569723"><ele>232.000</ele></trkpt>
      <trkpt lat="22.3708232005" lon="114.1468338553"><ele>231.000</ele></trkpt>
      <trkpt lat="22.3708455545" lon="114.1468135100"><ele>226.000</ele></trkpt>
      <trkpt lat="22.3708765081" lon="114.1467922375"><ele>229.000</ele></trkpt>
      <trkpt lat="22.3709057418" lon="114.1467728151"><ele>232.000</ele></trkpt>
      <trkpt lat="22.3709435745" lon="114.1467496924"><ele>230.000</ele></trkpt>
      <trkpt lat="22.3709736690" lon="114.1467311942"><ele>232.000</ele></trkpt>
      <trkpt lat="22.3710029031" lon="114.1467145447"><ele>232.000</ele></trkpt>
      <trkpt lat="22.3710347181" lon="114.1466969714"><ele>232.000</ele></trkpt>
      <trkpt lat="22.3710751299" lon="114.1466738482"><ele>233.000</ele></trkpt>
      <trkpt lat="22.3711043637" lon="114.1466553500"><ele>236.000</ele></trkpt>
      <trkpt lat="22.3711241402" lon="114.1466433253"><ele>236.000</ele></trkpt>
      <trkpt lat="22.3711430564" lon="114.1466285288"><ele>239.000</ele></trkpt>
      <trkpt lat="22.3711585320" lon="114.1466137319"><ele>239.000</ele></trkpt>
      <trkpt lat="22.3711731480" lon="114.1465998597"><ele>239.000</ele></trkpt>
      <trkpt lat="22.3711808842" lon="114.1465841402"><ele>244.000</ele></trkpt>
      <trkpt lat="22.3711940730" lon="114.1465678738"><ele>242.000</ele></trkpt>
      <trkpt lat="22.3712007998" lon="114.1465629506"><ele>242.000</ele></trkpt>
      <trkpt lat="22.3712052422" lon="114.1465592396"><ele>242.000</ele></trkpt>
      <trkpt lat="22.3712125742" lon="114.1465550144"><ele>242.000</ele></trkpt>
      <trkpt lat="22.3712196716" lon="114.1465520320"><ele>244.000</ele></trkpt>
      <trkpt lat="22.3712279344" lon="114.1465510010"><ele>244.000</ele></trkpt>
      <trkpt lat="22.3712377955" lon="114.1465499794"><ele>244.000</ele></trkpt>
      <trkpt lat="22.3712446768" lon="114.1465501915"><ele>244.000</ele></trkpt>
      <trkpt lat="22.3712641831" lon="114.1465520806"><ele>244.000</ele></trkpt>
      <trkpt lat="22.3712712991" lon="114.1465515548"><ele>244.000</ele></trkpt>
      <trkpt lat="22.3712790922" lon="114.1465500384"><ele>244.000</ele></trkpt>
      <trkpt lat="22.3712875713" lon="114.1465470460"><ele>244.000</ele></trkpt>
      <trkpt lat="22.3713010702" lon="114.1465376151"><ele>244.000</ele></trkpt>
      <trkpt lat="22.3713065597" lon="114.1465321572"><ele>244.000</ele></trkpt>
      <trkpt lat="22.3713118142" lon="114.1465254758"><ele>238.000</ele></trkpt>
      <trkpt lat="22.3713206971" lon="114.1465086667"><ele>238.000</ele></trkpt>
      <trkpt lat="22.3713250020" lon="114.1464940917"><ele>238.000</ele></trkpt>
      <trkpt lat="22.3713288742" lon="114.1464842065"><ele>238.000</ele></trkpt>
      <trkpt lat="22.3713313649" lon="114.1464750693"><ele>236.000</ele></trkpt>
      <trkpt lat="22.3713342786" lon="114.1464582808"><ele>236.000</ele></trkpt>
      <trkpt lat="22.3713372391" lon="114.1464498814"><ele>236.000</ele></trkpt>
      <trkpt lat="22.3713406511" lon="114.1464419770"><ele>236.000</ele></trkpt>
      <trkpt lat="22.3713456613" lon="114.1464325771"><ele>236.000</ele></trkpt>
      <trkpt lat="22.3713538578" lon="114.1464152729"><ele>235.000</ele></trkpt>
      <trkpt lat="22.3713579562" lon="114.1464076111"><ele>238.000</ele></trkpt>
      <trkpt lat="22.3713680047" lon="114.1463944913"><ele>238.000</ele></trkpt>
      <trkpt lat="22.3713730337" lon="114.1463890432"><ele>238.000</ele></trkpt>
      <trkpt lat="22.3713771694" lon="114.1463876052"><ele>238.000</ele></trkpt>
      <trkpt lat="22.3713865944" lon="114.1463722427"><ele>235.000</ele></trkpt>
      <trkpt lat="22.3713927427" lon="114.1463642989"><ele>235.000</ele></trkpt>
      <trkpt lat="22.3713995866" lon="114.1463578308"><ele>235.000</ele></trkpt>
      <trkpt lat="22.3714247355" lon="114.1463276830"><ele>236.000</ele></trkpt>
      <trkpt lat="22.3714444444" lon="114.1463071264"><ele>236.000</ele></trkpt>
      <trkpt lat="22.3714647510" lon="114.1462955618"><ele>238.000</ele></trkpt>
      <trkpt lat="22.3714802798" lon="114.1462852818"><ele>238.000</ele></trkpt>
      <trkpt lat="22.3714940171" lon="114.1462762877"><ele>238.000</ele></trkpt>
      <trkpt lat="22.3715047660" lon="114.1462608714"><ele>238.000</ele></trkpt>
      <trkpt lat="22.3715149186" lon="114.1462493080"><ele>238.000</ele></trkpt>
      <trkpt lat="22.3715256687" lon="114.1462403146"><ele>238.000</ele></trkpt>
      <trkpt lat="22.3715346278" lon="114.1462351743"><ele>237.000</ele></trkpt>
      <trkpt lat="22.3715489634" lon="114.1462332448"><ele>238.000</ele></trkpt>
      <trkpt lat="22.3715615086" lon="114.1462377376"><ele>240.000</ele></trkpt>
      <trkpt lat="22.3715842086" lon="114.1462473665"><ele>242.000</ele></trkpt>
      <trkpt lat="22.3715979482" lon="114.1462499326"><ele>242.000</ele></trkpt>
      <trkpt lat="22.3716110897" lon="114.1462512143"><ele>242.000</ele></trkpt>
      <trkpt lat="22.3716218405" lon="114.1462460737"><ele>242.000</ele></trkpt>
      <trkpt lat="22.3716307990" lon="114.1462377224"><ele>247.000</ele></trkpt>
      <trkpt lat="22.3716367701" lon="114.1462242345"><ele>242.000</ele></trkpt>
      <trkpt lat="22.3716439346" lon="114.1462081762"><ele>242.000</ele></trkpt>
      <trkpt lat="22.3716511009" lon="114.1461966144"><ele>242.000</ele></trkpt>
      <trkpt lat="22.3716642406" lon="114.1461889041"><ele>242.000</ele></trkpt>
      <trkpt lat="22.3717269575" lon="114.1461734764"><ele>243.000</ele></trkpt>
      <trkpt lat="22.3717777282" lon="114.1461599786"><ele>244.000</ele></trkpt>
      <trkpt lat="22.3718225272" lon="114.1461522613"><ele>245.000</ele></trkpt>
      <trkpt lat="22.3718422382" lon="114.1461477615"><ele>245.000</ele></trkpt>
      <trkpt lat="22.3718649349" lon="114.1461394072"><ele>253.000</ele></trkpt>
      <trkpt lat="22.3718870338" lon="114.1461265566"><ele>245.000</ele></trkpt>
      <trkpt lat="22.3719061457" lon="114.1461104966"><ele>250.000</ele></trkpt>
      <trkpt lat="22.3719240612" lon="114.1460860875"><ele>247.000</ele></trkpt>
      <trkpt lat="22.3719419769" lon="114.1460623193"><ele>257.000</ele></trkpt>
      <trkpt lat="22.3719563096" lon="114.1460449758"><ele>257.000</ele></trkpt>
      <trkpt lat="22.3719718376" lon="114.1460308430"><ele>253.000</ele></trkpt>
      <trkpt lat="22.3719849765" lon="114.1460186370"><ele>253.000</ele></trkpt>
      <trkpt lat="22.3720028950" lon="114.1460096420"><ele>258.000</ele></trkpt>
      <trkpt lat="22.3720237994" lon="114.1459980762"><ele>258.000</ele></trkpt>
      <trkpt lat="22.3720458966" lon="114.1459762354"><ele>255.000</ele></trkpt>
      <trkpt lat="22.3720662004" lon="114.1459505412"><ele>255.000</ele></trkpt>
      <trkpt lat="22.3720876971" lon="114.1459100745"><ele>252.000</ele></trkpt>
      <trkpt lat="22.3721109831" lon="114.1458574044"><ele>246.000</ele></trkpt>
      <trkpt lat="22.3721390452" lon="114.1457944575"><ele>247.000</ele></trkpt>
      <trkpt lat="22.3721635268" lon="114.1457462836"><ele>247.000</ele></trkpt>
      <trkpt lat="22.3721724824" lon="114.1457231601"><ele>252.000</ele></trkpt>
      <trkpt lat="22.3721760627" lon="114.1457026070"><ele>252.000</ele></trkpt>
      <trkpt lat="22.3721796422" lon="114.1456782010"><ele>255.000</ele></trkpt>
      <trkpt lat="22.3721796371" lon="114.1456518685"><ele>258.000</ele></trkpt>
      <trkpt lat="22.3721808267" lon="114.1456248940"><ele>258.000</ele></trkpt>
      <trkpt lat="22.3721844045" lon="114.1455966333"><ele>258.000</ele></trkpt>
      <trkpt lat="22.3721945554" lon="114.1455760797"><ele>258.000</ele></trkpt>
      <trkpt lat="22.3722082904" lon="114.1455548824"><ele>258.000</ele></trkpt>
      <trkpt lat="22.3722220258" lon="114.1455407489"><ele>260.000</ele></trkpt>
      <trkpt lat="22.3722399436" lon="114.1455285428"><ele>260.000</ele></trkpt>
      <trkpt lat="22.3722626409" lon="114.1455189039"><ele>260.000</ele></trkpt>
      <trkpt lat="22.3722823521" lon="114.1455156885"><ele>260.000</ele></trkpt>
      <trkpt lat="22.3723026616" lon="114.1455195367"><ele>258.000</ele></trkpt>
      <trkpt lat="22.3723319346" lon="114.1455362288"><ele>258.000</ele></trkpt>
      <trkpt lat="22.3723528447" lon="114.1455542074"><ele>256.000</ele></trkpt>
      <trkpt lat="22.3723737545" lon="114.1455709013"><ele>261.000</ele></trkpt>
      <trkpt lat="22.3723994439" lon="114.1455908052"><ele>257.000</ele></trkpt>
      <trkpt lat="22.3724203525" lon="114.1456010772"><ele>257.000</ele></trkpt>
      <trkpt lat="22.3724496226" lon="114.1456074926"><ele>258.000</ele></trkpt>
      <trkpt lat="22.3724705305" lon="114.1456094153"><ele>258.000</ele></trkpt>
      <trkpt lat="22.3725039812" lon="114.1456132606"><ele>258.000</ele></trkpt>
      <trkpt lat="22.3725338480" lon="114.1456138968"><ele>260.000</ele></trkpt>
      <trkpt lat="22.3725589360" lon="114.1456106802"><ele>260.000</ele></trkpt>
      <trkpt lat="22.3725816323" lon="114.1456003984"><ele>263.000</ele></trkpt>
      <trkpt lat="22.3726103011" lon="114.1455843362"><ele>263.000</ele></trkpt>
      <trkpt lat="22.3726294123" lon="114.1455650641"><ele>268.000</ele></trkpt>
      <trkpt lat="22.3726443425" lon="114.1455509312"><ele>266.000</ele></trkpt>
      <trkpt lat="22.3726574814" lon="114.1455387252"><ele>266.000</ele></trkpt>
      <trkpt lat="22.3726765953" lon="114.1455335826"><ele>267.000</ele></trkpt>
      <trkpt lat="22.3726951123" lon="114.1455329366"><ele>267.000</ele></trkpt>
      <trkpt lat="22.3727118384" lon="114.1455361439"><ele>264.000</ele></trkpt>
      <trkpt lat="22.3727578378" lon="114.1455579706"><ele>267.000</ele></trkpt>
      <trkpt lat="22.3727769531" lon="114.1455643883"><ele>267.000</ele></trkpt>
      <trkpt lat="22.3727960694" lon="114.1455714498"><ele>267.000</ele></trkpt>
      <trkpt lat="22.3728145870" lon="114.1455740138"><ele>267.000</ele></trkpt>
      <trkpt lat="22.3728360911" lon="114.1455727245"><ele>267.000</ele></trkpt>
      <trkpt lat="22.3728587884" lon="114.1455675820"><ele>267.000</ele></trkpt>
      <trkpt lat="22.3728779027" lon="114.1455643658"><ele>267.000</ele></trkpt>
      <trkpt lat="22.3728916414" lon="114.1455624363"><ele>267.000</ele></trkpt>
      <trkpt lat="22.3729250931" lon="114.1455714210"><ele>267.000</ele></trkpt>
      <trkpt lat="22.3729448065" lon="114.1455791231"><ele>268.000</ele></trkpt>
      <trkpt lat="22.3729633250" lon="114.1455816882"><ele>268.000</ele></trkpt>
      <trkpt lat="22.3729812449" lon="114.1455803996"><ele>270.000</ele></trkpt>
      <trkpt lat="22.3729925928" lon="114.1455765433"><ele>270.000</ele></trkpt>
      <trkpt lat="22.3730015516" lon="114.1455694765"><ele>270.000</ele></trkpt>
      <trkpt lat="22.3730254412" lon="114.1455476351"><ele>269.000</ele></trkpt>
      <trkpt lat="22.3730385801" lon="114.1455354290"><ele>269.000</ele></trkpt>
      <trkpt lat="22.3730487327" lon="114.1455283620"><ele>269.000</ele></trkpt>
      <trkpt lat="22.3730576915" lon="114.1455219370"><ele>269.000</ele></trkpt>
      <trkpt lat="22.3730833732" lon="114.1455020216"><ele>267.000</ele></trkpt>
      <trkpt lat="22.3731030828" lon="114.1454904568"><ele>267.000</ele></trkpt>
      <trkpt lat="22.3731210008" lon="114.1454788915"><ele>270.000</ele></trkpt>
      <trkpt lat="22.3731269737" lon="114.1454750373"><ele>270.000</ele></trkpt>
      <trkpt lat="22.3731383207" lon="114.1454660426"><ele>270.000</ele></trkpt>
      <trkpt lat="22.3731568353" lon="114.1454486970"><ele>266.000</ele></trkpt>
      <trkpt lat="22.3731747511" lon="114.1454307106"><ele>268.000</ele></trkpt>
      <trkpt lat="22.3731908768" lon="114.1454159347"><ele>268.000</ele></trkpt>
      <trkpt lat="22.3732016262" lon="114.1454037301"><ele>266.000</ele></trkpt>
      <trkpt lat="22.3732153637" lon="114.1453960195"><ele>268.000</ele></trkpt>
      <trkpt lat="22.3732332815" lon="114.1453838123"><ele>268.000</ele></trkpt>
      <trkpt lat="22.3732434332" lon="114.1453722496"><ele>268.000</ele></trkpt>
      <trkpt lat="22.3732547799" lon="114.1453574747"><ele>268.000</ele></trkpt>
      <trkpt lat="22.3732649316" lon="114.1453414165"><ele>268.000</ele></trkpt>
      <trkpt lat="22.3732732918" lon="114.1453304961"><ele>268.000</ele></trkpt>
      <trkpt lat="22.3732900135" lon="114.1453112244"><ele>265.000</ele></trkpt>
      <trkpt lat="22.3733061386" lon="114.1452938802"><ele>270.000</ele></trkpt>
      <trkpt lat="22.3733139011" lon="114.1452791061"><ele>270.000</ele></trkpt>
      <trkpt lat="22.3733186750" lon="114.1452579107"><ele>268.000</ele></trkpt>
      <trkpt lat="22.3733174769" lon="114.1452405704"><ele>268.000</ele></trkpt>
      <trkpt lat="22.3733126931" lon="114.1452110278"><ele>269.000</ele></trkpt>
      <trkpt lat="22.3733120909" lon="114.1451885490"><ele>269.000</ele></trkpt>
      <trkpt lat="22.3733114898" lon="114.1451718504"><ele>269.000</ele></trkpt>
      <trkpt lat="22.3733150714" lon="114.1451583618"><ele>267.000</ele></trkpt>
      <trkpt lat="22.3733168617" lon="114.1451468010"><ele>267.000</ele></trkpt>
      <trkpt lat="22.3733198462" lon="114.1451371664"><ele>267.000</ele></trkpt>
      <trkpt lat="22.3733245353" lon="114.1451255535"><ele>267.000</ele></trkpt>
      <trkpt lat="22.3733305892" lon="114.1451156434"><ele>264.000</ele></trkpt>
      <trkpt lat="22.3733353284" lon="114.1451108292"><ele>264.000</ele></trkpt>
      <trkpt lat="22.3733448067" lon="114.1451057304"><ele>268.000</ele></trkpt>
      <trkpt lat="22.3733556021" lon="114.1451023306"><ele>268.000</ele></trkpt>
      <trkpt lat="22.3733653447" lon="114.1451003466"><ele>268.000</ele></trkpt>
      <trkpt lat="22.3733785095" lon="114.1450960966"><ele>268.000</ele></trkpt>
      <trkpt lat="22.3733900947" lon="114.1450909983"><ele>273.000</ele></trkpt>
      <trkpt lat="22.3733977304" lon="114.1450884488"><ele>273.000</ele></trkpt>
      <trkpt lat="22.3734156353" lon="114.1450844802"><ele>273.000</ele></trkpt>
      <trkpt lat="22.3734232702" lon="114.1450774011"><ele>273.000</ele></trkpt>
      <trkpt lat="22.3734311675" lon="114.1450686227"><ele>270.000</ele></trkpt>
      <trkpt lat="22.3734385390" lon="114.1450589948"><ele>274.000</ele></trkpt>
      <trkpt lat="22.3734453840" lon="114.1450538966"><ele>274.000</ele></trkpt>
      <trkpt lat="22.3734564416" lon="114.1450476653"><ele>274.000</ele></trkpt>
      <trkpt lat="22.3734643405" lon="114.1450422844"><ele>274.000</ele></trkpt>
      <trkpt lat="22.3734854031" lon="114.1450275577"><ele>277.000</ele></trkpt>
      <trkpt lat="22.3734956716" lon="114.1450221762"><ele>277.000</ele></trkpt>
      <trkpt lat="22.3735241059" lon="114.1450031999"><ele>276.000</ele></trkpt>
      <trkpt lat="22.3735480643" lon="114.1449870569"><ele>276.000</ele></trkpt>
      <trkpt lat="22.3735662318" lon="114.1449768604"><ele>276.000</ele></trkpt>
      <trkpt lat="22.3735780788" lon="114.1449672315"><ele>274.000</ele></trkpt>
      <trkpt lat="22.3735862407" lon="114.1449632662"><ele>274.000</ele></trkpt>
      <trkpt lat="22.3735994053" lon="114.1449578840"><ele>274.000</ele></trkpt>
      <trkpt lat="22.3736104650" lon="114.1449578815"><ele>274.000</ele></trkpt>
      <trkpt lat="22.3736278433" lon="114.1449578775"><ele>274.000</ele></trkpt>
      <trkpt lat="22.3736383769" lon="114.1449595733"><ele>274.000</ele></trkpt>
      <trkpt lat="22.3736628671" lon="114.1449657965"><ele>274.000</ele></trkpt>
      <trkpt lat="22.3737248456" lon="114.1449848737"><ele>276.000</ele></trkpt>
      <trkpt lat="22.3737809993" lon="114.1450034862"><ele>275.000</ele></trkpt>
      <trkpt lat="22.3738210221" lon="114.1450143956"><ele>274.000</ele></trkpt>
      <trkpt lat="22.3738723959" lon="114.1450285136"><ele>276.000</ele></trkpt>
      <trkpt lat="22.3739106260" lon="114.1450342851"><ele>276.000</ele></trkpt>
      <trkpt lat="22.3739327274" lon="114.1450342801"><ele>276.000</ele></trkpt>
      <trkpt lat="22.3739548286" lon="114.1450336332"><ele>276.000</ele></trkpt>
      <trkpt lat="22.3739703598" lon="114.1450361989"><ele>276.000</ele></trkpt>
      <trkpt lat="22.3739870867" lon="114.1450439018"><ele>276.000</ele></trkpt>
      <trkpt lat="22.3740056050" lon="114.1450496778"><ele>276.000</ele></trkpt>
      <trkpt lat="22.3740187470" lon="114.1450535286"><ele>279.000</ele></trkpt>
      <trkpt lat="22.3740289018" lon="114.1450535263"><ele>279.000</ele></trkpt>
      <trkpt lat="22.3740378610" lon="114.1450490286"><ele>279.000</ele></trkpt>
      <trkpt lat="22.3740480146" lon="114.1450426033"><ele>279.000</ele></trkpt>
      <trkpt lat="22.3740623484" lon="114.1450316824"><ele>279.000</ele></trkpt>
      <trkpt lat="22.3740754875" lon="114.1450207608"><ele>275.000</ele></trkpt>
      <trkpt lat="22.3740838493" lon="114.1450136941"><ele>275.000</ele></trkpt>
      <trkpt lat="22.3740910161" lon="114.1450098387"><ele>275.000</ele></trkpt>
      <trkpt lat="22.3740993792" lon="114.1450098368"><ele>275.000</ele></trkpt>
      <trkpt lat="22.3741083382" lon="114.1450085501"><ele>275.000</ele></trkpt>
      <trkpt lat="22.3741155058" lon="114.1450046947"><ele>277.000</ele></trkpt>
      <trkpt lat="22.3741214784" lon="114.1449989131"><ele>277.000</ele></trkpt>
      <trkpt lat="22.3741268528" lon="114.1449912052"><ele>277.000</ele></trkpt>
      <trkpt lat="22.3741376036" lon="114.1449867062"><ele>277.000</ele></trkpt>
      <trkpt lat="22.3741495496" lon="114.1449841353"><ele>277.000</ele></trkpt>
      <trkpt lat="22.3741656775" lon="114.1449809196"><ele>278.000</ele></trkpt>
      <trkpt lat="22.3741782208" lon="114.1449802749"><ele>278.000</ele></trkpt>
      <trkpt lat="22.3742003221" lon="114.1449802699"><ele>277.000</ele></trkpt>
      <trkpt lat="22.3742212290" lon="114.1449815497"><ele>277.000</ele></trkpt>
      <trkpt lat="22.3742510970" lon="114.1449886078"><ele>276.000</ele></trkpt>
      <trkpt lat="22.3742917188" lon="114.1450008018"><ele>276.000</ele></trkpt>
      <trkpt lat="22.3743078484" lon="114.1450110740"><ele>276.000</ele></trkpt>
      <trkpt lat="22.3743287595" lon="114.1450341901"><ele>279.000</ele></trkpt>
      <trkpt lat="22.3743729734" lon="114.1450913415"><ele>279.000</ele></trkpt>
      <trkpt lat="22.3743867145" lon="114.1451061109"><ele>277.000</ele></trkpt>
      <trkpt lat="22.3743974696" lon="114.1451189535"><ele>279.000</ele></trkpt>
      <trkpt lat="22.3744189760" lon="114.1451337211"><ele>279.000</ele></trkpt>
      <trkpt lat="22.3744410825" lon="114.1451600490"><ele>278.000</ele></trkpt>
      <trkpt lat="22.3744542285" lon="114.1451799559"><ele>278.000</ele></trkpt>
      <trkpt lat="22.3744578170" lon="114.1452062880"><ele>278.000</ele></trkpt>
      <trkpt lat="22.3744512504" lon="114.1452268412"><ele>278.000</ele></trkpt>
      <trkpt lat="22.3744387120" lon="114.1452525352"><ele>278.000</ele></trkpt>
      <trkpt lat="22.3744267694" lon="114.1452769434"><ele>280.000</ele></trkpt>
      <trkpt lat="22.3744202020" lon="114.1452936437"><ele>283.000</ele></trkpt>
      <trkpt lat="22.3744202054" lon="114.1453109854"><ele>283.000</ele></trkpt>
      <trkpt lat="22.3744231967" lon="114.1453315365"><ele>285.000</ele></trkpt>
      <trkpt lat="22.3744285762" lon="114.1453501615"><ele>282.000</ele></trkpt>
      <trkpt lat="22.3744375393" lon="114.1453655738"><ele>285.000</ele></trkpt>
      <trkpt lat="22.3744536697" lon="114.1453796998"><ele>285.000</ele></trkpt>
      <trkpt lat="22.3744668130" lon="114.1453906155"><ele>285.000</ele></trkpt>
      <trkpt lat="22.3744817479" lon="114.1453963924"><ele>285.000</ele></trkpt>
      <trkpt lat="22.3744990709" lon="114.1453995995"><ele>285.000</ele></trkpt>
      <trkpt lat="22.3745205752" lon="114.1453989529"><ele>285.000</ele></trkpt>
      <trkpt lat="22.3745414807" lon="114.1453931670"><ele>285.000</ele></trkpt>
      <trkpt lat="22.3745677612" lon="114.1453835270"><ele>283.000</ele></trkpt>
      <trkpt lat="22.3745970280" lon="114.1453726028"><ele>283.000</ele></trkpt>
      <trkpt lat="22.3746197260" lon="114.1453668174"><ele>282.000</ele></trkpt>
      <trkpt lat="22.3746430216" lon="114.1453642430"><ele>282.000</ele></trkpt>
      <trkpt lat="22.3746669147" lon="114.1453648794"><ele>281.000</ele></trkpt>
      <trkpt lat="22.3746836415" lon="114.1453719405"><ele>281.000</ele></trkpt>
      <trkpt lat="22.3747081353" lon="114.1453873493"><ele>280.000</ele></trkpt>
      <trkpt lat="22.3747290457" lon="114.1454072545"><ele>280.000</ele></trkpt>
      <trkpt lat="22.3747481656" lon="114.1454329414"><ele>280.000</ele></trkpt>
      <trkpt lat="22.3747708717" lon="114.1454733990"><ele>280.000</ele></trkpt>
      <trkpt lat="22.3747887999" lon="114.1455144995"><ele>278.000</ele></trkpt>
      <trkpt lat="22.3748013472" lon="114.1455299110"><ele>278.000</ele></trkpt>
      <trkpt lat="22.3748121013" lon="114.1455421119"><ele>278.000</ele></trkpt>
      <trkpt lat="22.3748258408" lon="114.1455491737"><ele>278.000</ele></trkpt>
      <trkpt lat="22.3748521264" lon="114.1455607283"><ele>279.000</ele></trkpt>
      <trkpt lat="22.3748766189" lon="114.1455697151"><ele>277.000</ele></trkpt>
      <trkpt lat="22.3748993190" lon="114.1455793441"><ele>277.000</ele></trkpt>
      <trkpt lat="22.3749112661" lon="114.1455825525"><ele>277.000</ele></trkpt>
      <trkpt lat="22.3749232121" lon="114.1455799806"><ele>276.000</ele></trkpt>
      <trkpt lat="22.3749429233" lon="114.1455716267"><ele>276.000</ele></trkpt>
      <trkpt lat="22.3749620354" lon="114.1455619884"><ele>276.000</ele></trkpt>
      <trkpt lat="22.3749829402" lon="114.1455523496"><ele>274.000</ele></trkpt>
      <trkpt lat="22.3749984695" lon="114.1455452813"><ele>274.000</ele></trkpt>
      <trkpt lat="22.3750157928" lon="114.1455452774"><ele>274.000</ele></trkpt>
      <trkpt lat="22.3750366989" lon="114.1455427035"><ele>274.000</ele></trkpt>
      <trkpt lat="22.3750677589" lon="114.1455356317"><ele>272.000</ele></trkpt>
      <trkpt lat="22.3750832887" lon="114.1455311326"><ele>272.000</ele></trkpt>
      <trkpt lat="22.3750946427" lon="114.1455587477"><ele>274.000</ele></trkpt>
      <trkpt lat="22.3751095841" lon="114.1455979225"><ele>270.000</ele></trkpt>
      <trkpt lat="22.3751334882" lon="114.1456557208"><ele>269.000</ele></trkpt>
      <trkpt lat="22.3751532064" lon="114.1456884725"><ele>266.000</ele></trkpt>
      <trkpt lat="22.3751824849" lon="114.1457340663"><ele>264.000</ele></trkpt>
      <trkpt lat="22.3752219170" lon="114.1457777323"><ele>261.000</ele></trkpt>
      <trkpt lat="22.3752559712" lon="114.1458111227"><ele>258.000</ele></trkpt>
      <trkpt lat="22.3752635503" lon="114.1458195715"><ele>258.000</ele></trkpt>
      <trkpt lat="22.3752640449" lon="114.1458273975"><ele>258.000</ele></trkpt>
      <trkpt lat="22.3752640468" lon="114.1458372122"><ele>258.000</ele></trkpt>
      <trkpt lat="22.3752655296" lon="114.1458466295"><ele>256.000</ele></trkpt>
      <trkpt lat="22.3752670112" lon="114.1458547204"><ele>256.000</ele></trkpt>
      <trkpt lat="22.3752704663" lon="114.1458592298"><ele>256.000</ele></trkpt>
      <trkpt lat="22.3752752771" lon="114.1458602900"><ele>256.000</ele></trkpt>
      <trkpt lat="22.3752819391" lon="114.1458616149"><ele>256.000</ele></trkpt>
      <trkpt lat="22.3752902777" lon="114.1458700568"><ele>258.000</ele></trkpt>
      <trkpt lat="22.3753039146" lon="114.1458835417"><ele>258.000</ele></trkpt>
      <trkpt lat="22.3753126419" lon="114.1458891103"><ele>258.000</ele></trkpt>
      <trkpt lat="22.3753276418" lon="114.1458949707"><ele>258.000</ele></trkpt>
      <trkpt lat="22.3753385501" lon="114.1458964345"><ele>260.000</ele></trkpt>
      <trkpt lat="22.3753491849" lon="114.1458943795"><ele>259.000</ele></trkpt>
      <trkpt lat="22.3753715449" lon="114.1458914432"><ele>259.000</ele></trkpt>
      <trkpt lat="22.3754014362" lon="114.1458836667"><ele>260.000</ele></trkpt>
      <trkpt lat="22.3754450396" lon="114.1458759494"><ele>258.000</ele></trkpt>
      <trkpt lat="22.3754832693" lon="114.1458752991"><ele>258.000</ele></trkpt>
      <trkpt lat="22.3755280691" lon="114.1458765738"><ele>256.000</ele></trkpt>
      <trkpt lat="22.3755639104" lon="114.1458810616"><ele>255.000</ele></trkpt>
      <trkpt lat="22.3756230465" lon="114.1458842596"><ele>256.000</ele></trkpt>
      <trkpt lat="22.3756535106" lon="114.1458823264"><ele>258.000</ele></trkpt>
      <trkpt lat="22.3756863615" lon="114.1458707576"><ele>258.000</ele></trkpt>
      <trkpt lat="22.3757066682" lon="114.1458553387"><ele>263.000</ele></trkpt>
      <trkpt lat="22.3757359315" lon="114.1458264308"><ele>259.000</ele></trkpt>
      <trkpt lat="22.3757550418" lon="114.1458020198"><ele>259.000</ele></trkpt>
      <trkpt lat="22.3757723583" lon="114.1457718299"><ele>253.000</ele></trkpt>
      <trkpt lat="22.3757854928" lon="114.1457365015"><ele>258.000</ele></trkpt>
      <trkpt lat="22.3758016131" lon="114.1456941085"><ele>255.000</ele></trkpt>
      <trkpt lat="22.3758123601" lon="114.1456690575"><ele>255.000</ele></trkpt>
      <trkpt lat="22.3758272882" lon="114.1456395100"><ele>255.000</ele></trkpt>
      <trkpt lat="22.3758416193" lon="114.1456144582"><ele>255.000</ele></trkpt>
      <trkpt lat="22.3758547574" lon="114.1456028947"><ele>251.000</ele></trkpt>
      <trkpt lat="22.3758690922" lon="114.1455919727"><ele>251.000</ele></trkpt>
      <trkpt lat="22.3758822323" lon="114.1455861895"><ele>253.000</ele></trkpt>
      <trkpt lat="22.3758971643" lon="114.1455816905"><ele>253.000</ele></trkpt>
      <trkpt lat="22.3759150836" lon="114.1455771899"><ele>254.000</ele></trkpt>
      <trkpt lat="22.3759347946" lon="114.1455726898"><ele>254.000</ele></trkpt>
      <trkpt lat="22.3759539095" lon="114.1455726855"><ele>254.000</ele></trkpt>
      <trkpt lat="22.3759766089" lon="114.1455739651"><ele>254.000</ele></trkpt>
      <trkpt lat="22.3759999047" lon="114.1455771709"><ele>254.000</ele></trkpt>
      <trkpt lat="22.3760279805" lon="114.1455816613"><ele>252.000</ele></trkpt>
      <trkpt lat="22.3760470956" lon="114.1455822989"><ele>252.000</ele></trkpt>
      <trkpt lat="22.3760668074" lon="114.1455822945"><ele>250.000</ele></trkpt>
      <trkpt lat="22.3760901029" lon="114.1455790782"><ele>250.000</ele></trkpt>
      <trkpt lat="22.3761056326" lon="114.1455739363"><ele>250.000</ele></trkpt>
      <trkpt lat="22.3761510257" lon="114.1455520886"><ele>250.000</ele></trkpt>
      <trkpt lat="22.3761886539" lon="114.1455321700"><ele>250.000</ele></trkpt>
      <trkpt lat="22.3762298652" lon="114.1455109660"><ele>250.000</ele></trkpt>
      <trkpt lat="22.3762531592" lon="114.1455006848"><ele>248.000</ele></trkpt>
      <trkpt lat="22.3762764535" lon="114.1454916872"><ele>248.000</ele></trkpt>
      <trkpt lat="22.3762955681" lon="114.1454897565"><ele>248.000</ele></trkpt>
      <trkpt lat="22.3763152808" lon="114.1454942478"><ele>248.000</ele></trkpt>
      <trkpt lat="22.3763427594" lon="114.1455013066"><ele>247.000</ele></trkpt>
      <trkpt lat="22.3763618757" lon="114.1455083672"><ele>248.000</ele></trkpt>
      <trkpt lat="22.3763762121" lon="114.1455109332"><ele>248.000</ele></trkpt>
      <trkpt lat="22.3763929368" lon="114.1455070757"><ele>248.000</ele></trkpt>
      <trkpt lat="22.3764048819" lon="114.1455000080"><ele>248.000</ele></trkpt>
      <trkpt lat="22.3764138390" lon="114.1454845915"><ele>248.000</ele></trkpt>
      <trkpt lat="22.3764204058" lon="114.1454646799"><ele>248.000</ele></trkpt>
      <trkpt lat="22.3764395121" lon="114.1454203586"><ele>248.000</ele></trkpt>
      <trkpt lat="22.3764538420" lon="114.1453888836"><ele>247.000</ele></trkpt>
      <trkpt lat="22.3764741435" lon="114.1453516279"><ele>248.000</ele></trkpt>
      <trkpt lat="22.3765034027" lon="114.1452976700"><ele>250.000</ele></trkpt>
      <trkpt lat="22.3765266895" lon="114.1452501367"><ele>250.000</ele></trkpt>
      <trkpt lat="22.3765499773" lon="114.1452077417"><ele>248.000</ele></trkpt>
      <trkpt lat="22.3765660996" lon="114.1451807630"><ele>248.000</ele></trkpt>
      <trkpt lat="22.3765774465" lon="114.1451666295"><ele>248.000</ele></trkpt>
      <trkpt lat="22.3765875999" lon="114.1451595633"><ele>246.000</ele></trkpt>
      <trkpt lat="22.3766031283" lon="114.1451479981"><ele>244.000</ele></trkpt>
      <trkpt lat="22.3766234353" lon="114.1451390021"><ele>244.000</ele></trkpt>
      <trkpt lat="22.3766401591" lon="114.1451306488"><ele>246.000</ele></trkpt>
      <trkpt lat="22.3766544928" lon="114.1451190849"><ele>246.000</ele></trkpt>
      <trkpt lat="22.3766664367" lon="114.1451055941"><ele>243.000</ele></trkpt>
      <trkpt lat="22.3766789776" lon="114.1450882503"><ele>243.000</ele></trkpt>
      <trkpt lat="22.3766856684" lon="114.1450705107"><ele>243.000</ele></trkpt>
      <trkpt lat="22.3766966664" lon="114.1450641307"><ele>240.000</ele></trkpt>
      <trkpt lat="22.3767074923" lon="114.1450555534"><ele>240.000</ele></trkpt>
      <trkpt lat="22.3767169370" lon="114.1450494349"><ele>240.000</ele></trkpt>
      <trkpt lat="22.3767243272" lon="114.1450429092"><ele>240.000</ele></trkpt>
      <trkpt lat="22.3767277718" lon="114.1450398672"><ele>241.000</ele></trkpt>
      <trkpt lat="22.3767379112" lon="114.1450303006"><ele>241.000</ele></trkpt>
      <trkpt lat="22.3767464897" lon="114.1450184273"><ele>238.000</ele></trkpt>
      <trkpt lat="22.3767577650" lon="114.1450081963"><ele>238.000</ele></trkpt>
      <trkpt lat="22.3767665414" lon="114.1449973774"><ele>238.000</ele></trkpt>
      <trkpt lat="22.3767751164" lon="114.1449813113"><ele>242.000</ele></trkpt>
      <trkpt lat="22.3767753420" lon="114.1449808879"><ele>242.000</ele></trkpt>
      <trkpt lat="22.3767862989" lon="114.1449495806"><ele>238.000</ele></trkpt>
      <trkpt lat="22.3767952086" lon="114.1449318288"><ele>238.000</ele></trkpt>
      <trkpt lat="22.3767985117" lon="114.1449214394"><ele>237.000</ele></trkpt>
      <trkpt lat="22.3768017792" lon="114.1449135532"><ele>237.000</ele></trkpt>
      <trkpt lat="22.3768069146" lon="114.1448982685"><ele>237.000</ele></trkpt>
      <trkpt lat="22.3768095313" lon="114.1448829651"><ele>237.000</ele></trkpt>
      <trkpt lat="22.3768127988" lon="114.1448753323"><ele>237.000</ele></trkpt>
      <trkpt lat="22.3768161001" lon="114.1448602812"><ele>236.000</ele></trkpt>
      <trkpt lat="22.3768230778" lon="114.1448452583"><ele>239.000</ele></trkpt>
      <trkpt lat="22.3768263371" lon="114.1448371206"><ele>239.000</ele></trkpt>
      <trkpt lat="22.3768286736" lon="114.1448297308"><ele>239.000</ele></trkpt>
      <trkpt lat="22.3768317589" lon="114.1448139320"><ele>239.000</ele></trkpt>
      <trkpt lat="22.3768366773" lon="114.1447974143"><ele>239.000</ele></trkpt>
      <trkpt lat="22.3768380936" lon="114.1447900150"><ele>239.000</ele></trkpt>
      <trkpt lat="22.3768402053" lon="114.1447823630"><ele>239.000</ele></trkpt>
      <trkpt lat="22.3768412136" lon="114.1447668075"><ele>238.000</ele></trkpt>
      <trkpt lat="22.3768440643" lon="114.1447520089"><ele>238.000</ele></trkpt>
      <trkpt lat="22.3768483748" lon="114.1447213924"><ele>238.000</ele></trkpt>
      <trkpt lat="22.3768526245" lon="114.1446980147"><ele>238.000</ele></trkpt>
      <trkpt lat="22.3768532319" lon="114.1446962484"><ele>238.000</ele></trkpt>
      <trkpt lat="22.3768536064" lon="114.1446905524"><ele>238.000</ele></trkpt>
      <trkpt lat="22.3768569087" lon="114.1446757450"><ele>237.000</ele></trkpt>
      <trkpt lat="22.3768579696" lon="114.1446525273"><ele>237.000</ele></trkpt>
      <trkpt lat="22.3768618377" lon="114.1446219731"><ele>236.000</ele></trkpt>
      <trkpt lat="22.3768620631" lon="114.1446201922"><ele>236.000</ele></trkpt>
      <trkpt lat="22.3768635319" lon="114.1446046375"><ele>237.000</ele></trkpt>
      <trkpt lat="22.3768633507" lon="114.1445969764"><ele>237.000</ele></trkpt>
      <trkpt lat="22.3768648624" lon="114.1445740110"><ele>236.000</ele></trkpt>
      <trkpt lat="22.3768644455" lon="114.1445665927"><ele>236.000</ele></trkpt>
      <trkpt lat="22.3768649497" lon="114.1445589412"><ele>236.000</ele></trkpt>
      <trkpt lat="22.3768663758" lon="114.1445510467"><ele>236.000</ele></trkpt>
      <trkpt lat="22.3768671049" lon="114.1445436378"><ele>236.000</ele></trkpt>
      <trkpt lat="22.3768688960" lon="114.1445135074"><ele>236.000</ele></trkpt>
      <trkpt lat="22.3768710512" lon="114.1444979613"><ele>236.000</ele></trkpt>
      <trkpt lat="22.3768754640" lon="114.1444825409"><ele>236.000</ele></trkpt>
      <trkpt lat="22.3768855297" lon="114.1444568480"><ele>236.000</ele></trkpt>
      <trkpt lat="22.3768926957" lon="114.1444446429"><ele>236.000</ele></trkpt>
      <trkpt lat="22.3769040419" lon="114.1444324368"><ele>233.000</ele></trkpt>
      <trkpt lat="22.3769165848" lon="114.1444253689"><ele>232.000</ele></trkpt>
      <trkpt lat="22.3769321150" lon="114.1444227960"><ele>232.000</ele></trkpt>
      <trkpt lat="22.3769530224" lon="114.1444266451"><ele>232.000</ele></trkpt>
      <trkpt lat="22.3769787094" lon="114.1444343469"><ele>231.000</ele></trkpt>
      <trkpt lat="22.3769918521" lon="114.1444414088"><ele>234.000</ele></trkpt>
      <trkpt lat="22.3769924512" lon="114.1444523266"><ele>234.000</ele></trkpt>
      <trkpt lat="22.3770014131" lon="114.1444613169"><ele>231.000</ele></trkpt>
      <trkpt lat="22.3770199348" lon="114.1444799382"><ele>231.000</ele></trkpt>
      <trkpt lat="22.3770402469" lon="114.1444966327"><ele>231.000</ele></trkpt>
      <trkpt lat="22.3770593637" lon="114.1445062625"><ele>228.000</ele></trkpt>
      <trkpt lat="22.3770910246" lon="114.1445191005"><ele>226.000</ele></trkpt>
      <trkpt lat="22.3771161143" lon="114.1445242333"><ele>226.000</ele></trkpt>
      <trkpt lat="22.3771417997" lon="114.1445280812"><ele>224.000</ele></trkpt>
      <trkpt lat="22.3771740557" lon="114.1445274310"><ele>224.000</ele></trkpt>
      <trkpt lat="22.3772087003" lon="114.1445222854"><ele>225.000</ele></trkpt>
      <trkpt lat="22.3772296057" lon="114.1445164993"><ele>224.000</ele></trkpt>
      <trkpt lat="22.3772445386" lon="114.1445164958"><ele>224.000</ele></trkpt>
      <trkpt lat="22.3772546934" lon="114.1445164935"><ele>224.000</ele></trkpt>
      <trkpt lat="22.3772767954" lon="114.1445197005"><ele>221.000</ele></trkpt>
      <trkpt lat="22.3773030786" lon="114.1445235473"><ele>221.000</ele></trkpt>
      <trkpt lat="22.3773257784" lon="114.1445267541"><ele>218.000</ele></trkpt>
      <trkpt lat="22.3773628137" lon="114.1445325259"><ele>218.000</ele></trkpt>
      <trkpt lat="22.3773807349" lon="114.1445376603"><ele>219.000</ele></trkpt>
      <trkpt lat="22.3773914892" lon="114.1445505032"><ele>219.000</ele></trkpt>
      <trkpt lat="22.3774070238" lon="114.1445697681"><ele>220.000</ele></trkpt>
      <trkpt lat="22.3774237532" lon="114.1445896746"><ele>221.000</ele></trkpt>
      <trkpt lat="22.3774428702" lon="114.1445999462"><ele>221.000</ele></trkpt>
      <trkpt lat="22.3774661686" lon="114.1446121444"><ele>221.000</ele></trkpt>
      <trkpt lat="22.3774852847" lon="114.1446179203"><ele>221.000</ele></trkpt>
      <trkpt lat="22.3775091785" lon="114.1446217687"><ele>216.000</ele></trkpt>
      <trkpt lat="22.3775306832" lon="114.1446236902"><ele>216.000</ele></trkpt>
      <trkpt lat="22.3775635350" lon="114.1446172605"><ele>215.000</ele></trkpt>
      <trkpt lat="22.3775880241" lon="114.1446089052"><ele>215.000</ele></trkpt>
      <trkpt lat="22.3776149007" lon="114.1445947681"><ele>215.000</ele></trkpt>
      <trkpt lat="22.3776435685" lon="114.1445742093"><ele>216.000</ele></trkpt>
      <trkpt lat="22.3776626809" lon="114.1445613595"><ele>216.000</ele></trkpt>
      <trkpt lat="22.3776770149" lon="114.1445517219"><ele>216.000</ele></trkpt>
      <trkpt lat="22.3776901545" lon="114.1445433693"><ele>216.000</ele></trkpt>
      <trkpt lat="22.3777074751" lon="114.1445298771"><ele>213.000</ele></trkpt>
      <trkpt lat="22.3777200160" lon="114.1445176707"><ele>213.000</ele></trkpt>
      <trkpt lat="22.3777391270" lon="114.1444977559"><ele>203.000</ele></trkpt>
      <trkpt lat="22.3777447395" lon="114.1444919312"><ele>203.000</ele></trkpt>
      <trkpt lat="22.3778746931" lon="114.1443570653"><ele>198.000</ele></trkpt>
      <trkpt lat="22.3779684672" lon="114.1443223612"><ele>212.000</ele></trkpt>
      <trkpt lat="22.3780066944" lon="114.1443088642"><ele>210.000</ele></trkpt>
      <trkpt lat="22.3780407401" lon="114.1442985801"><ele>200.000</ele></trkpt>
      <trkpt lat="22.3780861569" lon="114.1442920415"><ele>200.000</ele></trkpt>
    </trkseg>
  </trk>
</gpx>
